"#property","latitude","longitude","address","alternativeName","city","name","corporateRepresentative","establisher","openingDate","telephoneNumber","faxNumber","fullNameInKana","identification","katagaki","medicalCode","medicalSubjects","note","numberOfBeds","overtimeResponse","pref","prefCode","referenceObject"
"jp.takamatsu.smartcity.medical.Hospital.1","34.236976","134.021769","香川県高松市香南町大字由佐113-1","病院","高松市","医療法人社団以和貴会いわき病院","理事長　渡邊　朋之","医療法人社団以和貴会","1974/4/1","087-879-3533","087-879-1080","イワキビョウイン",,,,"内科、心療内科、小児神経内科、精神科、神経科、神経内科、呼吸器科、消化器科、リハビリ科、麻酔科、歯科",,"237",,"香川県","372013","http://www.iwaki-hospital.or.jp/"
"jp.takamatsu.smartcity.medical.Hospital.2","34.315735","134.043564","香川県高松市上天神町336","病院","高松市","一般財団法人大西精神衛生研究所附属大西病院","理事長　吉田　穂束","一般財団法人大西精神衛生研究所","1950/12/20","087-866-1792","087-865-7601","オオニシビョウイン",,,,"精神科",,"374",,"香川県","372013","http://ohnishi-hp.or.jp/"
"jp.takamatsu.smartcity.medical.Hospital.3","34.291262","134.03246","香川県高松市三名町378-1","病院","高松市","医療法人社団新進会おさか脳神経外科病院","理事長　苧坂　邦彦","医療法人社団新進会","1984/10/1","087-886-3300","087-885-3038","オサカノウシンケイゲカビョウイン",,,,"内科、脳神経内科、循環器内科、外科、整形外科、脳神経外科、リハビリ科、放射線科、麻酔科",,"69",,"香川県","372013","https://www.osaka-nhp.jp/"
"jp.takamatsu.smartcity.medical.Hospital.4","34.266491","134.034178","香川県高松市香川町浅野272","病院","高松市","医療法人社団仁樹会オサカ病院","理事長　森川　穎二","医療法人社団仁樹会","1994/4/1","087-889-0703","087-889-6539","オサカビョウイン",,,,"内科、循環器内科、外科、整形外科、形成外科、泌尿器科、リハビリ科、放射線科、麻酔科",,"52",,"香川県","372013","http://www.osaka-hp.jp/"
"jp.takamatsu.smartcity.medical.Hospital.5","34.295549","134.058338","香川県高松市多肥上町1331-1","病院","高松市","社会福祉法人恩賜財団済生会支部香川県済生会病院","支部長　一井　眞比古","社会福祉法人恩賜財団済生会支部香川県済生会","2004/4/1","087-868-1551","087-868-9733","カガワケンサイセイカイビョウイン",,,,"内科、消化器内科、循環器内科、糖尿病内科、腎臓内科、人工透析内科、内視鏡内科、小児科、外科、整形外科、消化器外科、内視鏡外科、皮膚科、泌尿器科、眼科、リハビリ科、放射線科、麻酔科",,"198",,"香川県","372013","http://www.saiseikai-kagawa.jp/"
"jp.takamatsu.smartcity.medical.Hospital.6","34.348813","134.062552","香川県高松市朝日町一丁目2-1","病院","高松市","香川県立中央病院","香川県知事","香川県","2014/3/1","087-811-3333",,"カガワケンリツチュウオウビョウイン",,,,"内科、呼吸器内科、消化器内科、循環器内科、糖尿病内科、腎臓内科、脳神経内科、血液内科、緩和ケア内科、肝臓内科、腫瘍内科、小児科、外科、整形外科、形成外科、脳神経外科、頭頚部外科、呼吸器外科、消化器外科、乳腺・内分泌外科、心臓血管外科、皮膚科、泌尿器科、産婦人科、眼科、耳鼻咽喉科、リハビリ科、放射線科、病理診断科、救急科、麻酔科、歯科、歯科口腔外科、分娩実施、透析実施",,"533",,"香川県","372013","http://www.chp-kagawa.jp/"
"jp.takamatsu.smartcity.medical.Hospital.7","34.30674","134.030365","香川県高松市田村町1114","病院","高松市","かがわ総合リハビリテーション病院　","香川県知事","香川県","1986/4/1","087-867-6008","087-865-3915","カガワソウゴウリハビリテーションビョウイン",,,,"内科、循環器内科、小児科、整形外科、脳神経外科、皮膚科、泌尿器科、眼科、耳鼻咽喉科、リハビリ科、歯科",,"184",,"香川県","372013","http://www.kagawa-reha.net/http://www.kagawa-reha.net/hospital.html"
"jp.takamatsu.smartcity.medical.Hospital.8","34.321035","134.080172","香川県高松市木太町3836-7","病院","高松市","医療法人社団三恵会木太三宅病院","理事長　三宅　泰二郎","医療法人社団三恵会","2000/9/1","087-867-3131","087-867-3133","キタミヤケビョウイン",,,,"内科、消化器内科、循環器内科、外科、整形外科、消化器外科、心臓血管外科、肛門外科、リハビリ科、",,"31",,"香川県","372013","http://www.kitamiyake.jp/"
"jp.takamatsu.smartcity.medical.Hospital.9","34.33271","134.002186","香川県高松市鬼無町藤井435-1","病院","高松市","医療法人財団博仁会キナシ大林病院","理事長　川上　由佳","医療法人財団博仁会","2005/5/1","087-881-3631","087-881-3867","キナシオオバヤシビョウイン",,,,"内科、心療内科、精神科、神経内科、呼吸器内科科、消化器内科、循環器内科、糖尿病内科、腎臓内科、人工透析内科、血液内科、外科、整形外科、形成外科、脳神経外科、消化器外科、乳腺・内分泌外科、泌尿器科、眼科、リハビリ科、放射線科、放射線診断科、麻酔科、皮膚科、透析実施",,"254",,"香川県","372013","http://www.obayashihp.or.jp/"
"jp.takamatsu.smartcity.medical.Hospital.10","34.32859","134.105524","香川県高松市新田町甲474-3","病院","高松市","医療法人社団啓友会久米川病院","理事長　吉澤　潔","医療法人社団啓友会","1995/4/1","087-844-3111","087-844-3112","クメガワビョウイン",,,,"呼吸器内科、消化器内科、循環器内科、糖尿病内科、リウマチ科、整形外科、脳神経外科、呼吸器外科、消化器外科、乳腺・内分泌外科、循環器外科、皮膚科、泌尿器科、リハビリ科",,"49",,"香川県","372013","http://kumegawa-hsp.jp/"
"jp.takamatsu.smartcity.medical.Hospital.11","34.344057","134.055098","香川県高松市塩屋町1-4","病院","高松市","医療法人社団雙和会クワヤ病院","理事長　石濱　英暢","医療法人社団雙和会","1997/4/1","087-851-5208","087-851-6027","クワヤビョウイン",,,,"内科、心療内科、精神科、呼吸器科、胃腸内科、循環器科、糖尿病内科、ペインクリニック内科、リウマチ科、整形外科、皮膚科、美容皮膚科、泌尿器科、リハビリ科、放射線科、麻酔科",,"73",,"香川県","372013","http://www.kuwaya.or.jp/"
"jp.takamatsu.smartcity.medical.Hospital.12","34.407704","134.107814","香川県高松市庵治町6034-1","病院","高松市","国立療養所大島青松園","厚生労働大臣","厚生労働省","1941/7/1","087-871-3131","087-871-4821","コクリツリョウヨウジョオオシマセイショウエン",,,,"内科、外科、整形外科、形成外科、皮膚科、眼科、耳鼻咽喉科、歯科",,"100",,"香川県","372013","https://www.mhlw.go.jp/seisakunitsuite/bunya/kenkou_iryou/iryou/hansen/osima/"
"jp.takamatsu.smartcity.medical.Hospital.14","34.331623","134.151581","香川県高松市牟礼町原883-1","病院","高松市","医療法人社団光風会三光病院","理事長　海野　順","医療法人社団光風会","1982/11/1","087-845-3301","087-845-6822","サンコウビョウイン",,,,"内科、精神科、心療内科、児童精神科、老年精神科",,"320",,"香川県","372013","http://www.sanko-hp.com/"
"jp.takamatsu.smartcity.medical.Hospital.15","34.343719","134.045431","香川県高松市番町一丁目4-13","病院","高松市","整形外科吉峰病院",,"吉峰　公博","1993/6/1","087-851-8775","087-821-5964","セイケイゲカヨシミネビョウイン",,,,"内科、消化器内科、脳神経内科、リウマチ科、外科、整形外科、皮膚科、リハビリ科",,"54",,"香川県","372013","https://www.yoshimine.com/"
"jp.takamatsu.smartcity.medical.Hospital.16","34.291538","133.95823","香川県高松市国分寺町新名500-1","病院","高松市","医療法人社団有史会高畠病院","理事長　高畠　渉","医療法人社団有史会","1998/12/18","087-874-3131","087-874-4464","タカバタケビョウイン",,,,"内科、神経内科、胃腸内科、循環器内科、外科、整形外科、肛門科、眼科、リハビリ科",,"98",,"香川県","372013","https://www.takabatake-hp.com/"
"jp.takamatsu.smartcity.medical.Hospital.17","34.319621","134.110708","香川県高松市新田町乙8","病院","高松市","独立行政法人国立病院機構高松医療センター","理事長　新木　一弘","独立行政法人国立病院機構","1947/4/1","087-841-2146","087-843-5545","タカマツイリョウセンター",,,,"内科、神経内科、呼吸器内科、消化器内科、循環器内科、外科、整形外科、皮膚科、泌尿器科、リハビリ科、麻酔科、歯科",,"240",,"香川県","372013","http://www.takamatsu-mc.jp/"
"jp.takamatsu.smartcity.medical.Hospital.18","34.342143","134.045402","香川県高松市番町一丁目10-3","病院","高松市","医療法人社団康生会高松大林病院","理事長　大林　直嗣","医療法人社団康生会","1995/4/1","087-862-1231","087-834-4636","タカマツオオバヤシビョウイン",,,,"内科、循環器内科、リハビリ科、放射線科",,"49",,"香川県","372013","http://wwwb.pikara.ne.jp/kouseikai/"
"jp.takamatsu.smartcity.medical.Hospital.19","34.323272","134.085667","香川県高松市木太町4664","病院","高松市","高松協同病院","理事長　北原　孝夫","香川医療生活協同組合","2010/1/1","087-833-2330","087-833-2880","タカマツキョウドウビョウイン",,,,"内科、整形外科、リハビリ科",,"85",,"香川県","372013","https://t-kyodo.com/"
"jp.takamatsu.smartcity.medical.Hospital.20","34.171485","134.080528","香川県高松市塩江町安原上東99-1","病院","高松市","高松市民病院塩江分院","高松市長","高松市","2005/9/26","087-893-0031","087-893-0104","タカマツシミンビョウインシオノエブンイン",,,,"内科、外科、整形外科、脳神経外科、皮膚科、リハビリ科、歯科",,"87",,"香川県","372013","http://tmh-shionoe.jpn.org/"
"jp.takamatsu.smartcity.medical.Hospital.21","34.282689","134.040477","香川県高松市仏生山町甲847番地1","病院","高松市","高松市立みんなの病院","高松市長","高松市","2018/9/1","087-813-7171",,"タカマツシリツミンナノビョウイン",,,,"内科、精神科、呼吸器内科、消化器内科、循環器内科、糖尿病内科、脳神経内科、小児科、外科、整形外科、形成外科、脳神経外科、脳血管外科、呼吸器外科、皮膚科、泌尿器科、産科、婦人科、眼科、耳鼻咽喉科、リハビリ科、放射線科、救急科、病理診断科、臨床検査科、麻酔科、歯科口腔外科、分娩実施、透析実施",,"305",,"香川県","372013","http://www.takamatsu-municipal-hospital.jp/"
"jp.takamatsu.smartcity.medical.Hospital.22","34.340801","134.044464","香川県高松市番町四丁目1-3","病院","高松市","高松赤十字病院","社長　清家　篤","日本赤十字社","1907/6/30","087-831-7101","087-834-7809","タカマツセキジュウジビョウイン",,,,"内科、精神科、神経内科、呼吸器内科、消化器内科、消化器・肝臓内科、循環器内科、内分泌・代謝内科、感染症内科、腎臓内科、脳神経内科、血液内科、腫瘍内科、小児科、整形外科、脳神経外科、消化器外科、胸部・乳腺外科、心臓血管外科、小児外科、膠原病・リウマチ科、脳卒中外科、腎臓外科（臓器移植）、皮膚科、形成外科、泌尿器科、産婦人科、眼科、耳鼻咽喉科、リハビリ科、放射線科、病理診断科、麻酔科、歯科口腔外科、救急科、分娩実施、透析実施",,"507",,"香川県","372013","https://www.takamatsu.jrc.or.jp/"
"jp.takamatsu.smartcity.medical.Hospital.23","34.339875","134.045563","香川県高松市天神前4-18","病院","高松市","国家公務員共済組合連合会高松病院","理事長　松元　崇","国家公務員共済組合連合会","1952/4/14","087-861-3261","087-835-0793","タカマツビョウイン",,,,"内科、呼吸器内科、消化器内科、循環器内科、腎臓内科、内分泌・代謝内科、脳神経内科、アレルギー科、リウマチ科、外科、脳神経外科、呼吸器外科、消化器外科、泌尿器科、婦人科、眼科、リハビリ科、放射線科、麻酔科",,"179",,"香川県","372013","http://www.kkr-ta-hp.gr.jp/"
"jp.takamatsu.smartcity.medical.Hospital.24","34.331441","134.046829","香川県高松市栗林町一丁目4-1","病院","高松市","香川医療生活協同組合高松平和病院","理事長　北原　孝夫","香川医療生活協同組合","1984/10/1","087-833-8113","087-831-1254","タカマツヘイワビョウイン",,,,"内科、呼吸器科、消化器科、循環器科、緩和ケア内科、アレルギー科、リウマチ科、小児科、整形外科、乳腺外科、リハビリ科、救急科、病理診断科",,"123",,"香川県","372013","https://www.t-heiwa.com/"
"jp.takamatsu.smartcity.medical.Hospital.25","34.334214","134.061087","香川県高松市観光町588-8","病院","高松市","医療法人社団和広会伊達病院","理事長　伊達　学","医療法人社団和広会","1997/9/17","087-831-1701","087-831-1704","ダテビョウイン",,,,"内科、外科、整形外科、リハビリ科、放射線科、乳腺外科",,"50",,"香川県","372013","http://www.date-med.or.jp/"
"jp.takamatsu.smartcity.medical.Hospital.26","34.348362","134.014858","香川県高松市郷東町580","病院","高松市","医療法人社団玉藻会馬場病院","理事長　馬場　信二","医療法人社団玉藻会","1997/4/1","087-881-4375","087-881-4378","ババビョウイン",,,,"内科、心療内科、精神科",,"427",,"香川県","372013","https://itp.ne.jp/info/377345325400000899/"
"jp.takamatsu.smartcity.medical.Hospital.27","34.338977","134.104172","香川県高松市屋島西町1937-1","病院","高松市","医療法人社団百石病院","理事長　江口　隆夫","医療法人社団百石病院","1984/11/1","087-843-6121","087-843-0257","ヒャッコクビョウイン",,,,"内科、循環器内科、外科、整形外科、脳神経外科、胃腸外科、小児外科、泌尿器科、肛門外科、リハビリ科、麻酔科",,"87",,"香川県","372013","https://hyakkokuhp.wixsite.com/hyakkokuhp"
"jp.takamatsu.smartcity.medical.Hospital.28","34.322403","134.064403","香川県高松市松縄町35-3","病院","高松市","医療法人社団研宣会広瀬病院","理事長　廣瀬　友彦","医療法人社団研宣会","1996/1/1","087-867-9911","087-867-9988","ヒロセビョウイン",,,,"リウマチ科、外科、整形外科、リハビリ科",,"43",,"香川県","372013","https://www.hirose-hosp.or.jp/"
"jp.takamatsu.smartcity.medical.Hospital.29","34.320523","134.038914","香川県高松市東ハゼ町824","病院","高松市","医療法人和光会前田病院","理事長　前田　雅彦","医療法人和光会","1966/12/13","087-865-7111","087-865-3336","マエダビョウイン",,,,"内科、消化器内科、肛門内科、ペインクリニック内科、外科、整形外科、消化器外科、肛門外科、リハビリ科、麻酔科",,"96",,"香川県","372013","https://www.maeda-hosp.com/"
"jp.takamatsu.smartcity.medical.Hospital.30","34.340911","134.052016","香川県高松市瓦町一丁目12-45","病院","高松市","医療法人社団弘徳会マオカ病院","理事長　満岡　弘巳","医療法人社団弘徳会","2003/4/1","087-862-8888","087-863-0880","マオカビョウイン",,,,"内科、リウマチ科、整形外科、リハビリ科、麻酔科",,"58",,"香川県","372013","https://itp.ne.jp/info/377311715400000899/https://hospital.dr-navip.jp/kagawa/facility/1518/"
"jp.takamatsu.smartcity.medical.Hospital.31","34.280338","134.060004","香川県高松市三谷町1680番地1","病院","高松市","医療法人社団清澄会　ミタニ病院","理事長　藤田　麻里子","医療法人社団清澄会","2019/1/1","087-864-8778","087-864-8668","ミタニビョウイン",,,,"内科、呼吸器内科、消化器内科、循環器内科、腎臓内科、泌尿器科、透析実施",,"85",,"香川県","372013","http://www.mitani-fujita-hp.jp/index.html"
"jp.takamatsu.smartcity.medical.Hospital.32","34.339993","134.045273","香川県高松市天神前5-5","病院","高松市","一般財団法人三宅医学研究所附属三宅リハビリテーション病院","理事長　三宅　信一郎","一般財団法人三宅医学研究所","2004/8/1","087-831-2101","087-835-1886","ミヤケリハビリテーションビョウイン",,,,"内科、脳神経内科、リウマチ科、整形外科、脳神経外科、リハビリ科、放射線科",,"61",,"香川県","372013","http://www.miyake.or.jp/"
"jp.takamatsu.smartcity.medical.Hospital.33","34.343432","134.090538","香川県高松市屋島西町2105-17","病院","高松市","香川県厚生農業協同組合連合会　屋島総合病院","代表理事理事長　田宮　隆","香川県厚生農業協同組合連合会","2016/11/1","087-841-9141","087-841-7392","ヤシマソウゴウビョウイン",,,,"内科、呼吸器内科、消化器内科、循環器内科、糖尿病内科、透析科、小児アレルギー科、小児科、外科、整形外科、形成外科、脳神経外科、消化器外科、乳腺外科、皮膚科、泌尿器科、肛門外科、産婦人科、眼科、耳鼻咽喉科、リハビリ科、放射線科、麻酔科、歯科、分娩実施、透析実施",,"279",,"香川県","372013","http://www.yashima-hp.com/"
"jp.takamatsu.smartcity.medical.Hospital.34","34.328696","134.050367","香川県高松市栗林町三丁目5-9","病院","高松市","独立行政法人地域医療機能推進機構りつりん病院","理事長　山本　修一","独立行政法人地域医療機能推進機構","1950/12/26","087-862-3171","087-837-1427","リツリンビョウイン",,,,"内科、呼吸器内科、循環器内科、小児科、外科、整形外科、脳神経外科、皮膚科、泌尿器科、婦人科、眼科、耳鼻咽喉科、リハビリ科、放射線科、麻酔科、歯科口腔外科",,"199",,"香川県","372013","https://ritsurin.jcho.go.jp/"
"jp.takamatsu.smartcity.medical.Hospital.36","34.297317","134.040245","香川県高松市太田上町420-1","無床診療所","高松市","あおば内科クリニック",,"辻上　幸司","2008/5/21","087-816-1122","087-816-1010","アオバナイカクリニック",,,,"内科、消化器内科",,,,"香川県","372013","http://aoba-naika.jp/publics/index/3/"
"jp.takamatsu.smartcity.medical.Hospital.37","34.34486","134.00793","香川県高松市香西東町433-1","無床診療所","高松市","美術館診療所","理事長　瀬尾　憲正","医療法人社団なつめ会","2020/2/1","087-881-2776",,"ビジュツカンシンリョウジョ",,,,"内科、循環器内科、呼吸器内科、糖尿病内科、ペインクリニック整形外科、泌尿器科、脳神経外科、リハビリ科、産婦人科、耳鼻咽喉科",,,,"香川県","372013","https://machikuri.or.jp/"
"jp.takamatsu.smartcity.medical.Hospital.38","34.302821","134.032987","香川県高松市鹿角町271-6","有床診療所","高松市","医療法人社団赤松内科医院","理事長　福川　徳三","医療法人社団赤松内科医院","1993/10/1","087-866-6667","087-888-5020","アカマツナイカイイン",,,,"内科",,"16",,"香川県","372013",
"jp.takamatsu.smartcity.medical.Hospital.39","34.271968","134.026198","香川県高松市香川町大野2452-2","無床診療所","高松市","医療法人社団阿河耳鼻咽喉科医院","理事長　阿河　邦治","医療法人社団阿河耳鼻咽喉科医院","1997/2/1","087-885-3387","087-885-5187","アガワジビインコウカイイン",,,,"耳鼻咽喉科",,,,"香川県","372013","https://itp.ne.jp/info/375868425400000899/"
"jp.takamatsu.smartcity.medical.Hospital.40","34.294085","134.078976","香川県高松市六条町605-5","無床診療所","高松市","医療法人社団裕心会あきた小児科クリニック","理事長　秋田　裕司","医療法人社団裕心会","2009/6/1","087-868-6000","087-868-6731","アキタショウニカクリニック",,,,"小児循環器内科、アレルギー科、小児科、",,,,"香川県","372013","https://www.akita-clinic.jp/"
"jp.takamatsu.smartcity.medical.Hospital.41","34.256135","134.028203","香川県高松市香川町大野459-5","有床診療所","高松市","医療法人社団健愛会あきやまクリニック","理事長　秋山　和己","医療法人社団健愛会","2006/1/1","087-815-8588","087-815-8688","アキヤマクリニック",,,,"内科、呼吸器内科、糖尿病内科、腎臓内科、泌尿器科",,"3",,"香川県","372013","https://www.akiyama-clinic.com/"
"jp.takamatsu.smartcity.medical.Hospital.43","34.347323","134.087915","香川県高松市屋島西町2490-19","無床診療所","高松市","浅野皮膚科医院",,"浅野　隆司","1999/5/12","087-843-2332","087-843-2344","アサノヒフカイイン",,,,"皮膚科",,,,"香川県","372013",
"jp.takamatsu.smartcity.medical.Hospital.44","34.335289","134.065965","香川県高松市観光町字川下538-2","無床診療所","高松市","あさひクリニック","理事長　西口　潤","医療法人社団愛和会","2015/8/1","087-831-0280",,"アサヒクリニック",,,,"内科、泌尿器科、産婦人科、小児科",,,,"香川県","372013","http://www.asahi-cl.jp/"
"jp.takamatsu.smartcity.medical.Hospital.45","34.380964","134.127817","香川県高松市庵治町619","無床診療所","高松市","医療法人社団庵治整形外科・内科医院","理事長　林　春樹","医療法人社団庵治整形外科・内科医院","1950/12/26","087-871-3801","087-871-3843","アジセイケイゲカ・ナイカイイン",,,,"内科、リウマチ科、整形外科、リハビリ科",,,,"香川県","372013",
"jp.takamatsu.smartcity.medical.Hospital.47","34.341829","134.133093","香川県高松市牟礼町牟礼1006-3","有床診療所","高松市","医療法人社団慈愛会阿部内科眼科医院","理事長　阿部　博","医療法人社団慈愛会","1994/10/1","087-845-1335","087-845-6126","アベナイカガンカイイン",,,,"内科、糖尿病内科、眼科",,"19（休床中）",,"香川県","372013",
"jp.takamatsu.smartcity.medical.Hospital.48","34.33438","134.048071","香川県高松市藤塚町一丁目4-11","無床診療所","高松市","医療法人社団阿部内科クリニック","理事長　阿部　美ゆき","医療法人社団阿部内科クリニック","2010/12/15","087-837-3131","087-837-3130","アベナイカクリニック",,,,"内科、診療内科、精神科",,,,"香川県","372013",
"jp.takamatsu.smartcity.medical.Hospital.49","34.310955","134.079466","香川県高松市木太町4326-1","無床診療所","高松市","あまの内科クリニック",,"天野　克也","2012/10/17","087-868-3363","087-868-3373","アマノナイカクリニック",,,,"内科、循環器内科、糖尿病内科",,,,"香川県","372013","http://www.amanonaika.jp/"
"jp.takamatsu.smartcity.medical.Hospital.50","34.286707","133.962649","香川県高松市国分寺町福家甲3174-4","無床診療所","高松市","医療法人社団雲井会綾こどもクリニック","理事長　綾　直文","医療法人社団雲井会","2003/4/1","087-875-2220","087-875-2225","アヤコドモクリニック",,,,"小児科、アレルギー科",,,,"香川県","372013","http://ayauta-med.or.jp/search/hospital.php?no%253D15"
"jp.takamatsu.smartcity.medical.Hospital.51","34.238607","134.020981","香川県高松市香南町由佐210-1","無床診療所","高松市","医療法人社団雄翔会綾田医院","理事長　綾田　潔","医療法人社団雄翔会","2010/8/1","087-879-2008","087-879-6976","アヤダイイン",,,,"内科、消化器内科、循環器内科",,,,"香川県","372013","https://ayada-clinic-yuusyoukai.com/"
"jp.takamatsu.smartcity.medical.Hospital.52","34.306023","134.043222","香川県高松市太田下町1872-2","無床診療所","高松市","医療法人社団修美会綾田内科消化器科クリニック","理事長　綾田　喜一郎","医療法人社団修美会","2002/11/1","087-864-5111","087-868-5222","アヤダナイカショウカキカクリニック",,,,"内科、消化器内科、循環器内科、アレルギー科",,,,"香川県","372013",
"jp.takamatsu.smartcity.medical.Hospital.53","34.317122","134.053266","香川県高松市伏石町1316−3","無床診療所","高松市","医療法人社団荒木内科医院","理事長　荒木　久之","医療法人社団荒木内科医院","1995/6/1","087-867-7041","087-867-7029","アラキナイカイイン",,,,"内科",,,,"香川県","372013",
"jp.takamatsu.smartcity.medical.Hospital.54","34.284703","134.097643","香川県高松市小村町256番地13","無床診療所","高松市","ありとも内科クリニック","理事長　有友　雄一","医療法人ありとも内科クリニック","2018/10/1","087-887-4103",,"アリトモナイカクリニック",,,,"内科、消化器内科",,,,"香川県","372013","http://www.aritomo-clinic.com/"
"jp.takamatsu.smartcity.medical.Hospital.55","34.314331","134.082888","香川県高松市元山町1231-13","有床診療所","高松市","安西内科医院",,"安西　芳朗","1975/4/1","087-866-4170","087-866-4174","アンザイナイカイイン",,,,"内科、呼吸器内科、消化器内科、循環器内科、放射線科",,"11",,"香川県","372013",
"jp.takamatsu.smartcity.medical.Hospital.56","34.298627","134.05965","香川県高松市多肥下町517-10","無床診療所","高松市","あんどう発達クリニック",,"安藤　美智子","2012/10/1","087-867-0234","087-867-0208","アンドウハッタツクリニック",,,,"精神科、小児神経内科、小児科",,,,"香川県","372013","http://web.clinicn.jp/ando-ha-cl/"
"jp.takamatsu.smartcity.medical.Hospital.57","34.305356","134.060269","香川県高松市多肥下町1524-14","有床診療所","高松市","医療法人安藤レディースクリニック","理事長　安藤　雅章","医療法人安藤レディースクリニック","2003/11/1","087-815-2833","087-815-2832","アンドウレディースクリニック",,,,"産婦人科",,"3",,"香川県","372013","http://andolc.sakura.ne.jp/"
"jp.takamatsu.smartcity.medical.Hospital.58","34.333635","134.046727","香川県高松市藤塚町一丁目11-1","有床診療所","高松市","医療法人社団少将井いがわ医院","理事長　井川　和彦","医療法人社団少将井いがわ医院","2012/4/1","087-861-4306","087-835-0270","イガワイイン",,,,"内科、整形外科、形成外科、皮膚科、眼科、耳鼻咽喉科、リハビリ科、歯科",,"19",,"香川県","372013","http://igawa-iin.byoinnavi.jp/pc/"
"jp.takamatsu.smartcity.medical.Hospital.59","34.318824","134.080904","香川県高松市木太町4023-5","無床診療所","高松市","石井耳鼻咽喉科医院",,"石井　玄吾","2013/1/1","087-866-7220",,"イシイジビインコウカイイン",,,,"耳鼻咽喉科",,,,"香川県","372013","https://www.ishii-jibika.jp/"
"jp.takamatsu.smartcity.medical.Hospital.61","34.32274","134.061291","香川県高松市松縄町48-2","無床診療所","高松市","医療法人社団石川内科胃腸科医院","理事長　石川　喜久","医療法人社団石川内科胃腸科医院","2007/3/1","087-867-1000","087-865-0036","イシカワナイカイチョウカイイン",,,,"内科、胃腸科、外科",,,,"香川県","372013","http://www.ishikawa-naikaiin.com/"
"jp.takamatsu.smartcity.medical.Hospital.64","34.33584","134.051005","香川県高松市塩上町9-15","無床診療所","高松市","いしばし内科医院",,"石橋　忠明","2005/3/10","087-831-7487","087-831-7486","イシバシナイカイイン",,,,"内科、胃腸科、循環器科",,,,"香川県","372013","https://itp.ne.jp/info/373353905400000899/"
"jp.takamatsu.smartcity.medical.Hospital.65","34.27874","134.078318","香川県高松市三谷町90-1","無床診療所","高松市","医療法人社団イズミ医院","理事長　泉　佳成","医療法人社団イズミ医院","2000/4/1","087-840-1777","087-888-3368","イズミイイン",,,,"内科、神経内科、循環器内科、脳卒中内科、リハビリ科",,,,"香川県","372013",
"jp.takamatsu.smartcity.medical.Hospital.67","34.334503","134.111781","香川県高松市高松町1689-4","無床診療所","高松市","医療法人社団いずみ内科医院","理事長　和泉　英彦","医療法人社団いずみ内科医院","1996/9/1","087-843-1115","087-870-0267","イズミナイカイイン",,,,"内科、消化器内科、循環器内科、糖尿病・代謝内科",,,,"香川県","372013","https://itp.ne.jp/info/376427215400000899/"
"jp.takamatsu.smartcity.medical.Hospital.68","34.337943","134.051027","香川県高松市常磐町二丁目3-6","無床診療所","高松市","磯島クリニック","理事長　磯島　玄","医療法人社団玄正会","2013/3/1","087-862-5177","087-862-5152","イソシマクリニック",,,,"内科、心療内科、精神科、リハビリ科",,,,"香川県","372013","https://itp.ne.jp/info/370719615400000899/"
"jp.takamatsu.smartcity.medical.Hospital.69","34.333245","134.075437","香川県高松市木太町3238-7","無床診療所","高松市","医療法人社団いとうクリニック","理事長　伊藤　輝一","医療法人社団いとうクリニック","1996/1/1","087-835-5011","087-863-3750","イトウクリニック",,,,"内科、脳神経外科、リハビリ科、麻酔科",,,,"香川県","372013","http://www2.plala.or.jp/ito_clinic/https://itp.ne.jp/info/377812115400000899/"
"jp.takamatsu.smartcity.medical.Hospital.70","34.329596","134.056597","香川県高松市楠上町二丁目3-15","無床診療所","高松市","医療法人社団いとうわんぱくクリニック","理事長　伊藤　利幸","医療法人社団いとうわんぱくクリニック","2012/4/1","087-812-1089","087-812-1090","イトウワンパククリニック",,"アルファメディカルモール2F",,"アレルギー科、小児科",,,,"香川県","372013","http://www.maroon.dti.ne.jp/wanpack/main.html"
"jp.takamatsu.smartcity.medical.Hospital.71","34.284976","134.00328","香川県高松市円座町129-7","無床診療所","高松市","稲井皮膚科クリニック",,"稲井　優","1991/4/12","087-885-3356","087-885-3356","イナイヒフカクリニック",,,,"皮膚科",,,,"香川県","372013","http://inaihifuka.her.jp/"
"jp.takamatsu.smartcity.medical.Hospital.72","34.325345","134.101964","香川県高松市新田町甲658-7","無床診療所","高松市","いまいこどもファミリークリニック","理事長　今井　正","医療法人社団いまいこどもファミリークリニック","2012/9/1","087-813-8048","087-813-8348","イマイコドモファミリークリニック",,,,"血液内科、小児科",,,,"香川県","372013","http://www.imaikfc.com/"
"jp.takamatsu.smartcity.medical.Hospital.73","34.343274","134.124576","香川県高松市牟礼町牟礼2128-10","無床診療所","高松市","岩藤内科医院",,"岩藤　孫六","1987/3/1","087-845-3337","087-845-8666","イワドウナイカイイン",,,,"内科、呼吸器科、消化器科、循環器科",,,,"香川県","372013","http://www.geocities.jp/iwadounaika/index.html"
"jp.takamatsu.smartcity.medical.Hospital.74","34.341387","134.066824","香川県高松市松福町二丁目10-10","無床診療所","高松市","岩部医院",,"岩部　道孝","1983/4/1","087-821-6203","087-821-6203","イワブイイン",,,,"内科、呼吸器科、小児科",,,,"香川県","372013",
"jp.takamatsu.smartcity.medical.Hospital.76","34.329596","134.056597","香川県高松市楠上町二丁目3-15","無床診療所","高松市","医療法人社団うえむら耳鼻咽喉科","理事長　植村　哲也","医療法人社団うえむら耳鼻咽喉科","2014/10/1","087-831-8733",,"ウエムラジビインコウカ",,"アルファメディカルモール2F",,"耳鼻咽喉科",,,,"香川県","372013","http://uemura.atat.jp/i/f.php"
"jp.takamatsu.smartcity.medical.Hospital.77","34.297178","133.996081","香川県高松市檀紙町68-1","無床診療所","高松市","医療法人社団牛山クリニック","理事長　牛山　貴文","医療法人社団牛山クリニック","2015/11/1","087-886-0119","087-886-0559","ウシヤマクリニック",,,,"内科、消化器内科、外科、美容皮膚科、リハビリ科",,,,"香川県","372013","https://ushiyama-cl.jimdo.com/"
"jp.takamatsu.smartcity.medical.Hospital.78","34.345004","134.03901","香川県高松市扇町二丁目1-7","無床診療所","高松市","医療法人社団内田眼科クリニック","理事長　内田　雅仁","医療法人社団内田眼科クリニック","2004/3/1","087-823-3443","087-823-3443","ウチダガンカクリニック",,,,"眼科",,,,"香川県","372013","https://itp.ne.jp/info/376823805400000899/"
"jp.takamatsu.smartcity.medical.Hospital.80","34.300353","134.090144","香川県高松市六条町198-1","無床診療所","高松市","江藤内科クリニック",,"江藤　内詞","2008/1/28","087-847-6840","087-847-6841","エトウナイカクリニック",,,,"内科",,,,"香川県","372013",
"jp.takamatsu.smartcity.medical.Hospital.81","34.334151","134.063818","香川県高松市観光町649-8","無床診療所","高松市","えないメンタルクリニック",,"繒内　利啓","2010/4/5","087-813-1613","087-813-1613","エナイメンタルクリニック",,,,"心療内科、精神科",,,,"香川県","372013","https://www.enai-mental-clinic.jp/"
"jp.takamatsu.smartcity.medical.Hospital.84","34.304616","134.015275","香川県高松市成合町728-7","無床診療所","高松市","大饗内科消化器科医院",,"大饗　由之","2008/5/1","087-885-1233","087-885-1681","オオアエナイカショウカキカイイン",,,,"内科、心療内科、精神科、消化器内科",,,,"香川県","372013","http://www.ooae.jp/https://itp.ne.jp/info/375356425400000899/"
"jp.takamatsu.smartcity.medical.Hospital.85","34.337788","134.107955","香川県高松市高松町2507-4","無床診療所","高松市","大内胃腸科眼科医院",,"大内　晣","1973/5/1","087-843-1662","087-843-1664","オオウチイチョウカガンカイイン",,,,"内科、胃腸科、眼科、脳神経内科、消化器内科",,,,"香川県","372013",
"jp.takamatsu.smartcity.medical.Hospital.86","34.300231","134.098316","香川県高松市東山崎町466-3","無床診療所","高松市","おおくぼ小児科","理事長　大久保　賢介","医療法人社団おおくぼ小児科","2013/9/1","087-847-2500","087-847-2510","オオクボショウニカ",,,,"アレルギー科、小児科、新生児内科",,,,"香川県","372013","http://www.okubo-hospital.jp/"
"jp.takamatsu.smartcity.medical.Hospital.87","34.269595","134.025423","香川県高松市香川町大野1092-1","有床診療所","高松市","医療法人社団大嶋整形外科医院","理事長　大嶋　照久","医療法人社団大嶋整形外科医院","1997/3/1","087-885-3611","087-885-5526","オオシマセイケイゲカイイン",,,,"リウマチ科、整形外科、リハビリ科",,"19",,"香川県","372013",
"jp.takamatsu.smartcity.medical.Hospital.88","34.343473","134.06574","香川県高松市福岡町二丁目24-26","有床診療所","高松市","太田クリニック","理事長　太田　憲吾","医療法人社団らく楽会","2014/8/4","087-851-1238",,"オオタクリニック",,,,"内科、外科、泌尿器科、リハビリ科",,"19",,"香川県","372013","http://www.rakuraku-group.jp/otaclinic.html"
"jp.takamatsu.smartcity.medical.Hospital.90","34.337156","134.046337","香川県高松市中央町1-28（及び1-24）","有床診療所","高松市","医療法人社団大塚整形外科医院","理事長　大塚　和俊","医療法人社団大塚整形外科医院","1990/2/1","087-834-7611","087-834-7613","オオツカセイケイゲカイイン",,,,"リウマチ科、整形外科、リハビリ科",,"15",,"香川県","372013","https://otsuka-seikei.jp/"
"jp.takamatsu.smartcity.medical.Hospital.91","34.340321","134.061531","香川県高松市松島町一丁目8-18","無床診療所","高松市","医療法人社団大西整形外科クリニック","理事長　大西　啓一","医療法人社団大西整形外科クリニック","1994/4/1","087-862-8288","087-862-8289","オオニシセイケイゲカクリニック",,,,"外科、整形外科、リハビリ科",,,,"香川県","372013",
"jp.takamatsu.smartcity.medical.Hospital.92","34.347349","134.088162","香川県高松市屋島西町2490-18","無床診療所","高松市","医療法人社団空会大西内科クリニック","理事長　大西　隆行","医療法人社団空会","2010/10/1","087-818-0765","087-818-0785","オオニシナイカクリニック",,,,"内科、消化器内科、アレルギー科",,,,"香川県","372013","http://ohnishinaika.homepagelife.jp/"
"jp.takamatsu.smartcity.medical.Hospital.93","34.340327","134.045005","香川県高松市天神前5-6","無床診療所","高松市","大野ペインクリニック",,"大野　健次","2004/12/1","087-836-9870","087-836-9878","オオノペインクリニック",,"高松メディカルモール4F",,"麻酔科",,,,"香川県","372013","https://www.ohnopain.clinic/"
"jp.takamatsu.smartcity.medical.Hospital.94","34.31095","134.043991","香川県高松市三条町109-1","無床診療所","高松市","医療法人社団大橋内科胃腸科","理事長　大橋　英司","医療法人社団大橋内科胃腸科","2007/3/1","087-866-0084","087-866-0084","オオハシナイカイチョウカ",,,,"内科、胃腸科",,,,"香川県","372013","https://itp.ne.jp/info/374643531104821690/"
"jp.takamatsu.smartcity.medical.Hospital.95","34.321688","134.037504","香川県高松市西ハゼ町8-1","無床診療所","高松市","おか整形・リハビリクリニック","理事長　岡　史朗","医療法人社団おか整形・リハビリクリニック","2007/4/1","087-814-8555","087-814-8666","オカセイケイ・リハビリクリニック",,,,"整形外科、リハビリ科",,,,"香川県","372013","http://www.oka-seikei.com/"
"jp.takamatsu.smartcity.medical.Hospital.96","34.240969","134.036572","香川県高松市香川町川東上1864-3","無床診療所","高松市","おか内科クリニック",,"岡　隆彦","2007/5/15","087-879-1600","087-879-1632","オカナイカクリニック",,,,"内科、呼吸器内科、消化器内科、糖尿病内科",,,,"香川県","372013","https://itp.ne.jp/info/372595059018841960/"
"jp.takamatsu.smartcity.medical.Hospital.98","34.335148","134.053591","香川県高松市藤塚町三丁目3-12","有床診療所","高松市","医療法人社団小川内科医院","理事長　虫本　光徳","医療法人社団小川内科医院","1993/9/1","087-861-9551","087-837-2012","オガワナイカイイン",,,,"内科、消化器科、循環器科、放射線科",,"19",,"香川県","372013","https://ogawaiin.jimdo.com/"
"jp.takamatsu.smartcity.medical.Hospital.99","34.323601","134.047559","香川県高松市花ノ宮町二丁目12-1","無床診療所","高松市","医療法人社団おだ整形外科医院","理事長　織田　静信","医療法人社団おだ整形外科医院","1991/5/1","087-866-7166","087-866-0031","オダセイケイゲカイイン",,,,"リウマチ科、整形外科、リハビリ科",,,,"香川県","372013",
"jp.takamatsu.smartcity.medical.Hospital.100","34.301985","134.059658","香川県高松市多肥下町1543-1","無床診療所","高松市","医療法人社団おはら整形外科クリニック","理事長　小原　健夫","医療法人社団おはら整形外科クリニック","2007/10/2","087-865-2398","087-816-6193","オハラセイケイゲカクリニック",,,,"リウマチ科、外科、整形外科、胃腸外科、肛門外科、リハビリ科",,,,"香川県","372013","https://hospital.dr-navip.jp/kagawa/facility/1477/"
"jp.takamatsu.smartcity.medical.Hospital.101","34.334055","134.06328","香川県高松市観光町649-8","無床診療所","高松市","オリーブ高松メディカルクリニック","理事長　福井　敏樹","医療法人社団如水会","2015/7/1","087-839-9620",,"オリーブタカマツメディカルクリニック",,,,"内科、婦人科、放射線科、マンモ",,,,"香川県","372013","https://www.olive.clinic/"
"jp.takamatsu.smartcity.medical.Hospital.102","34.34026","134.114965","香川県高松市高松町2365","有床診療所","高松市","医療法人社団海部医院","理事長　海部　久美子","医療法人社団海部医院","1990/2/1","087-843-3666","087-843-3667","カイフイイン",,,,"内科、腎臓内科、循環器内科、皮膚科、泌尿器科、透析実施",,"19",,"香川県","372013","http://www.kaifuiin.com/medical/index.html"
"jp.takamatsu.smartcity.medical.Hospital.103","34.284409","134.097651","香川県高松市小村町256-2","無床診療所","高松市","医療法人社団つばさ楓の森整形外科","理事長　森　健","医療法人社団つばさ","2012/9/1","087-887-9888",,"カエデノモリセイケイゲカ",,,,"整形外科、リハビリ科",,,,"香川県","372013","http://www.kaedenomori.jp/"
"jp.takamatsu.smartcity.medical.Hospital.104","34.352004","134.01877","香川県高松市郷東町587-1","無床診療所","高松市","公益財団法人香川県総合健診協会","会長　久米川　啓","公益財団法人香川県総合健診協会","1993/4/1","087-881-4867","087-881-8171","カガワケンソウゴウケンシンキョウカイ",,,,"内科、婦人科、放射線科",,,,"香川県","372013",
"jp.takamatsu.smartcity.medical.Hospital.105","34.346373","134.094066","香川県高松市屋島西町1347-10","無床診療所","高松市","医療法人社団一耀会かがわ整形外科クリニック","理事長　香川　好男","医療法人社団一耀会かがわ整形外科クリニック","2014/4/1","087-887-9876",,"カガワセイケイゲカクリニック",,,,"整形外科、リハビリ科",,,,"香川県","372013","http://kagawa-orthop.com/index.html"
"jp.takamatsu.smartcity.medical.Hospital.107","34.338564","134.139462","香川県高松市牟礼町牟礼22-1","無床診療所","高松市","加地医院","理事長　加地　英輔","医療法人社団加地医院","2021/10/1","087-845-9713",,"カジイイン",,,,"内科、消化器内科",,,,"香川県","372013","http://kajiclinic.web.fc2.com/"
"jp.takamatsu.smartcity.medical.Hospital.108","34.289706","134.051792","香川県高松市多肥上町718-1","有床診療所","高松市","医療法人かしむら内科医院","理事長　佐藤　多美子","医療法人かしむら内科医院","2006/9/1","087-889-7760","087-889-7769","カシムラナイカイイン",,,,"内科、消化器内科、リハビリ科",,"19",,"香川県","372013","http://wwwb.pikara.ne.jp/kashimura-iin/"
"jp.takamatsu.smartcity.medical.Hospital.110","34.341859","134.038664","香川県高松市番町四丁目8-25","無床診療所","高松市","形見医院",,"形見　智彦","2004/5/1","087-831-5965","087-833-4397","カタミイイン",,,,"内科、循環器科、小児科",,,,"香川県","372013",
"jp.takamatsu.smartcity.medical.Hospital.111","34.349023","134.001413","香川県高松市香西本町114-10","有床診療所","高松市","医療法人社団勝賀かつが整形外科クリニック","理事長　西山　徹","医療法人社団勝賀","2007/8/1","087-832-8877","087-832-8911","カツガセイケイゲカクリニック",,,,"リウマチ科、整形外科、リハビリ科、麻酔科",,"2",,"香川県","372013","http://www.katsuga.com/"
"jp.takamatsu.smartcity.medical.Hospital.112","34.34016","134.04625","香川県高松市天神前1-22","無床診療所","高松市","加藤医院",,"加藤　秀樹","2019/7/11","087-862-6614",,"カトウイイン",,,,"耳鼻咽喉科、気管食道外科",,,,"香川県","372013","https://itp.ne.jp/info/375210715400000899/"
"jp.takamatsu.smartcity.medical.Hospital.113","34.337938","134.04662","香川県高松市天神前10-28","無床診療所","高松市","加藤眼科医院","理事長　岸本　直子","医療法人社団正眼会","2014/10/1","087-831-3893","087-831-7771","カトウガンカイイン",,,,"眼科",,,,"香川県","372013","https://itp.ne.jp/info/371140905400000899/"
"jp.takamatsu.smartcity.medical.Hospital.114","34.301088","134.059488","香川県高松市多肥下町1548-20","無床診療所","高松市","加藤眼科クリニック",,"加藤　俊彦","2002/5/19","087-868-0707","087-868-0770","カトウガンカクリニック",,,,"眼科",,,,"香川県","372013","https://www6.bausch.co.jp/clinic/V0878680707"
"jp.takamatsu.smartcity.medical.Hospital.115","34.330966","134.058553","香川県高松市楠上町一丁目5-31","無床診療所","高松市","医療法人社団かとう整形外科","理事長　加藤　善之","医療法人社団かとう整形外科","2018/4/1","087-833-5545",,"カトウセイケイゲカ",,,,"リウマチ科、整形外科、リハビリ科",,,,"香川県","372013","https://hospital.dr-navip.jp/kagawa/facility/1441/"
"jp.takamatsu.smartcity.medical.Hospital.116","34.271796","134.025875","香川県高松市香川町大野2453-1","無床診療所","高松市","医療法人社団かとう皮フ科クリニック","理事長　加藤　昭二","医療法人社団かとう皮フ科クリニック","2004/10/1","087-864-7227","087-864-7228","カトウヒフカクリニック",,,,"皮膚科",,,,"香川県","372013",
"jp.takamatsu.smartcity.medical.Hospital.117","34.301775","134.056617","香川県高松市多肥下町1556-15","無床診療所","高松市","医療法人かど小児科クリニック","理事長　角　勇二","医療法人かど小児科クリニック","2010/9/1","087-868-1200","087-868-1386","カドショウニカクリニック",,,,"小児科",,,,"香川県","372013","http://www.kado-child-clinic.com/"
"jp.takamatsu.smartcity.medical.Hospital.118","34.337024","134.100301","香川県高松市屋島西町1968-7","無床診療所","高松市","医療法人社団かねたけ耳鼻咽喉科医院","理事長　兼竹　博之","医療法人社団かねたけ耳鼻咽喉科医院","2002/7/1","087-841-8733","087-841-8733","カネタケジビインコウカイイン",,,,"アレルギー科、耳鼻咽喉科",,,,"香川県","372013","https://itp.ne.jp/info/376425215400000899/"
"jp.takamatsu.smartcity.medical.Hospital.120","34.305202","134.052186","香川県高松市太田下町3007-4","無床診療所","高松市","医療法人社団弘雅会亀井内科呼吸器科医院","理事長　亀井　雅","医療法人社団弘雅会","2005/4/1","087-866-5001","087-866-1877","カメイナイカコキュウキカイイン",,,,"内科、呼吸器科、アレルギー科",,,,"香川県","372013","https://itp.ne.jp/info/374811925197531780/"
"jp.takamatsu.smartcity.medical.Hospital.121","34.342665","134.038787","香川県高松市番町三丁目19-15","無床診療所","高松市","医療法人社団啓里会かわさきレディースクリニック","理事長　川崎　香里","医療法人社団啓里会","2017/3/27","087-802-5525",,"カワサキレディースクリニック",,,,"産婦人科",,,,"香川県","372013","https://itp.ne.jp/info/371733359016381350/"
"jp.takamatsu.smartcity.medical.Hospital.122","34.316839","134.059596","香川県高松市松縄町1117-16","無床診療所","高松市","医療法人社団川地クリニック","理事長　川地　康司","医療法人社団川地クリニック","2006/6/1","087-815-2110","087-815-2223","カワジクリニック",,,,"内科、呼吸器科、アレルギー科",,,,"香川県","372013","http://www.kawaji-clinic.com/"
"jp.takamatsu.smartcity.medical.Hospital.123","34.342404","134.047568","香川県高松市番町一丁目7-11","無床診療所","高松市","河西医院",,"河西　敏晴","2020/2/1","087-851-2666","087-851-3969","カワニシイイン",,,,"リウマチ科、整形外科、リハビリ科",,,,"香川県","372013","https://itp.ne.jp/info/375005515400000899/"
"jp.takamatsu.smartcity.medical.Hospital.124","34.322052","134.04643","香川県高松市上之町一丁目3-11","無床診療所","高松市","かわにし眼科医院",,"河西　庸二郎","2000/7/3","087-815-0588","087-815-0587","カワニシガンカイイン",,,,"眼科",,,,"香川県","372013",
"jp.takamatsu.smartcity.medical.Hospital.125","34.286533","134.047861","香川県高松市出作町431-5","無床診療所","高松市","医療法人社団川ばた整形・リハビリクリニック","理事長　川溿　靖人","医療法人社団川ばた整形・リハビリクリニック","2007/5/1","087-889-7770","087-889-7797","カワバタセイケイ・リハビリクリニック",,,,"整形外科、リハビリ科",,,,"香川県","372013","https://itp.ne.jp/info/510000000000062169/"
"jp.takamatsu.smartcity.medical.Hospital.126","34.33972","134.051104","香川県高松市瓦町二丁目7-20","無床診療所","高松市","川原耳鼻咽喉科医院",,"川原　孝文","1987/10/13","087-834-4731","087-861-2023","カワハラジビインコウカイイン",,,,"耳鼻咽喉科",,,,"香川県","372013","https://otolaryngologist-393.business.site/"
"jp.takamatsu.smartcity.medical.Hospital.127","34.287059","134.001371","香川県高松市中間町40-1","無床診療所","高松市","医療法人社団菅循環器科内科クリニック","理事長　菅　敬彦","医療法人社団菅循環器科内科クリニック","2004/8/1","087-885-5100","087-885-5200","カンジュンカンキカナイカクリニック",,,,"内科、消化器内科、循環器内科",,,,"香川県","372013","https://itp.ne.jp/info/373359425400000899/"
"jp.takamatsu.smartcity.medical.Hospital.129","34.346379","134.047092","香川県高松市兵庫町8-2　アルファステイツ兵庫町102","無床診療所","高松市","北島眼科",,"北島　仁","2007/10/4","087-816-6614","087-816-6814","キタジマガンカ",,"アルファステイツ兵庫町102",,"眼科",,,,"香川県","372013","http://kamatama-dai.lolipop.jp/"
"jp.takamatsu.smartcity.medical.Hospital.131","34.297317","134.040245","香川県高松市太田上町420-1","無床診療所","高松市","キッズメディカルまなべ",,"真鍋　正博","2007/6/1","087-869-4155","087-869-4351","キッズメディカルマナベ",,,,"小児科",,,,"香川県","372013","http://www.kids-m-manabe.com/index_pc.html"
"jp.takamatsu.smartcity.medical.Hospital.132","34.29525","134.113659","香川県高松市前田東町800-1","無床診療所","高松市","医療法人社団木村医院","理事長　木村　正司","医療法人社団木村医院","1994/4/1","087-847-6002","087-847-6180","キムライイン",,,,"内科、循環器科、小児科",,,,"香川県","372013",
"jp.takamatsu.smartcity.medical.Hospital.134","34.312186","134.073211","香川県高松市木太町551-1","無床診療所","高松市","医療法人社団重陽会高松中央インタークリニック","理事長　小林　伸也","医療法人社団重陽会高松中央インタークリニック","2012/5/1","087-869-2200","087-869-2200","タカマツチュウオウインタークリニック",,,,"内科、消化器内科、内視鏡内科",,,,"香川県","372013",
"jp.takamatsu.smartcity.medical.Hospital.135","34.352462","134.046611","香川県高松市サンポート2-1　高松シンボルタワー9F","無床診療所","高松市","医療法人社団美人会共立美容外科高松院","理事長　久次米　秋人","医療法人社団美人会","2015/1/1","087-823-7710","087-823-7715","キョウリツビヨウゲカタカマツイン",,"高松シンボルタワー9F",,"形成外科、美容外科",,,,"香川県","372013","https://www.kyoritsu-biyo.com/clinic/takamatsu.php"
"jp.takamatsu.smartcity.medical.Hospital.136","34.306848","134.090881","香川県高松市東山崎町165-8","無床診療所","高松市","協和医院",,"三好　賢一","1997/8/1","087-847-6073","087-847-6153","キョウワイイン",,,,"内科、外科",,,,"香川県","372013",
"jp.takamatsu.smartcity.medical.Hospital.137","34.323061","134.073043","香川県高松市木太町1608-5","無床診療所","高松市","楠の森眼科医院","理事長　山内　一司","医療法人社団一心会","2015/10/1","087-802-1211",,"クスノモリガンカイイン",,,,"眼科",,,,"香川県","372013","http://www.kusunomori-ganka.com/"
"jp.takamatsu.smartcity.medical.Hospital.138","34.269917","134.035192","香川県高松市香川町浅野137-1","無床診療所","高松市","医療法人社団三心会くにしげ内科小児科医院","理事長　国重 英治","医療法人社団三心会","2000/3/1","087-889-6600","087-889-6668","クニシゲナイカショウニカイイン",,,,"内科、呼吸器科、消化器科、小児科",,,,"香川県","372013",
"jp.takamatsu.smartcity.medical.Hospital.139","34.298068","134.059837","香川県高松市多肥下町527-1","無床診療所","高松市","Clinicaみやむら",,"宮村　卓","2016/4/1","087-868-3860",,"クリニカミヤムラ",,,,"形成外科、美容皮膚科",,,,"香川県","372013","http://clinica-miyamura.com/https://hospital.dr-navip.jp/kagawa/facility/1553/"
"jp.takamatsu.smartcity.medical.Hospital.140","34.339117","134.052478","香川県高松市常磐町一丁目3-1　ことでん瓦町ビル9Ｆ","無床診療所","高松市","医療法人ＪＵＮＯ ＣＬＩＮＩＱＵＥ Ｊ 形成外科","理事長　逢坂　順子","医療法人ＪＵＮＯ","2009/5/1","087-831-1403","087-831-1404","クリニックジェイケイセイゲカ",,"瓦町FLAG 9階",,"形成外科、美容外科、美容皮膚科",,,,"香川県","372013","http://www.clinique-j.jp/"
"jp.takamatsu.smartcity.medical.Hospital.141","34.319807","134.073329","香川県高松市木太町1335-4","無床診療所","高松市","医療法人社団くろべクリニック","理事長　黒部　亜古","医療法人社団くろべクリニック","2009/6/1","087-867-2267","087-867-2217","クロベクリニック",,,,"産婦人科",,,,"香川県","372013","http://www.kurobe-cl.com/index.htmlhttps://localplace.jp/t100337638/"
"jp.takamatsu.smartcity.medical.Hospital.142","34.305806","133.999901","香川県高松市檀紙町1531番地1","無床診療所","高松市","医療法人社団博永会香西内科医院","理事長　香西　勝人","医療法人社団博永会","2019/1/1","087-886-5510",,"コウザイナイカイイン",,,,"内科",,,,"香川県","372013",
"jp.takamatsu.smartcity.medical.Hospital.143","34.302582","134.096665","香川県高松市東山崎町543-5","無床診療所","高松市","河野内科医院",,"河野　裕子","2023/10/1","087-847-8150",,"コウノナイカイイン",,,,"内科",,,,"香川県","372013",
"jp.takamatsu.smartcity.medical.Hospital.144","34.293344","133.961953","香川県高松市国分寺町福家字下福家甲3812-1　イオンタウン国分寺メディカルモール","無床診療所","高松市","こくぶ脳外科・内科クリニック","理事長　政田　哲也","医療法人社団こくぶりた","2011/3/3","087-875-2255",,"コクブノウゲカ・ナイカクリニック",,"イオンタウン国分寺メディカルモール",,"内科、脳神経外科",,,,"香川県","372013","http://www.kokubu-clinic.jp/https://itp.ne.jp/info/371181845136260600/about/"
"jp.takamatsu.smartcity.medical.Hospital.145","34.348836","134.049127","香川県高松市寿町一丁目4番3号","無床診療所","高松市","五色台クリニック","理事長　佐藤　仁","医療法人社団五色会","2018/12/1","087-822-2311",,"ゴシキダイクリニック",,,,"心療内科、精神科、児童精神科",,,,"香川県","372013","http://www.goshikidai.or.jp/04clinic/"
"jp.takamatsu.smartcity.medical.Hospital.146","34.329596","134.056597","香川県高松市楠上町二丁目3−15　アルファメディカルモール2Ｆ","無床診療所","高松市","医療法人社団裕和会こじまクリニック","理事長　小島　章裕","医療法人社団裕和会","2012/9/1","087-813-1122","087-813-1121","コジマクリニック",,"アルファメディカルモール2F",,"内科、循環器内科",,,,"香川県","372013","http://www.kojima-clinic-hp.jp/index.html"
"jp.takamatsu.smartcity.medical.Hospital.147","34.213775","134.032017","香川県高松市香川町安原下第3号162","無床診療所","高松市","小谷医院",,"堀川　知","1995/10/22","087-879-7005","087-840-5331","コタニイイン",,,,"内科、消化器科、外科",,,,"香川県","372013",
"jp.takamatsu.smartcity.medical.Hospital.148","34.351363","134.089682","香川県高松市屋島西町2485-6","無床診療所","高松市","医療法人社団小林内科小児科医院","理事長　小林　美子","医療法人社団小林内科小児科医院","2002/11/1","087-843-3315","087-841-9899","コバヤシナイカショウニカイイン",,,,"内科、呼吸器科、胃腸科、アレルギー科、小児科",,,,"香川県","372013","http://wwwd.pikara.ne.jp/kobayasi/index.htmlhttps://itp.ne.jp/info/375544605116130300/"
"jp.takamatsu.smartcity.medical.Hospital.149","34.343076","134.043878","香川県高松市番町二丁目4-16","有床診療所","高松市","五番丁医院",,"河野　良太","2014/4/1","087-822-3331",,"ゴバンチョウイイン",,,,"内科、外科、整形外科、リハビリ科",,"19",,"香川県","372013","http://gandkbyouin5.byoinnavi.jp/pc/"
"jp.takamatsu.smartcity.medical.Hospital.150","34.323378","134.058502","香川県高松市今里町4-6","無床診療所","高松市","こんスキンケアクリニック",,"権　成基","1998/6/24","087-869-7800","087-869-7888","コンスキンケアクリニック",,,,"形成外科、皮膚科",,,,"香川県","372013",
"jp.takamatsu.smartcity.medical.Hospital.151","34.29636","134.05782","香川県高松市多肥上町1297-1","無床診療所","高松市","在宅診療敬二郎クリニック","理事長　西信　俊宏","医療法人社団慈風会","2020/5/18","087-864-3109","087-864-3108","ザイタクシンリョウケイジロウクリニック",,,,"内科、外科、形成外科",,,,"香川県","372013","http://www.healthcarenet.jp/clinic-kjr/"
"jp.takamatsu.smartcity.medical.Hospital.152","34.311636","134.040077","香川県高松市上天神町512-1","有床診療所","高松市","医療法人社団緑会ザイタックスクリニック","理事長　樋端　敏生","医療法人社団緑会","2015/11/1","087-867-1177",,"ザイタックスクリニック",,,,"内科、人工透析内科、泌尿器科（人口透析）、放射線診療科",,"19",,"香川県","372013","http://www.midori-kai.jp/"
"jp.takamatsu.smartcity.medical.Hospital.153","34.338981","134.048333","香川県高松市亀井町10-10","無床診療所","高松市","榊原クリニック",,"榊原　正知","2014/11/1","087-835-0977","087-835-0977","サカキバラクリニック",,"1Ｆ",,"内科、麻酔科",,,,"香川県","372013",
"jp.takamatsu.smartcity.medical.Hospital.154","34.297317","134.040245","香川県高松市太田上町420-1","無床診療所","高松市","坂口眼科医院",,"坂口　恭久","2008/5/1","087-816-5151","087-816-5151","サカグチガンカイイン",,,,"眼科",,,,"香川県","372013",
"jp.takamatsu.smartcity.medical.Hospital.155","34.336928","134.048041","香川県高松市中新町11-8","無床診療所","高松市","医療法人晴明会鷺岡クリニック","理事長　市川　正浩","医療法人晴明会","2024/1/29","087-833-2631",,"サギオカクリニック",,,,"内科、精神科、神経科",,,,"香川県","372013","http://www.myclinic.ne.jp/sagiokac/pc/https://itp.ne.jp/info/370998905400000899/"
"jp.takamatsu.smartcity.medical.Hospital.158","34.282122","134.046203","香川県高松市仏生山町甲471-5","無床診療所","高松市","さくらの馬場クリニック","理事長　山本　修平","医療法人社団讃志会","2016/11/1","087-889-3555",,"サクラノババクリニック",,,,"内科、循環器内科、人工透析内科、腎臓内科、リウマチ科、透析実施",,,,"香川県","372013","http://sanshikai-med.jp/"
"jp.takamatsu.smartcity.medical.Hospital.160","34.346071","134.039206","香川県高松市扇町一丁目24-5","有床診療所","高松市","高松ささき内科ハートクリニック","理事長　佐々木　雅英","医療法人社団慈和会","2001/10/1","087-851-6688","087-822-4940","タカマツササキナイカハートクリニック",,,,"内科、循環器科、糖尿病内科、リハビリテーション科",,"19",,"香川県","372013","https://itp.ne.jp/info/510000000000062021/"
"jp.takamatsu.smartcity.medical.Hospital.161","34.343024","134.068795","香川県高松市福岡町四丁目2-1","無床診療所","高松市","佐々木内科クリニック",,"佐々木　一乗","1998/7/9","087-821-1236","087-821-1236","ササキナイカクリニック",,,,"内科、呼吸器科、循環器科",,,,"香川県","372013",
"jp.takamatsu.smartcity.medical.Hospital.162","34.301625","134.06174","香川県高松市多肥下町1547-8","無床診療所","高松市","ササキメディカルクリニック",,"佐々木　寛","2013/12/3","087-814-3339",,"ササキメディカルクリニック",,,,"内科、外科、乳腺外科、リハビリ科",,,,"香川県","372013","https://www.sasaki-medical.com/"
"jp.takamatsu.smartcity.medical.Hospital.163","34.304149","134.01524","香川県高松市成合町726-1","有床診療所","高松市","医療法人社団泰平会佐藤クリニック","理事長　佐藤　剛平","医療法人社団泰平会","2000/2/1","087-885-0105","087-886-5193","サトウクリニック",,,,"内科、外科、整形外科、肛門科、循環器外科、リハビリテーション科、放射線科",,"19",,"香川県","372013","https://hospital.dr-navip.jp/kagawa/facility/1515/"
"jp.takamatsu.smartcity.medical.Hospital.164","34.326284","134.09866","香川県高松市新田町甲2607-4","無床診療所","高松市","医療法人社団誠心会さとう内科クリニック","理事長　佐藤　誠","医療法人社団誠心会","2010/6/1","087-816-3101","087-818-0587","サトウナイカクリニック",,,,"内科、糖尿病・代謝内科、内分泌内科",,,,"香川県","372013","http://sato-naika.byoinnavi.jp/pc/"
"jp.takamatsu.smartcity.medical.Hospital.165","34.32837","134.04655","香川県高松市栗林町一丁目13-8","無床診療所","高松市","佐藤皮膚科泌尿器科性病科医院",,"佐藤　稔","2002/3/25","087-862-1971","087-837-2925","サトウヒフカヒニョウキカセイビョウカイイン",,,,"皮膚科、泌尿器科、性病科",,,,"香川県","372013","http://sato-ud-chinic.com./"
"jp.takamatsu.smartcity.medical.Hospital.166","34.293775","134.081538","香川県高松市六条町481-1","無床診療所","高松市","さわ医院",,"佐和　尚信","1999/12/1","087-868-5001","087-864-5373","サワイイン",,,,"消化器内科、外科、整形外科、こう門科",,,,"香川県","372013","http://www.myclinic.ne.jp/sawa_iin/pc/"
"jp.takamatsu.smartcity.medical.Hospital.167","34.320792","134.060326","香川県高松市松縄町1005-3","無床診療所","高松市","さんあいクリニック",,"医療法人社団さんあいクリニック","2011/12/1","087-816-3192","087-816-3115","サンアイクリニック",,,,"心療内科、精神科、耳鼻咽喉科",,,,"香川県","372013","http://www.3ai.jp/"
"jp.takamatsu.smartcity.medical.Hospital.168","34.33681","134.051805","香川県高松市観光通一丁目3-4","無床診療所","高松市","さんごの海整形外科","理事長　清水　誠英","医療法人社団さんごの海","2016/9/1","087-831-3535","087-831-3565","サンゴノウミセイケイゲカ",,"レアーレ瓦町１階102号",,"リウマチ科、整形外科、リハビリ科",,,,"香川県","372013","http://www.sangonoumi.com/"
"jp.takamatsu.smartcity.medical.Hospital.169","34.317761","134.046412","香川県高松市三条町482-1","有床診療所","高松市","三条整形外科スポーツクリニック","理事長　宮武　正弘","医療法人弘仁会","2011/9/1","087-867-2270","087-867-4100","サンジョウセイケイゲカスポーツクリニック",,,,"リウマチ科、整形外科、リハビリ科",,"19",,"香川県","372013","http://www.sanjo-hp.net/"
"jp.takamatsu.smartcity.medical.Hospital.170","34.318099","134.046037","香川県高松市三条町504-1","無床診療所","高松市","医療法人社団耕彩会三条山下内科医院","理事長　山下　和彦","医療法人社団耕彩会","1995/6/1","087-867-1201","087-868-0501","サンジョウヤマシタナイカイイン",,,,"内科、神経内科、循環器科",,,,"香川県","372013","http://www.sy-naika.com/https://byoinnavi.jp/clinic/95709"
"jp.takamatsu.smartcity.medical.Hospital.171","34.301277","134.050935","香川県高松市太田下町3017-3","有床診療所","高松市","サンフラワーマタニティークリニック",,"柳原　敏宏","2011/7/1","087-868-4103",,"サンフラワーマタニティークリニック",,,,"産科、婦人科",,"19",,"香川県","372013","http://www.sfmc.jp/"
"jp.takamatsu.smartcity.medical.Hospital.172","34.330761","134.054991","香川県高松市楠上町一丁目9-36","無床診療所","高松市","塩見内科医院",,"塩見　哲夫","1963/4/1","087-862-0403","087-831-8694","シオミナイカイイン",,,,"内科",,,,"香川県","372013","http://www.geocities.jp/shiomi_medical_clinic/"
"jp.takamatsu.smartcity.medical.Hospital.173","34.244025","134.000518","香川県高松市香南町池内517-15","無床診療所","高松市","医療法人社団しげなり内科医院","理事長　重成　憲裕","医療法人社団しげなり内科医院","1999/1/1","087-879-0366","087-879-0366","シゲナリナイカイイン",,,,"内科、心療内科、精神科、神経科、神経内科、胃腸科",,,,"香川県","372013",
"jp.takamatsu.smartcity.medical.Hospital.174","34.244093","134.086803","香川県高松市西植田町1540","有床診療所","高松市","四宮医院",,"四宮　陽一","1985/9/18","087-849-0201","087-849-1122","シノミヤイイン",,,,"内科、小児科、脳神経外科、放射線科",,"19",,"香川県","372013",
"jp.takamatsu.smartcity.medical.Hospital.175","34.343693","134.126662","香川県高松市牟礼町牟礼2094-1","無床診療所","高松市","医療法人社団しぶやこどもクリニック","理事長　澁谷　幸彦","医療法人社団しぶやこどもクリニック","2018/4/13","087-845-6111",,"シブヤコドモクリニック",,,,"小児科",,,,"香川県","372013","http://www.shibuyaclinic.jp/"
"jp.takamatsu.smartcity.medical.Hospital.176","34.342476","134.130789","香川県高松市牟礼町牟礼986-1","有床診療所","高松市","医療法人社団渋谷整形外科医院","理事長　渋谷　整","医療法人社団渋谷整形外科医院","2000/11/1","087-845-9339","087-845-9309","シブヤセイケイゲカイイン",,,,"リウマチ科、外科、整形外科、リハビリ科",,"19",,"香川県","372013","http://shibuya-seikei.com/"
"jp.takamatsu.smartcity.medical.Hospital.177","34.344713","134.049992","香川県高松市丸亀町3-13　高松丸亀町参番街西館２Ｆ","無床診療所","高松市","湘南美容クリニック高松院","理事長　竹田　啓介","医療法人社団菜寿会","2017/7/18","050-5865-5801",,"ショウナンビヨウクリニックタカマツイン",,"高松丸亀町商店街参番街西館2F",,"美容外科、美容皮膚科",,,,"香川県","372013","https://www.sbc-takamatsu.com/"
"jp.takamatsu.smartcity.medical.Hospital.178","34.29954","134.08932","香川県高松市六条町166","無床診療所","高松市","白石心臓血管クリニック","理事長　白石　恭史　","医療法人社団静正会","2006/7/1","087-847-0011","087-847-0010","シライシシンゾウケッカンゲカクリニック",,,,"血管外科、循環器内科",,,,"香川県","372013","https://localplace.jp/t100352010/"
"jp.takamatsu.smartcity.medical.Hospital.179","34.29587","133.960631","香川県高松市国分寺町新名440-23","無床診療所","高松市","白井内科医院",,"白井　忠雄","1987/6/10","087-874-3711","087-874-5217","シライナイカイイン",,,,"内科、消化器科、循環器内科、小児科",,,,"香川県","372013","https://itp.ne.jp/info/376269025400000899/"
"jp.takamatsu.smartcity.medical.Hospital.180","34.321526","134.065331","香川県高松市松縄町37-7","無床診療所","高松市","医療法人社団白神眼科医院","理事長　村田　晶子","医療法人社団白神眼科医院","2017/9/1","087-866-3730",,"シラガミガンカイイン",,,,"眼科",,,,"香川県","372013","http://shiragami-eyeclinic.jp/"
"jp.takamatsu.smartcity.medical.Hospital.181","34.283926","134.03455","香川県高松市一宮町97-7","無床診療所","高松市","医療法人社団しらかわ小児科医院","理事長　白川　佳代子","医療法人社団しらかわ小児科医院","1993/2/1","087-889-2107","087-888-5622","シラカワショウニカイイン",,,,"小児科",,,,"香川県","372013","http://shirakawacc.starfree.jp/"
"jp.takamatsu.smartcity.medical.Hospital.182","34.327249","134.067015","香川県高松市上福岡町922-1","無床診療所","高松市","しんまるクリニック",,"新丸　昭子","2013/2/1","087-887-7612",,"シンマルクリニック",,,,"内科",,,,"香川県","372013",
"jp.takamatsu.smartcity.medical.Hospital.183","34.336735","134.052758","香川県高松市観光通一丁目6-1","有床診療所","高松市","医療法人社団菅原眼科医院","理事長　樋端　みどり","医療法人社団菅原眼科医院","2022/4/6","087-831-7561",,"スガハラガンカイイン",,,,"眼科",,"3",,"香川県","372013","https://itp.ne.jp/info/372953905400000899/"
"jp.takamatsu.smartcity.medical.Hospital.184","34.255634","134.035124","香川県高松市香川町浅野1026-5","有床診療所","高松市","杉上産婦人科医院",,"杉上　彰","1981/5/1","087-879-6969","087-879-6973","スギウエサンフジンカイイン",,,,"内科、産科、婦人科、麻酔科",,"19",,"香川県","372013","https://sugiue-obgyn.jp/"
"jp.takamatsu.smartcity.medical.Hospital.185","34.345443","134.068956","香川県高松市福岡町三丁目11-27","無床診療所","高松市","医療法人社団鈴木レディースクリニック","理事長　鈴木　恵子","医療法人社団鈴木レディースクリニック","2000/10/1","087-826-2288","087-826-2277","スズキレディースクリニック",,,,"産婦人科",,,,"香川県","372013","https://itp.ne.jp/info/376136805400000899/"
"jp.takamatsu.smartcity.medical.Hospital.186","34.342524","134.01247","香川県高松市郷東町25-4","無床診療所","高松市","医療法人社団住谷小児科医院","理事長　住谷　朋人","医療法人社団住谷小児科医院","2003/9/1","087-832-8808","087-881-8077","スミタニショウニカイイン",,,,"小児科",,,,"香川県","372013","http://iryoshadansumitanishonikain.hp.gogo.jp/pc/"
"jp.takamatsu.smartcity.medical.Hospital.189","34.341804","134.066865","香川県高松市松福町二丁目10-5","無床診療所","高松市","医療法人社団せとうちクリニック","理事長　金藤　悟","医療法人社団せとうちクリニック","2011/4/1","087-811-5577","087-811-5587","セトウチクリニック",,,,"呼吸器内科、、胃腸内科、外科、リハビリ科",,,,"香川県","372013","http://wwwi.netwave.or.jp/~seto-cli/"
"jp.takamatsu.smartcity.medical.Hospital.190","34.344663","134.038632","香川県高松市扇町二丁目2-12","無床診療所","高松市","医療法人社団瀬上皮フ科医院","理事長　瀬上　三實","医療法人社団瀬上皮フ科医院","2003/9/1","087-822-4790","087-822-4790","セノウエヒフカイイン",,,,"皮膚科",,,,"香川県","372013","https://itp.ne.jp/info/371019705400000899/"
"jp.takamatsu.smartcity.medical.Hospital.192","34.306634","134.009739","香川県高松市勅使町62-4","無床診療所","高松市","全人クリニック",,"西山　尚志","2008/1/1","087-867-1717","087-816-6628","ゼンジンクリニック",,,,"内科、心療内科、精神科",,,,"香川県","372013","http://www016.upp.so-net.ne.jp/zenjin/"
"jp.takamatsu.smartcity.medical.Hospital.194","34.340975","134.045256","香川県高松市番町一丁目10-16","有床診療所","高松市","一般財団法人三宅医学研究所附属セントラルパーククリニック","理事長　三宅　信一郎","一般財団法人三宅医学研究所","1998/4/30","087-863-4560","087-863-0353","セントラルパーククリニック",,,,"内科、外科、整形外科、婦人科、リハビリ科、放射線科、マンモ",,"5",,"香川県","372013","http://www.miyake.or.jp/index_cpc.htm"
"jp.takamatsu.smartcity.medical.Hospital.195","34.289885","134.027967","香川県高松市一宮町1125","無床診療所","高松市","医療法人社団高杉会そがべ整形外科","理事長　曽我部　輝久","医療法人社団高杉会","1993/2/1","087-886-2323","087-886-6647","ソガベセイケイゲカ",,,,"内科、外科、整形外科、リハビリ科、麻酔科",,,,"香川県","372013",
"jp.takamatsu.smartcity.medical.Hospital.196","34.275891","134.103456","香川県高松市十川西町368-1","有床診療所","高松市","医療法人社団恵生会いきなり内科ハートクリニック","理事長　入江　恵子","医療法人社団恵生会","2005/5/1","087-848-1166","087-848-1166","イキナリナイカハートクリニック",,,,"内科、消化器内科、循環器内科、リハビリテーション科",,"15",,"香川県","372013","http://www.hcv-sakura.com/"
"jp.takamatsu.smartcity.medical.Hospital.197","34.279438","134.086507","香川県高松市川島本町298","無床診療所","高松市","医療法人社団そごうクリニック","理事長　十川　省三","医療法人社団そごうクリニック","2000/10/1","087-848-1155","087-848-1261","ソゴウクリニック",,,,"消化器科、外科、整形外科、皮膚泌尿器科、リハビリ科",,,,"香川県","372013",
"jp.takamatsu.smartcity.medical.Hospital.199","34.322432","134.090868","香川県高松市春日町438-1","無床診療所","高松市","医療法人社団佳友会タウンクリニック高松東","理事長　友廣　敦文","医療法人社団佳友会","2012/9/1","087-818-0007",,"タウンクリニックタカマツヒガシ",,,,"内科、消化器内科、循環器内科",,,,"香川県","372013",
"jp.takamatsu.smartcity.medical.Hospital.200","34.297041","133.95818","香川県高松市国分寺町新居1310-1","無床診療所","高松市","タカオ整形外科医院",,"鷹尾　正和","2000/10/3","087-870-6700","087-870-6262","タカオセイケイゲカイイン",,,,"整形外科、リハビリ科、麻酔科",,,,"香川県","372013","https://itp.ne.jp/info/379371025400000899/"
"jp.takamatsu.smartcity.medical.Hospital.202","34.30651","133.990193","香川県高松市御厩町476","無床診療所","高松市","医療法人社団博翔会高田整形外科医院","理事長　高田　博","医療法人社団博翔会","1993/11/1","087-886-8866","087-886-8889","タカダセイケイゲカイイン",,,,"リウマチ科、整形外科、リハビリ科",,,,"香川県","372013","https://itp.ne.jp/info/378859525400000899/"
"jp.takamatsu.smartcity.medical.Hospital.203","34.285844","134.00036","香川県高松市中間町23-1","無床診療所","高松市","医療法人社団萌光会高塚クリニック整形外科耳鼻咽喉科","理事長　高塚　ま由","医療法人社団萌光会","1998/1/1","087-885-4880","087-885-4884","タカツカクリニックセイケイゲカジビインコウカ",,,,"リウマチ科、整形外科、耳鼻咽喉科、リハビリ科",,,,"香川県","372013","https://itp.ne.jp/info/370449425400000899/"
"jp.takamatsu.smartcity.medical.Hospital.204","34.328995","134.069574","香川県高松市木太町1986","有床診療所","高松市","医療法人社団高畠医院","理事長　高畠　良智","医療法人社団高畠医院","1996/1/1","087-862-3410","087-862-3550","タカバタケイイン",,,,"内科、リウマチ科、外科、整形外科、皮膚科、泌尿器科、リハビリ科",,"19",,"香川県","372013","http://www.takabatakec.com/"
"jp.takamatsu.smartcity.medical.Hospital.205","34.32671","134.067686","香川県高松市木太町1813-1","無床診療所","高松市","医療法人社団高畠小児科・アレルギー科医院","理事長　高畠　美人","医療法人社団高畠小児科・アレルギー科医院","2000/3/1","087-862-2032","087-835-9380","タカバタケショウニカ・アレルギーカイイン",,,,"アレルギー科、小児科",,,,"香川県","372013","http://www.takabatake-ped.com/"
"jp.takamatsu.smartcity.medical.Hospital.206","34.309851","134.049717","香川県高松市太田下町2457-1","無床診療所","高松市","高松e眼科",,"山地　英孝","2022/4/1","087-868-8855",,"タカマツイーガンカ",,,,"眼科",,,,"香川県","372013","https://eganka.com/"
"jp.takamatsu.smartcity.medical.Hospital.207","34.348764","134.064758","香川県高松市朝日町二丁目483-322","無床診療所","高松市","高松画像診断クリニック","理事長　松本  義人","医療法人社団西高松脳外科・内科クリニック","2016/2/1","087-811-5588",,"タカマツガゾウシンダンクリニック",,,,"内科、脳神経外科、整形外科、小児科、小児外科、リハビリ科、放射線科、麻酔科",,,,"香川県","372013","https://image.nishitakamatsu.jp/"
"jp.takamatsu.smartcity.medical.Hospital.208","34.321814","134.069137","香川県高松市木太町1174-1","無床診療所","高松市","愛和会たかまつクリニック","理事長　立川　豊吏","医療法人財団愛和会","2013/5/15","087-813-5876","087-813-7317","タカマツクリニック",,,,"内科、心療内科、精神科",,,,"香川県","372013",
"jp.takamatsu.smartcity.medical.Hospital.209","34.344898","134.046407","香川県高松市紺屋町5-3","無床診療所","高松市","高松紺屋町クリニック","理事長　佐用　義孝","医療法人ウェルネスサポート","2016/11/1","087-813-1018",,"タカマツコンヤマチクリニック",,,,"内科、糖尿病内科、皮膚科、呼吸器内科",,,,"香川県","372013","http://www.well-sprt.com/"
"jp.takamatsu.smartcity.medical.Hospital.210","34.422115","134.054774","香川県高松市男木町1988","無床診療所","高松市","高松市国民健康保険男木診療所","高松市長","高松市","2022/2/12","087-873-0003",,"タカマツシコクミンケンコウホケンオギシンリョウショ",,,,"内科、外科",,,,"香川県","372013",
"jp.takamatsu.smartcity.medical.Hospital.211","34.391199","134.052048","香川県高松市女木町112","無床診療所","高松市","高松市国民健康保険女木診療所","高松市長","高松市","1956/9/30","087-873-0103","087-873-0838","タカマツシコクミンケンコウホケンメギシンリョウショ",,,,"内科、外科",,,,"香川県","372013",
"jp.takamatsu.smartcity.medical.Hospital.212","34.339291","134.059618","香川県高松市松島町一丁目16-20","無床診療所","高松市","高松市夜間急病診療所","高松市長","高松市","2014/9/1","087-839-2299","087-839-2298","タカマツシヤカンキュウビョウシンリョウショ",,,,"内科、小児科、眼科、耳鼻咽喉科",,,,"香川県","372013","https://www.city.takamatsu.kagawa.jp/kurashi/kurashi/kyukyu/yakan/shinryojo.html"
"jp.takamatsu.smartcity.medical.Hospital.213","34.34488","134.046791","香川県高松市紺屋町4-10　鹿島紺屋町ビル1F","無床診療所","高松市","医療法人高松神経内科クリニック","理事長　山本　光利","医療法人高松神経内科クリニック","2013/10/1","087-873-2228",,"タカマツシンケイナイカクリニック",,"鹿島紺屋町ビル1F",,"精神科、神経内科",,,,"香川県","372013","http://www.tn-clinic.jp/"
"jp.takamatsu.smartcity.medical.Hospital.214","34.339842","134.067058","香川県高松市福岡町四丁目28-30","無床診療所","高松市","高松内視鏡診断クリニック","理事長　松本　義人","医療法人社団西高松脳外科・内科クリニック","2016/9/1","087-821-8877",,"タカマツナイシキョウシンダンクリニック",,,,"内科、消化器内科、循環器内科、脳神経外科、放射線科",,,,"香川県","372013","https://endoscope.nishitakamatsu.jp/"
"jp.takamatsu.smartcity.medical.Hospital.215","34.343613","134.040557","香川県高松市番町二丁目10-6","無床診療所","高松市","高松にれクリニック","理事長　秋山　賢次","医療法人讃楡会","2015/11/1","087-851-1117",,"タカマツニレクリニック",,,,"内科、人工透析内科、糖尿病内科、腎臓内科、泌尿器科",,,,"香川県","372013","https://niere.jp/takamatsu/"
"jp.takamatsu.smartcity.medical.Hospital.216","34.305268","133.997962","香川県高松市檀紙町1593-1","無床診療所","高松市","医療法人社団高松脳神経外科・外科医院","理事長　竹内　伸二","医療法人社団高松脳神経外科・外科医院","1994/8/1","087-886-5588","087-886-5589","タカマツノウシンケイゲカ・ゲカイイン",,,,"外科、整形外科、脳神経外科、リハビリ科、放射線科",,,,"香川県","372013","http://www.takamatsunouge.jp/"
"jp.takamatsu.smartcity.medical.Hospital.217","34.317173","134.092732","香川県高松市春日町148-1","有床診療所","高松市","医療法人社団立心会高松ハートクリニック","理事長　雪入　一志","医療法人社団立心会高松ハートクリニック","2012/3/2","087-814-5111","087-814-5112","タカマツハートクリニック",,,,"内科、循環器内科",,"6",,"香川県","372013","http://ta-heart.com/"
"jp.takamatsu.smartcity.medical.Hospital.219","34.328134","134.159323","香川県高松市牟礼町原430","無床診療所","高松市","医療法人社団高本内科医院","理事長　高本　雅弘","医療法人社団高本内科医院","2001/11/1","087-845-8000","087-845-8000","タカモトナイカイイン",,,,"内科、胃腸科、循環器科",,,,"香川県","372013",
"jp.takamatsu.smartcity.medical.Hospital.220","34.303473","134.071877","香川県高松市林町1583-1","無床診療所","高松市","医療法人社団瀧川整形外科医院","理事長　三木　信孝","医療法人社団瀧川整形外科医院","1995/4/1","087-867-2288","087-867-6532","タキガワセイケイゲカイイン",,,,"リウマチ科、整形外科、リハビリ科",,,,"香川県","372013","http://www.myclinic.ne.jp/t_seikei/pc/"
"jp.takamatsu.smartcity.medical.Hospital.221","34.310511","134.046893","香川県高松市太田下町2355-5","無床診療所","高松市","医療法人社団武田耳鼻咽喉科医院","理事長　武田　伸郎","医療法人社団武田耳鼻咽喉科医院","1993/6/1","087-865-2311","087-866-4501","タケダジビインコウカイイン",,,,"耳鼻咽喉科、気管食道内科",,,,"香川県","372013","https://itp.ne.jp/info/510000000000062037/https://www.489map.com/helios/A8135594/reserve/syoshin"
"jp.takamatsu.smartcity.medical.Hospital.222","34.344687","134.016858","香川県高松市郷東町134-1　西高松メディカルビルイーア1Ｆ","無床診療所","高松市","竹田耳鼻咽喉科クリニック","理事長　竹田　雅聖","医療法人社団すずらん","2013/9/1","087-873-2033",,"タケダジビインコウカクリニック",,"西高松メディカルビルイーア1階",,"アレルギー科、耳鼻咽喉科",,,,"香川県","372013","http://park.paa.jp/park2/clinics/2171"
"jp.takamatsu.smartcity.medical.Hospital.223","34.310063","134.049252","香川県高松市太田下町2462-3","無床診療所","高松市","医療法人社団竹広小児科医院","理事長　竹広　晃","医療法人社団竹広小児科医院","1998/8/1","087-866-2461","087-840-0750","タケヒロショウニカイイン",,,,"小児科",,,,"香川県","372013","https://www.takehiro-clinic.jp/medical/"
"jp.takamatsu.smartcity.medical.Hospital.224","34.297067","134.055251","香川県高松市多肥下町字山道365-9","有床診療所","高松市","医療法人社団一歩一景会たけべ乳腺外科クリニック","理事長　武部　晃司","医療法人社団一歩一景会","2015/5/1","087-867-0205","087-867-0306","タケベニュウセンゲカクリニック",,,,"乳腺外科",,"15",,"香川県","372013","https://takebe.gr.jp/"
"jp.takamatsu.smartcity.medical.Hospital.225","34.339515","134.06156","香川県高松市松島町一丁目14-23","無床診療所","高松市","田坂耳鼻咽喉科医院",,"田坂　周治","1996/9/4","087-861-8204","087-834-8180","タサカジビインコウカイイン",,,,"アレルギー科、耳鼻咽喉科、気管食道科",,,,"香川県","372013","https://itp.ne.jp/info/374845615400000899/"
"jp.takamatsu.smartcity.medical.Hospital.227","34.342783","134.042292","香川県高松市番町三丁目3-1","有床診療所","高松市","多田羅内科クリニック","理事長　多田羅　治","医療法人福生会","1992/12/1","087-861-3730","087-861-3430","タタラナイカクリニック",,,,"内科、呼吸器内科、消化器内科、循環器内科、",,"18",,"香川県","372013","http://tatara-clinic.main.jp/"
"jp.takamatsu.smartcity.medical.Hospital.228","34.34009","134.111119","香川県高松市高松町3006-21","無床診療所","高松市","たつや耳鼻咽喉科","理事長　石田　京子","医療法人社団千和会","2017/1/1","087-843-8733",,"タツヤジビインコウカ",,,,"耳鼻咽喉科",,,,"香川県","372013","https://itp.ne.jp/info/379733225126530510/"
"jp.takamatsu.smartcity.medical.Hospital.229","34.345826","134.050269","香川県高松市丸亀町1-1　丸亀町壱番街西館２Ｆ","無床診療所","高松市","医療法人社団RENATUS　PRAS　TANAKAクリニック形成外科・美容外科","理事長　田中　嘉雄","医療法人社団ＲＥＮＡＴＵＳ　ＰＲＡＳ","2020/11/22","087-823-1500",,"タナカクリニック　ケイセイゲカ・ビヨウゲカ",,"丸亀町壱番街西館2階",,"形成外科、美容外科",,,,"香川県","372013","http://www.tanaka-pras-cl.com/"
"jp.takamatsu.smartcity.medical.Hospital.230","34.285143","134.00349","香川県高松市円座町129-4","無床診療所","高松市","医療法人社団谷崎眼科医院","理事長　谷崎　勍","医療法人社団谷崎眼科医院","1999/3/1","087-885-5558","087-885-5568","タニザキガンカイイン",,,,"眼科",,,,"香川県","372013","https://itp.ne.jp/info/377779425400000899/"
"jp.takamatsu.smartcity.medical.Hospital.231","34.300654","134.076159","香川県高松市林町1281","無床診療所","高松市","医療法人社団育林会谷本医院","理事長　谷本　雅人","医療法人社団育林会","1992/5/1","087-867-1861","087-865-8819","タニモトイイン",,,,"内科、小児科",,,,"香川県","372013",
"jp.takamatsu.smartcity.medical.Hospital.232","34.265782","134.028461","香川県高松市香川町大野997-3","有床診療所","高松市","医療法人社団谷本内科医院","理事長　谷本　佳貞","医療法人社団谷本内科医院","1999/2/1","087-885-8500","087-870-4130","タニモトナイカイイン",,,,"内科、循環器内科、人工透析内科、糖尿病内科、泌尿器科、リハビリ科",,"19",,"香川県","372013","http://www.tanimoto-c.or.jp/"
"jp.takamatsu.smartcity.medical.Hospital.233","34.321858","134.063855","香川県高松市松縄町41-5","有床診療所","高松市","医療法人社団田原内科医院","理事長　田原　律哉","医療法人社団田原内科医院","1993/3/1","087-867-1766","087-867-1767","タハラナイカイイン",,,,"呼吸器内科、消化器内科、循環器内科、糖尿病・内分泌内科、リハビリ科",,"19",,"香川県","372013","http://www.taharanaika.jp/clinic.html"
"jp.takamatsu.smartcity.medical.Hospital.234","34.345779","134.035708","香川県高松市扇町一丁目25-25","無床診療所","高松市","田渕医院",,"田渕　保己","1991/11/1","087-821-3091","087-821-3162","タブチイイン",,,,"内科、外科、婦人科",,,,"香川県","372013","https://itp.ne.jp/info/375999605400000899/"
"jp.takamatsu.smartcity.medical.Hospital.235","34.348842","134.04911","香川県高松市寿町一丁目4番3号","無床診療所","高松市","医療法人社団清仁会玉藻クリニック","理事長　猪尾　昌之","医療法人社団清仁会","2018/12/1","087-811-7021",,"タマモクリニック",,"高松中央通りビル4階",,"内科、リウマチ科",,,,"香川県","372013","http://www.utz.or.jp/tamamo/"
"jp.takamatsu.smartcity.medical.Hospital.236","34.292981","134.057568","香川県高松市多肥上町1461","無床診療所","高松市","医療法人社団ポラリスたむら内科","理事長　髙津　瑶子","医療法人社団ポラリス","2011/5/1","087-888-3311","087-888-3312","タムラナイカ",,,,"内科、循環器内科、糖尿病内科、腎臓内科",,,,"香川県","372013","http://tamuranaika-polaris.com/pc/"
"jp.takamatsu.smartcity.medical.Hospital.237","34.384345","134.128185","香川県高松市庵治町6385-104","無床診療所","高松市","田村内科クリニック",,"田村　隆一","2002/12/16","087-871-1181","087-871-1171","タムラナイカクリニック",,,,"内科、消化器科、循環器科、糖尿病内科",,,,"香川県","372013",
"jp.takamatsu.smartcity.medical.Hospital.238","34.265612","134.009854","香川県高松市川部町1443-1","無床診療所","高松市","ツゲ医院",,"柘植　司郎","1984/6/1","087-885-1432","087-885-5863","ツゲイイン",,,,"内科、外科",,,,"香川県","372013","https://tsuge-iin.com/"
"jp.takamatsu.smartcity.medical.Hospital.239","34.302121","134.072932","香川県高松市林町1501-1","無床診療所","高松市","医療法人社団仁和会辻クリニック","理事長　村上　景子（溝渕　景子）","医療法人社団仁和会","2010/10/1","087-867-2662","087-867-3232","ツジクリニック",,,,"内科、循環器内科、血管外科",,,,"香川県","372013","http://www.cvs-tsuji.jp/index.html"
"jp.takamatsu.smartcity.medical.Hospital.240","34.34355","134.0493","香川県高松市鍛冶屋町1-6","無床診療所","高松市","筒井皮ふ科医院",,"井上　雅子","2017/4/20","087-821-6250",,"ツツイナイカ・ヒフカイイン",,,,"皮膚科・内科",,,,"香川県","372013","http://www.tsutsui.clinic/"
"jp.takamatsu.smartcity.medical.Hospital.241","34.349649","134.026015","香川県高松市茜町16-12","無床診療所","高松市","医療法人社団翼医院","理事長　小川　翼　","医療法人社団翼医院","1992/9/1","087-837-5800","087-837-5651","ツバサイイン",,,,"内科、胃腸科、循環器科、放射線科",,,,"香川県","372013",
"jp.takamatsu.smartcity.medical.Hospital.242","34.27821","134.027125","香川県高松市寺井町1053-18","無床診療所","高松市","寺井山内医院",,"山内　康彦","1989/8/1","087-886-7888","087-886-7895","テライヤマウチイイン",,,,"内科、消化器内科、循環器内科、糖尿病内科、アレルギー科、",,,,"香川県","372013","https://hospital.dr-navip.jp/kagawa/facility/1457/"
"jp.takamatsu.smartcity.medical.Hospital.243","34.344254","134.049983","香川県高松市丸亀町4-1 パイロットビル4F","無床診療所","高松市","東京ノーストクリニック",,"山本　英樹","2016/5/7","087-823-1134",,"トウキョウノーストクリニック",,"パイロットビル4F",,"形成外科、泌尿器科",,,,"香川県","372013","https://www.norst.co.jp/phimotic/map/takamatsu.html"
"jp.takamatsu.smartcity.medical.Hospital.244","34.334058","134.083463","香川県高松市木太町2808-1","無床診療所","高松市","医療法人社団眞貴会徳野医院","理事長　徳野　眞之","医療法人社団眞貴会","1999/1/1","087-831-3700","087-831-3701","トクノイイン",,,,"整形外科、リハビリ科、麻酔科",,,,"香川県","372013",
"jp.takamatsu.smartcity.medical.Hospital.245","34.318163","134.051042","香川県高松市伏石町1352-2","無床診療所","高松市","トビウメ小児科医院",,"飛梅　元","2024/4/1","087-865-3111",,"トビウメショウニカイイン",,,,"小児科",,,,"香川県","372013","http://www.tobiume-shounika.com/index.html"
"jp.takamatsu.smartcity.medical.Hospital.246","34.308747","134.057389","香川県高松市伏石町2131-2","無床診療所","高松市","医療法人社団水明会とびうめ内科医院","理事長　飛梅　耕一","医療法人社団水明会","2000/5/1","087-866-1130","087-866-1130","トビウメナイカイイン",,,,"内科、呼吸器科、胃腸科",,,,"香川県","372013","http://www.tobiume-cl.com/"
"jp.takamatsu.smartcity.medical.Hospital.247","34.34388","134.043248","香川県高松市番町二丁目6-13","無床診療所","高松市","医療法人社団とみおか内科クリニック","理事長　富岡　幸生","医療法人社団とみおか内科クリニック","2000/10/1","087-825-9121","087-825-9120","トミオカナイカクリニック",,,,"内科",,,,"香川県","372013","http://www.netwave.or.jp/~tomi-cli/"
"jp.takamatsu.smartcity.medical.Hospital.248","34.25578","134.034373","香川県高松市香川町浅野1030-1","無床診療所","高松市","内科・消化器内科佐々木クリニック","理事長　佐々木　陽介","医療法人社団陽洸会","2012/5/20","087-840-5339","087-840-5337","ナイカ・ショウカキナイカササキクリニック",,,,"内科、消化器内科",,,,"香川県","372013",
"jp.takamatsu.smartcity.medical.Hospital.249","34.333795","134.049192","香川県高松市藤塚町一丁目8-17","無床診療所","高松市","医療法人社団内科高橋クリニック","理事長　高橋　道也","医療法人社団内科高橋クリニック","2006/6/1","087-831-7073","087-831-7568","ナイカタカハシクリニック",,,,"内科、消化器科、循環器科",,,,"香川県","372013","https://www.naikatakahashi.clinic/"
"jp.takamatsu.smartcity.medical.Hospital.250","34.337768","134.065601","香川県高松市松島町二丁目17-15","無床診療所","高松市","内科前田医院",,"前田　道彦","2007/12/18","087-863-5252","087-837-1009","ナイカマエダイイン",,,,"内科、アレルギー科、リハビリ科",,,,"香川県","372013","http://maeda-cl.com/"
"jp.takamatsu.smartcity.medical.Hospital.252","34.320578","133.998061","香川県高松市飯田町343-１","無床診療所","高松市","長尾医院","理事長　長尾　建彦","医療法人建心会","2014/4/1","087-881-2901","087-870-5171","ナガオイイン",,,,"内科、外科",,,,"香川県","372013",
"jp.takamatsu.smartcity.medical.Hospital.253","34.29735","133.961064","香川県高松市国分寺町新居1288-6","無床診療所","高松市","中川皮膚科医院",,"中川　俊文","2000/8/1","087-870-6660","087-870-6611","ナカガワヒフカイイン",,,,"皮膚科",,,,"香川県","372013","http://www.myclinic.ne.jp/naka6660/pc/"
"jp.takamatsu.smartcity.medical.Hospital.254","34.343543","134.003917","香川県高松市香西本町256-1","無床診療所","高松市","医療法人社団中空医院","理事長　中空　達樹","医療法人社団中空医院","2003/10/1","087-881-1230","087-881-6171","ナカゾライイン",,,,"内科、人工透析内科、消化器内科、循環器内科",,,,"香川県","372013","http://nakazora.kagawa.jp/"
"jp.takamatsu.smartcity.medical.Hospital.255","34.334352","134.048937","香川県高松市藤塚町一丁目7-7","無床診療所","高松市","中村眼科医院",,"中村　晶","1992/5/1","087-833-4880","087-833-8330","ナカムラガンカイイン",,,,"眼科",,,,"香川県","372013",
"jp.takamatsu.smartcity.medical.Hospital.256","34.284639","134.006692","香川県高松市円座町1593","無床診療所","高松市","那須医院",,"那須　義功","1996/12/25","087-885-1406","087-885-1427","ナスイイン",,,,"内科、小児科",,,,"香川県","372013",
"jp.takamatsu.smartcity.medical.Hospital.257","34.301104","134.018773","香川県高松市成合町1357","有床診療所","高松市","なりあい医院","理事長　村上　良一","学校法人村上学園","2007/12/1","087-885-7700","087-885-7500","ナリアイイイン",,,,"胃腸内科、外科、リハビリ科",,"19（休床中）",,"香川県","372013",
"jp.takamatsu.smartcity.medical.Hospital.258","34.28202","134.023515","香川県高松市寺井町1385-10","有床診療所","高松市","医療法人社団仁泉会西岡医院","理事長　西岡　敦子","医療法人社団仁泉会","1995/3/1","087-885-2021","4/1/22","ニシオカイイン",,,,"内科、リウマチ科、小児科、整形外科、リハビリ科",,"19",,"香川県","372013","http://www.jinsenkai.jp/nishioka/"
"jp.takamatsu.smartcity.medical.Hospital.259","34.316291","134.027168","香川県高松市松並町559-3","無床診療所","高松市","医療法人社団良済会西春日小児科医院","理事長　神内　仁","医療法人社団良済会","1990/7/1","087-867-7070","087-869-0801","ニシカスガショウニカイイン",,,,"小児精神科、小児科",,,,"香川県","372013","http://www.nishikasuga.com/"
"jp.takamatsu.smartcity.medical.Hospital.260","34.344848","134.047637","香川県高松市紺屋町3-12","無床診療所","高松市","西風循環器科医院",,"本間　菜々","2020/5/5","087-851-0880","087-823-4086","ニシカゼジュンカンキカイイン",,,,"内科、循環器内科",,,,"香川県","372013",
"jp.takamatsu.smartcity.medical.Hospital.261","34.341719","134.052761","香川県高松市瓦町一丁目4-5","無床診療所","高松市","西川クリニック","理事長　西川　正史","医療法人恵愛会（社団）","2005/11/1","087-851-1027","087-851-0537","ニシカワクリニック",,,,"外科、整形外科、リハビリ科",,,,"香川県","372013","https://itp.ne.jp/info/377251934118051570/"
"jp.takamatsu.smartcity.medical.Hospital.262","34.344687","134.016858","香川県高松市郷東町134-1","無床診療所","高松市","西高松脳外科・内科クリニック","理事長　松本  義人","医療法人社団西高松脳外科・内科クリニック","2009/5/1","087-832-8811","087-881-1653","ニシタカマツノウゲカ・ナイカクリニック",,"西高松メディカルビルイーア2階",,"内科、整形外科、脳神経外科、リハビリテーション科、放射線科",,,,"香川県","372013","https://brain.nishitakamatsu.jp/"
"jp.takamatsu.smartcity.medical.Hospital.263","34.26683","134.025532","香川県高松市香川町大野1325-1","有床診療所","高松市","医療法人社団西原眼科医院","理事長　西原　聡一朗","医療法人社団西原眼科医院","1998/4/1","087-885-5511","087-885-5534","ニシハラガンカイイン",,,,"眼科",,"4",,"香川県","372013","http://www.nishihara-gankaiin.com/"
"jp.takamatsu.smartcity.medical.Hospital.265","34.334839","134.07845","香川県高松市木太町2543-13","無床診療所","高松市","新田リウマチ整形外科医院",,"新田　雅英","1999/1/1","087-833-8757","087-833-8757","ニッタリュウマチセイケイゲカイイン",,,,"リウマチ科、整形外科、リハビリ科",,,,"香川県","372013",
"jp.takamatsu.smartcity.medical.Hospital.266","34.335501","134.050983","香川県高松市東田町4-8","有床診療所","高松市","沼本産婦人科医院",,"沼本　篤男","2016/9/1","087-831-7062",,"ヌマモトサンフジンカイイン",,,,"産婦人科",,"2",,"香川県","372013",
"jp.takamatsu.smartcity.medical.Hospital.267","34.342657","134.030864","香川県高松市昭和町二丁目14-13","無床診療所","高松市","ぬもと内科医院",,"沼本　明美","1997/1/1","087-861-0465","087-861-0465","ヌモトナイカイイン",,,,"内科、呼吸器科",,,,"香川県","372013",
"jp.takamatsu.smartcity.medical.Hospital.268","34.288513","134.110526","香川県高松市前田東町1213-2","無床診療所","高松市","野口内科医院",,"野口　章男","1988/10/1","087-847-6555","087-847-6555","ノグチナイカイイン",,,,"内科、消化器内科",,,,"香川県","372013","https://byoinnavi.jp/clinic/95688"
"jp.takamatsu.smartcity.medical.Hospital.269","34.337341","134.081398","香川県高松市木太町2631-1","無床診療所","高松市","のざき内科循環器科クリニック",,"野崎　士郎","2006/8/28","087-831-5581","087-831-5591","ノザキナイカジュンカンキカクリニック",,,,"内科、循環器科",,,,"香川県","372013","http://www.dr-nozaki.com/clinic/index.html"
"jp.takamatsu.smartcity.medical.Hospital.270","34.336405","134.058947","香川県高松市多賀町二丁目9-20","無床診療所","高松市","医療法人社団野田医院","理事長　野田　信一路","医療法人社団野田医院","2018/5/7","087-831-4275",,"ノダイイン",,,,"内科、循環器内科、小児科",,,,"香川県","372013","https://www.noda-iin.jp/"
"jp.takamatsu.smartcity.medical.Hospital.271","34.239799","134.032259","香川県高松市香川町川東上字漆原1802-7","無床診療所","高松市","のむら内科循環器消化器クリニック","理事長　野村　昌弘","医療法人社団のむら内科循環器消化器クリニック","2011/4/1","087-816-8088","087-816-8080","ノムラナイカジュンカンキショウカキクリニック",,,,"内科、消化器内科、循環器内科",,,,"香川県","372013","http://8423nomura.byoinnavi.jp/pc/index.html"
"jp.takamatsu.smartcity.medical.Hospital.272","34.305532","133.967993","香川県高松市国分寺町新居469-6","無床診療所","高松市","端岡厚生クリニック",,"眞鍋　正茂","2001/12/17","087-874-0003","087-874-7358","ハシオカコウセイクリニック",,,,"内科、外科、整形外科、リハビリテーション科、精神科、心療内科",,,,"香川県","372013","http://w01.tp1.jp/~a151823631/"
"jp.takamatsu.smartcity.medical.Hospital.274","34.342216","134.099019","香川県高松市屋島西町1736","無床診療所","高松市","医療法人社団はせ川内科循環器科医院","理事長　長谷川　浩一","医療法人社団はせ川内科循環器科医院","2003/1/1","087-841-1555","087-844-1021","ハセガワナイカジュンカンキカイイン",,,,"内科、循環器科",,,,"香川県","372013","http://www.hasegawa-heart.com/"
"jp.takamatsu.smartcity.medical.Hospital.275","34.349081","134.002359","香川県高松市香西本町89","無床診療所","高松市","医療法人社団はた医院","理事長　幡　英一","医療法人社団はた医院","1993/10/1","087-881-2262","087-881-7520","ハタイイン",,,,"内科、消化器科、小児科、リハビリ科",,,,"香川県","372013","https://itp.ne.jp/info/371603325400000899/"
"jp.takamatsu.smartcity.medical.Hospital.276","34.338303","134.044174","香川県高松市天神前6-21","無床診療所","高松市","幡内科・消化器内科クリニック","理事長　幡　英典","医療法人社団幡内科・消化器内科クリニック","2024/3/25","087-835-3366","087-835-3367","ハタナイカショウカキカイイン",,,,"内科、消化器科",,,,"香川県","372013","http://www.hatanaika.jp/"
"jp.takamatsu.smartcity.medical.Hospital.277","34.336925","134.035998","香川県高松市宮脇町一丁目31-5","無床診療所","高松市","八幡前三好医院",,"三好　正嗣","2013/11/11","087-834-4800","087-835-5428","ハチマンマエミヨシイイン",,,,"内科",,,,"香川県","372013","http://www7b.biglobe.ne.jp/hachimanmae-miyoshi/"
"jp.takamatsu.smartcity.medical.Hospital.279","34.326683","134.049361","香川県高松市花ノ宮町一丁目5-36","無床診療所","高松市","花ノ宮クリニック","理事長　山本　修平","医療法人社団讃志会","2011/4/1","087-816-3555","087-816-3550","ハナノミヤクリニック",,,,"内科、循環器内科、人工透析内科、腎臓内科、リウマチ科、透析実施",,,,"香川県","372013","http://www.hananomiya.sanshikai-med.jp/"
"jp.takamatsu.smartcity.medical.Hospital.280","34.339364","134.010601","香川県高松市鶴市町2026-1","有床診療所","高松市","医療法人社団伸萌会花房外科医院","理事長　花房　伸","医療法人社団伸萌会","1993/4/1","087-881-0066","087-881-0067","ハナブサゲカイイン",,,,"胃腸科、外科、こう門科、リハビリ科",,"19（休床中）",,"香川県","372013","http://www.shinboukai.net/"
"jp.takamatsu.smartcity.medical.Hospital.281","34.271791","134.108672","香川県高松市十川東町55-1","無床診療所","高松市","医療法人社団ハピネスこどもクリニック","理事長　齋藤　愼一","医療法人社団ハピネスこどもクリニック","2006/5/1","087-848-9178","087-848-6178","ハピネスコドモクリニック",,,,"小児科",,,,"香川県","372013","http://www.happiness-kids-c.com/index2.htm"
"jp.takamatsu.smartcity.medical.Hospital.282","34.297606","134.078552","香川県高松市六条町795-6","有床診療所","高松市","医療法人社団ひまわり会はまもと医院","理事長　濱本　龍七郎","医療法人社団ひまわり会","2002/3/1","087-864-6666","087-869-1213","ハマモトイイン",,,,"内科、呼吸器内科、胃腸内科、循環器内科、人工透析内科、糖尿病内科、腎臓内科、老年内科、アレルギー疾患内科、リハビリ科",,"19",,"香川県","372013",
"jp.takamatsu.smartcity.medical.Hospital.284","34.338711","134.051599","香川県高松市常磐町一丁目4-8","無床診療所","高松市","原胃腸科医院",,"原　敬","1978/5/1","087-861-4433","087-861-4433","ハライチョウカイイン",,"丸新ビル6F",,"内科、胃腸科",,,,"香川県","372013",
"jp.takamatsu.smartcity.medical.Hospital.285","34.326512","134.04976","香川県高松市花ノ宮町一丁目5-30","有床診療所","高松市","医療法人社団はらだ産婦人科医院","理事長　原田　美禰子","医療法人社団はらだ産婦人科医院","1995/6/1","087-837-1611","087-832-7131","ハラダサンフジンカイイン",,,,"産婦人科",,"2",,"香川県","372013",
"jp.takamatsu.smartcity.medical.Hospital.286","34.339459","134.038106","香川県高松市番町五丁目9-10","無床診療所","高松市","番丁クリニック",,"西岡　孝","2014/4/11","087-862-1110",,"バンチョウクリニック",,,,"内科、リウマチ科、整形外科、リハビリ科",,,,"香川県","372013","https://itp.ne.jp/info/374751616159370970/shop/"
"jp.takamatsu.smartcity.medical.Hospital.287","34.279267","134.060411","香川県高松市三谷町1697-14","無床診療所","高松市","ひがさクリニック",,"樋笠　靖","1997/4/1","087-888-5151","087-840-1307","ヒガサクリニック",,,,"小児科、整形外科、リハビリ科",,,,"香川県","372013","http://clinic-1.jp/web/higasa/pc/"
"jp.takamatsu.smartcity.medical.Hospital.288","34.340078","134.118176","香川県高松市高松町2310-2","無床診療所","高松市","医療法人社団東高松クリニック","理事長　木村　正司","医療法人社団東高松クリニック","1993/10/1","087-841-0033","087-841-0031","ヒガシタカマツクリニック",,,,"内科、呼吸器科内科、循環器内科、リハビリ科、消化器内科、整形外科、脳神経外科、放射線科",,,,"香川県","372013","https://kimura.nishitakamatsu.jp/https://hospital.dr-navip.jp/kagawa/facility/1592/"
"jp.takamatsu.smartcity.medical.Hospital.290","34.338701","134.049205","香川県高松市香西本町1-1 イオンモール高松１Ｆ","無床診療所","高松市","高松ひまわり眼科","理事長　松尾　眞二郎","医療法人しんあい会","2015/7/1","087-802-1703",,"タカマツヒマワリガンカ",,"小倉ビル１階",,"眼科",,,,"香川県","372013","http://pmganka.com/himawari-takamatsu/"
"jp.takamatsu.smartcity.medical.Hospital.291","34.340327","134.045005","香川県高松市天神前5-6","無床診療所","高松市","ピュア形成外科医院","理事長　井上　普文","医療法人社団白鳳会","2005/9/1","087-832-5811","087-832-5822","ピュアケイセイゲカイイン",,"高松メディカルモール6F",,"形成外科、美容外科、皮膚科",,,,"香川県","372013","http://www.i-clinic.org/"
"jp.takamatsu.smartcity.medical.Hospital.292","34.333677","134.079342","香川県高松市木太町2559-2","無床診療所","高松市","医療法人社団平井眼科医院","理事長　平井　健一","医療法人社団平井眼科医院","2005/9/1","087-861-2777","087-861-2777","ヒライガンカイイン",,,,"眼科",,,,"香川県","372013",
"jp.takamatsu.smartcity.medical.Hospital.294","34.282886","134.044459","香川県高松市仏生山町甲344-3","無床診療所","高松市","医療法人社団福田眼科医院","理事長　福田　紹平","医療法人社団福田眼科医院","1990/7/1","087-889-5633","087-889-1777","フクダガンカイイン",,,,"眼科",,,,"香川県","372013","https://fukuda-gankaiin.com/"
"jp.takamatsu.smartcity.medical.Hospital.295","34.335314","134.059734","香川県高松市多賀町二丁目18-13","無床診療所","高松市","ふくだ眼科クリニック",,"福田　恒輝","2015/5/1","087-802-2777",,"フクダガンカクリニック",,,,"眼科",,,,"香川県","372013","http://fukudaeyeclinic.com/"
"jp.takamatsu.smartcity.medical.Hospital.297","34.347264","134.121667","香川県高松市牟礼町牟礼2560-11","無床診療所","高松市","ふくま内科クリニック","理事長　福間　博基","医療法人社団ふくま内科クリニック","2001/8/1","087-870-1311","087-870-1661","フクマナイカクリニック",,,,"内科、消化器科、リハビリ科",,,,"香川県","372013",
"jp.takamatsu.smartcity.medical.Hospital.298","34.305593","134.037044","香川県高松市田村町1277","有床診療所","高松市","医療法人社団藤井外科胃腸科・整形外科","理事長　谷野　裕子","医療法人社団藤井外科胃腸科・整形外科","2001/4/1","087-867-1222","087-867-1220","フジイゲカイチョウカ・セイケイゲカ",,,,"内科、胃腸科、外科、整形外科、リウマチ科、リハビリテーション科",,"19",,"香川県","372013","https://itp.ne.jp/info/377212159070560400/"
"jp.takamatsu.smartcity.medical.Hospital.300","34.297754","133.996079","香川県高松市檀紙町59-1","無床診療所","高松市","医療法人社団藤沢眼科医院","理事長　藤澤　綾","医療法人社団藤沢眼科医院","2018/4/1","087-885-1010",,"フジサワガンカ",,,,"眼科",,,,"香川県","372013","http://fujisawa-a-eyeclinic.com/"
"jp.takamatsu.smartcity.medical.Hospital.301","34.288008","134.0021","香川県高松市中間町49-10","無床診療所","高松市","医療法人社団藤沢こどもクリニック","理事長　藤澤　卓爾（じ）","医療法人社団藤沢こどもクリニック","2001/8/1","087-885-3338","087-885-2272","フジサワコドモクリニック",,,,"小児科",,,,"香川県","372013","http://fujisawa.kids.coocan.jp/"
"jp.takamatsu.smartcity.medical.Hospital.303","34.282428","134.042408","香川県高松市仏生山町甲816-5","無床診療所","高松市","仏生山駅前こだまクリニック",,"児玉　浩昭","2015/10/26","087-814-4262","087-814-4263","ブッショウザンエキマエコダマクリニック",,,,"内科、リウマチ科、整形外科、形成外科、リハビリ科、放射線科",,,,"香川県","372013","https://itp.ne.jp/info/373132002103971550/http://ameblo.jp/kodama-clinic/"
"jp.takamatsu.smartcity.medical.Hospital.305","34.280627","134.045211","香川県高松市仏生山町甲691-1","無床診療所","高松市","医療法人社団仏生山みぞぶち内科医院","理事長　溝淵　猛","医療法人社団仏生山みぞぶち内科医院","1998/2/1","087-888-1322","087-888-6390","ブッショウザンミゾブチナイカイイン",,,,"内科、胃腸内科",,,,"香川県","372013",
"jp.takamatsu.smartcity.medical.Hospital.306","34.345372","134.049763","香川県高松市古新町10-3","無床診療所","高松市","古新町こころの診療所","理事長　朝日　宏美","医療法人社団つたの葉","2017/10/1","087-802-2205",,"フルジンマチココロノシンリョウショ",,"砂屋ビル6階",,"心療内科、精神科",,,,"香川県","372013","http://www.kokoro-c.jp"
"jp.takamatsu.smartcity.medical.Hospital.307","34.31025","134.048781","香川県高松市太田下町2463-6","無床診療所","高松市","ぶんご内科医院",,"豊後　雅巳","1998/7/13","087-869-7117","087-869-7118","ブンゴナイカイイン",,,,"内科、呼吸器科、消化器科",,,,"香川県","372013","https://www.bungoiin.com/"
"jp.takamatsu.smartcity.medical.Hospital.308","34.331389","134.047318","香川県高松市栗林町一丁目4-11","無床診療所","高松市","へいわこどもクリニック","理事長　北原　孝夫","香川医療生活協同組合","2010/3/8","087-835-2026","087-835-2027","ヘイワコドモクリニック",,,,"アレルギー科、小児科",,,,"香川県","372013","https://heiwakodomo.com/"
"jp.takamatsu.smartcity.medical.Hospital.309","34.344629","134.046678","香川県高松市番町一丁目2-19","無床診療所","高松市","ほそかわクリニック",,"細川　二郎","2005/5/9","087-811-3252","087-811-3258","ホソカワクリニック",,,,"心療内科、精神科、神経科",,,,"香川県","372013","http://www.h-clinic.com/"
"jp.takamatsu.smartcity.medical.Hospital.310","34.345757","134.039603","香川県高松市錦町二丁目13-11","無床診療所","高松市","堀耳鼻咽喉科医院",,"堀　芳朗","1997/1/1","087-821-8733","087-821-8735","ホリジビインコウカイイン",,,,"耳鼻咽喉科",,,,"香川県","372013",
"jp.takamatsu.smartcity.medical.Hospital.311","34.344036","134.050908","香川県高松市今新町8-5","無床診療所","高松市","本多内科医院",,"本多　完次","2011/11/8","087-821-4916","087-822-7275","ホンダナイカイイン",,,,"内科",,,,"香川県","372013","https://www.hondanaika.com/"
"jp.takamatsu.smartcity.medical.Hospital.312","34.344687","134.016858","香川県高松市郷東町東新開134-1 西高松メディカルビルイーア3Ｆ","無床診療所","高松市","医療法人社団つなぎまさだ皮フ科","理事長　政田　みち","医療法人社団つなぎまさだ皮フ科","2009/10/1","087-832-8833","087-881-1757","マサダヒフカ",,"西高松メディカルビルイーア3階",,"皮膚科、美容皮膚科",,,,"香川県","372013","http://www.masada-hifuka.com/"
"jp.takamatsu.smartcity.medical.Hospital.314","34.285974","134.033112","香川県高松市一宮町143-5","無床診療所","高松市","医療法人社団マツオカ医院","理事長　松岡　信夫","医療法人社団マツオカ医院","1991/2/1","087-888-2222","087-888-1995","マツオカイイン",,,,"内科、糖尿病内科、皮膚科",,,,"香川県","372013","https://itp.ne.jp/info/510000000000062080/shop/"
"jp.takamatsu.smartcity.medical.Hospital.316","34.296118","134.099346","香川県高松市前田西町1080-7","無床診療所","高松市","医療法人社団看源会松木泌尿器科医院","理事長　松木　孝和","医療法人社団看源会","2007/5/1","087-847-1121","087-847-1128","マツキヒニョウキカイイン",,,,"泌尿器科、性病科",,,,"香川県","372013","http://www.mat-iin.com/"
"jp.takamatsu.smartcity.medical.Hospital.317","34.339923","134.051817","香川県高松市瓦町二丁目7-1 冠野ビル4F","無床診療所","高松市","医療法人社団松下眼科","理事長　松下　明子","医療法人社団松下眼科","2007/3/1","087-833-1388","087-861-9932","マツシタガンカイイン",,"冠野ビル4F",,"眼科",,,,"香川県","372013",
"jp.takamatsu.smartcity.medical.Hospital.318","34.341082","134.112623","香川県高松市高松町3004-2","無床診療所","高松市","松田胃腸科外科医院",,"松田　滋明","1977/6/1","087-843-3377","087-843-3378","マツダイチョウカゲカイイン",,,,"胃腸科、外科",,,,"香川県","372013",
"jp.takamatsu.smartcity.medical.Hospital.319","34.334515","134.047269","香川県高松市藤塚町一丁目3-21","無床診療所","高松市","医療法人社団松田内科医院","理事長　松田　和也","医療法人社団松田内科医院","1993/3/1","087-831-4601","087-833-7255","マツダナイカイイン",,,,"内科、胃腸内科、循環器内科、内視鏡内科、漢方内科",,,,"香川県","372013","https://itp.ne.jp/info/379590905400000899/"
"jp.takamatsu.smartcity.medical.Hospital.320","34.276308","134.099515","香川県高松市川島東町518-1","無床診療所","高松市","松原耳鼻咽喉科医院",,"松原　一仁","1998/4/1","087-848-1100","087-848-1100","マツバラジビインコウカイイン",,,,"耳鼻咽喉科",,,,"香川県","372013",
"jp.takamatsu.smartcity.medical.Hospital.321","34.344687","134.016858","香川県高松市郷東町東新開134-1","無床診療所","高松市","医療法人社団あずみ会まつもと眼科","理事長　松本　美千代","医療法人社団あずみ会まつもと眼科","2009/10/1","087-832-8822","087-881-5358","マツモトガンカ",,"西高松メディカルビルイーア3階",,"眼科",,,,"香川県","372013","https://ophthalmology.nishitakamatsu.jp/"
"jp.takamatsu.smartcity.medical.Hospital.322","34.338741","134.05545","香川県高松市塩上町二丁目8-1","無床診療所","高松市","医療法人社団松本整形外科医院","理事長　松本　学　","医療法人社団松本整形外科医院","1995/6/1","087-835-5272","087-835-5272","マツモトセイケイゲカイイン",,,,"整形外科、リハビリ科",,,,"香川県","372013",
"jp.takamatsu.smartcity.medical.Hospital.323","34.30665","134.057027","香川県高松市多肥下町1501-1","無床診療所","高松市","医療法人社団松山内科クリニック","理事長　松山　哲子","医療法人社団松山内科クリニック","1998/9/1","087-867-7778","087-867-7689","マツヤマナイカクリニック",,,,"内科、循環器内科、糖尿病内科",,,,"香川県","372013","http://www.matsuyama-clinic.com/"
"jp.takamatsu.smartcity.medical.Hospital.324","34.343024","134.04412","香川県高松市番町二丁目4-15","無床診療所","高松市","医療法人社団真鍋医院","理事長　真鍋　敏毅","医療法人社団真鍋医院","1993/11/1","087-851-2678","087-851-2676","マナベイイン",,,,"耳鼻咽喉科、気管食道科",,,,"香川県","372013",
"jp.takamatsu.smartcity.medical.Hospital.325","34.342204","134.039039","香川県高松市番町三丁目20-2","無床診療所","高松市","医療法人信眼会まなべ眼科クリニック","理事長　信田　和男","医療法人信眼会","2019/10/1","087-816-5580","087-816-7307","マナベガンカクリニック",,,,"眼科",,,,"香川県","372013","https://www.manabeganka.jp/"
"jp.takamatsu.smartcity.medical.Hospital.326","34.344829","134.051529","香川県高松市大工町1-12","無床診療所","高松市","医療法人社団マヤ内科医院","理事長　栗生　俊紀","医療法人社団マヤ内科医院","2009/10/1","087-821-5230","087-821-5210","マヤナイカイイン",,,,"内科、消化器内科、循環器内科、",,,,"香川県","372013",
"jp.takamatsu.smartcity.medical.Hospital.327","34.340547","134.056146","香川県高松市塩上町二丁目2-6","無床診療所","高松市","医療法人社団哲樹会真弓内科呼吸器科医院","理事長　真弓　哲二","医療法人社団哲樹会","1996/9/1","087-835-2321","087-835-2373","マユミナイカコキュウキカイイン",,,,"内科、呼吸器科、循環器科、糖尿病内科、女性内科、アレルギー科、リウマチ科、皮膚科、美容皮膚科",,,,"香川県","372013","http://www.satokikai.jp/a6427.html"
"jp.takamatsu.smartcity.medical.Hospital.328","34.340911","134.053813","香川県高松市福田町13-3","無床診療所","高松市","医療法人社団研友会真弓皮膚泌尿器科医院","理事長　真弓　研介","医療法人社団研友会","2006/4/18","087-821-3913","087-821-3842","マユミヒフヒニョウキカイイン",,,,"皮膚科、泌尿器科",,,,"香川県","372013","https://www.mayumi-clinic.jp/"
"jp.takamatsu.smartcity.medical.Hospital.329","34.343713","134.050223","香川県高松市丸亀町12-8","無床診療所","高松市","丸亀町アイクリニック",,"平岡　一志","2014/7/14","087-804-0022",,"マルガメマチアイクリニック",,"ラクダやビル2階",,"眼科",,,,"香川県","372013",
"jp.takamatsu.smartcity.medical.Hospital.330","34.343183","134.049773","香川県高松市丸亀町5-9","無床診療所","高松市","丸亀町眼科医院",,"岩田　武","2011/7/1","087-811-5175","087-811-5176","マルガメマチガンカイイン",,"阿波屋ビル2階",,"眼科",,,,"香川県","372013",
"jp.takamatsu.smartcity.medical.Hospital.331","34.345726","134.050233","香川県高松市丸亀町1-1　丸亀町壱番街西館３Ｆ","無床診療所","高松市","丸亀町クリニック","理事長　豊永　慎二","医療法人社団豊永会","2020/4/1","087-802-6360",,"マルガメマチクリニック",,"丸亀町壱番街西館3階",,"内科、循環器内科、リハビリ科、放射線科、整形外科、泌尿器科",,,,"香川県","372013","http://www.marucl.jp/"
"jp.takamatsu.smartcity.medical.Hospital.332","34.298378","134.05318","香川県高松市多肥下町246-1","無床診療所","高松市","まる耳鼻咽喉科","理事長　表原　慶典","医療法人まる耳鼻咽喉科","2021/10/1","087-868-5600",,"マルジビインコウカ",,,,"耳鼻咽喉科",,,,"香川県","372013","http://www.maru-clinic.jp/"
"jp.takamatsu.smartcity.medical.Hospital.333","34.277813","134.068952","香川県高松市三谷町1161-1","無床診療所","高松市","水尾医院",,"水尾　純","2016/4/21","087-899-8620",,"ミズオイイン",,,,"内科、循環器内科",,,,"香川県","372013",
"jp.takamatsu.smartcity.medical.Hospital.334","34.324034","134.079616","香川県高松市木太町3602-1","無床診療所","高松市","医療法人社団光樹会水谷内科クリニック","理事長　コルビン真梨子","医療法人社団光樹会","2001/7/1","087-835-5037","087-835-5036","ミズタニナイカクリニック",,,,"内科、消化器科、肝臓内科",,,,"香川県","372013","http://m-koujyukai.or.jp/http://user.j-connect.net/koujyukai/mizutani"
"jp.takamatsu.smartcity.medical.Hospital.335","34.286501","134.005528","香川県高松市円座町1575-3","無床診療所","高松市","医療法人社団溝口クリニック","理事長　溝口　晶仁","医療法人社団溝口クリニック","1993/6/1","087-886-0824","087-886-0824","ミゾグチクリニック",,,,"内科",,,,"香川県","372013",
"jp.takamatsu.smartcity.medical.Hospital.336","34.295053","134.05255","香川県高松市多肥上町1111-1　多肥メディカル・イーア3F","無床診療所","高松市","みぞて眼科クリニック",,"溝手　雅宣","2016/5/20","087-806-1103","087-806-1105","ミゾテガンカクリニック",,"多肥メディカルビル・イーア3F",,"眼科",,,,"香川県","372013","https://www.mizote-eye.com/"
"jp.takamatsu.smartcity.medical.Hospital.337","34.295053","134.05255","香川県高松市多肥上町1111-1　多肥メディカル・イーア2F","無床診療所","高松市","医療法人社団光心会みつ内科・ハートクリニック","理事長　藤村　光則","医療法人社団光心会","2022/7/1","087-888-3810",,"ミツナイカ・ハートクリニック",,"多肥メディカルビル・イーア2F",,"内科、循環器内科",,,,"香川県","372013","http://www.ihr-medical.net/mitsu/https://hospital.dr-navip.jp/kagawa/facility/1530/"
"jp.takamatsu.smartcity.medical.Hospital.338","34.322917","134.028797","香川県高松市西春日町1111-1","無床診療所","高松市","医療法人ブルームみねやまクリニック","理事長　藤澤　成人","医療法人ブルームみねやまクリニック","2020/10/1","087-865-3387",,"ミネヤマクリニック",,,,"内科、耳鼻咽喉科、皮膚科",,,,"香川県","372013",
"jp.takamatsu.smartcity.medical.Hospital.339","34.339653","134.051331","香川県高松市瓦町二丁目7-16","無床診療所","高松市","みのクリニック",,"三野　進","1995/10/20","087-863-1155","087-863-3306","ミノクリニック",,"ソレイユ第3ビル4F",,"心療内科、精神科、神経内科",,,,"香川県","372013","https://itp.ne.jp/info/378075735178820010/"
"jp.takamatsu.smartcity.medical.Hospital.341","34.292493","134.074574","香川県高松市林町478-1","無床診療所","高松市","みやべ耳鼻咽喉科クリニック","理事長　宮部　和德","医療法人社団M.J.C.晃成会","2017/1/1","087-889-1133",,"ミヤベジビインコウカクリニック",,,,"アレルギー科、耳鼻咽喉科",,,,"香川県","372013","http://www.boxroom1.com/miyabecl/https://itp.ne.jp/info/370855320156461810/"
"jp.takamatsu.smartcity.medical.Hospital.342","34.326577","134.046233","香川県高松市花ノ宮町一丁目12-36","無床診療所","高松市","医療法人社団宮本耳鼻咽喉科医院","理事長　宮本　永祥","医療法人社団宮本耳鼻咽喉科医院","2005/5/1","087-834-0666","087-834-2226","ミヤモトジビインコウカイイン",,,,"耳鼻咽喉科",,,,"香川県","372013","http://www.terra.dti.ne.jp/miyamoto-jibika/"
"jp.takamatsu.smartcity.medical.Hospital.343","34.329596","134.056597","香川県高松市楠上町二丁目3-15　アルファメディカルモール２Ｆ","無床診療所","高松市","医療法人社団みやもとレディースクリニック","理事長　宮本　誠一郎","医療法人社団みやもとレディースクリニック","2013/4/1","087-806-1177","087-806-1178","ミヤモトレディースクリニック",,"アルファメディカルモール2F",,"産科、婦人科",,,,"香川県","372013","http://miyamoto-lc.p-kit.com/"
"jp.takamatsu.smartcity.medical.Hospital.344","34.284165","134.114729","香川県高松市亀田町226-1","有床診療所","高松市","医療法人社団つくし会三好外科胃腸科医院","理事長　三好　恵一","医療法人社団つくし会","2002/4/1","087-847-8888","087-847-8889","ミヨシゲカイチョウカイイン",,,,"胃腸内科、循環器内科、外科、整形外科、こう門外科、リハビリ科",,"19",,"香川県","372013","https://itp.ne.jp/info/378606415400000899/"
"jp.takamatsu.smartcity.medical.Hospital.346","34.276377","134.082341","香川県高松市川島本町431-5","有床診療所","高松市","医療法人社団三好内科医院","理事長　三好　康夫","医療法人社団三好内科医院","1993/4/1","087-848-2288","087-848-4987","ミヨシナイカイイン",,,,"内科、消化器内科、循環器内科、泌尿器科、リハビリテーション科",,"19",,"香川県","372013",
"jp.takamatsu.smartcity.medical.Hospital.347","34.348449","134.064046","香川県高松市朝日町二丁目2-7","無床診療所","高松市","むらかわクリニック",,"村川　直道","2024/4/26","087-823-2525",,"ムラカワクリニック",,"Ｌ-ビルディング2階",,"児童精神科、小児科、リハビリテーション科",,,,"香川県","372013","https://murakawa-clinic.com/"
"jp.takamatsu.smartcity.medical.Hospital.348","34.351377","134.039878","香川県高松市浜ノ町60-65","無床診療所","高松市","むらせ内科クリニック",,"村瀨　知也","2018/12/1","087-813-7333","087-813-7330","ムラセナイカクリニック",,,,"内科、放射線科",,,,"香川県","372013","http://murasenaika.la.coocan.jp/"
"jp.takamatsu.smartcity.medical.Hospital.349","34.341284","134.048846","番町三丁目3-17　プレシャス番町ビル4F","無床診療所","高松市","メディカルカウンセリングルームたなかクリニック",,"田中　和孝","2023/3/1","087-812-5556",,"メディカルカウンセリングルームタナカクリニック",,"Aポイントビル4F",,"心療内科、精神科",,,,"香川県","372013","http://www.tanaka-clinic.jp/"
"jp.takamatsu.smartcity.medical.Hospital.350","34.338438","134.045319","香川県高松市天神前8-14","無床診療所","高松市","医療法人社団森岡皮膚科医院","理事長　森岡　眞治","医療法人社団森岡皮膚科医院","2005/4/1","087-834-1011","087-834-1013","モリオカヒフカイイン",,,,"皮膚科、泌尿器科",,,,"香川県","372013","http://hifumorioka.byoinnavi.jp/pc/"
"jp.takamatsu.smartcity.medical.Hospital.352","34.34007","134.052279","香川県高松市瓦町二丁目3-5","有床診療所","高松市","森産婦人科医院",,"森　信博","2022/11/24","087-831-5513","087-862-2212","モリサンフジンカイイン",,,,"産科・婦人科",,"19",,"香川県","372013","http://morisanfujinka.jp/"
"jp.takamatsu.smartcity.medical.Hospital.353","34.311298","134.061665","香川県高松市松縄町1140-9","無床診療所","高松市","もりした眼科クリニック",,"森下　真実","2018/4/24","087-865-6633",,"モリシタガンカクリニック",,,,"眼科",,,,"香川県","372013","https://morishita-eye.com/"
"jp.takamatsu.smartcity.medical.Hospital.355","34.339925","134.05217","香川県高松市瓦町二丁目6-1","無床診療所","高松市","森下内科医院",,"森下　直也","2012/4/1","087-831-5557","087-831-5524","モリシタナイカイイン",,,,"内科、循環器内科",,,,"香川県","372013","http://www.niji.jp/home/morinao/index.html"
"jp.takamatsu.smartcity.medical.Hospital.356","34.34033","134.10754","香川県高松市高松町2552-2","無床診療所","高松市","医療法人社団英新会屋島みちクリニック","理事長　細江　浩文","医療法人社団英新会","2005/10/1","087-844-3933","087-844-4002","ヤシマミチクリニック",,,,"心療内科、精神科、神経内科",,,,"香川県","372013","https://yashima-michi.com/"
"jp.takamatsu.smartcity.medical.Hospital.357","34.340523","134.110546","香川県高松市高松町3002-13","無床診療所","高松市","医療法人社団屋島眼科クリニック","理事長　小川  哲郎","医療法人社団屋島眼科クリニック","2009/10/1","087-844-1341","087-844-8828","ヤシマガンカクリニック",,,,"眼科",,,,"香川県","372013","https://itp.ne.jp/info/378703950131130520/"
"jp.takamatsu.smartcity.medical.Hospital.359","34.316","134.04707","香川県高松市三条町321-2","無床診療所","高松市","医療法人社団安原クリニック","理事長　松本　由佳","医療法人社団安原クリニック","2000/7/1","087-866-1111","087-867-7871","ヤスハラクリニック",,,,"産科、婦人科、糖尿病内科、代謝内科、腎臓内科、美容外科",,,,"香川県","372013","http://yasuhara-maternity.com/"
"jp.takamatsu.smartcity.medical.Hospital.360","34.304131","134.090592","香川県高松市東山崎町90-6","無床診療所","高松市","医療法人社団安元クリニック","理事長　安元　章浩","医療法人社団安元クリニック","2012/4/1","087-847-1300","087-847-7721","ヤスモトクリニック",,,,"皮膚科、泌尿器科",,,,"香川県","372013","http://www.yasumoto-c.com/"
"jp.takamatsu.smartcity.medical.Hospital.361","34.338533","134.048057","香川県高松市亀井町11-7","無床診療所","高松市","ヤノ肛門外科クリニック",,"矢野　賢二","2008/12/1","087-861-1515","087-861-1516","ヤノコウモンゲカクリニック",,,,"肛門外科",,,,"香川県","372013","http://www.yano-koumonka.com/"
"jp.takamatsu.smartcity.medical.Hospital.362","34.314165","133.999881","香川県高松市飯田町17-5","無床診療所","高松市","矢野皮膚科クリニック",,"矢野　充範","1990/3/12","087-881-5885","087-881-5886","ヤノヒフカクリニック",,,,"アレルギー科、美容外科、皮膚科、美容皮膚科、泌尿器科",,,,"香川県","372013","http://www.yanohifuka.com/"
"jp.takamatsu.smartcity.medical.Hospital.363","34.283403","134.026052","香川県高松市一宮町403-1","無床診療所","高松市","医療法人社団清瞳会山内クリニック","理事長　山内　紀子","医療法人社団清瞳会","1993/5/1","087-886-7082","087-885-7417","ヤマウチクリニック",,,,"内科、消化器科、循環器科、胃腸科、小児科、放射線科",,,,"香川県","372013",
"jp.takamatsu.smartcity.medical.Hospital.364","34.340327","134.045005","香川県高松市天神前5-6","無床診療所","高松市","医療法人社団耕仁会やまぐちクリニック","理事長　山口  耕司","医療法人社団耕仁会やまぐちクリニック","2010/10/1","087-832-5611","087-832-5631","ヤマグチクリニック",,"高松メディカルモール5Ｆ",,"心療内科、精神科",,,,"香川県","372013","https://itp.ne.jp/info/372264155114531680/"
"jp.takamatsu.smartcity.medical.Hospital.365","34.325168","134.092855","香川県高松市春日町799-1","無床診療所","高松市","山崎内科呼吸器科医院",,"山崎　保寛","2005/12/16","087-818-1560","087-818-1555","ヤマサキナイカコキュウキカイイン",,,,"内科、呼吸器科、アレルギー科",,,,"香川県","372013","https://clinic-yamasaki.com/"
"jp.takamatsu.smartcity.medical.Hospital.367","34.307925","133.974301","香川県高松市国分寺町新居3388","無床診療所","高松市","医療法人社団山田医院","理事長　山田　淳智","医療法人社団山田医院","1998/4/1","087-874-0040","087-874-0002","ヤマダイイン",,,,"内科、消化器内科、糖尿病内科",,,,"香川県","372013",
"jp.takamatsu.smartcity.medical.Hospital.368","34.33794","134.0541","香川県高松市塩上町一丁目4番10号","有床診療所","高松市","医療法人社団隆朗会やまもと医院","理事長　山本　良隆","医療法人社団隆朗会","2021/4/16","087-837-0707",,"ヤマモトイイン",,,,"内科、心療内科、精神科",,"1",,"香川県","372013",
"jp.takamatsu.smartcity.medical.Hospital.369","34.322156","134.04552","香川県高松市上之町一丁目3-29","無床診療所","高松市","医療法人社団湯浅クリニック","理事長　湯浅　誠","医療法人社団湯浅クリニック","1995/12/1","087-868-9111","087-868-9222","ユアサクリニック",,,,"内科、皮膚科、泌尿器科",,,,"香川県","372013","http://www.yuasaclinic.jp/"
"jp.takamatsu.smartcity.medical.Hospital.370","34.307427","134.062165","香川県高松市伏石町2150-5","無床診療所","高松市","ゆいメンタルクリニック",,"鈴木　ゆい","2007/7/9","087-897-7277","087-897-7377","ユイメンタルクリニック",,,,"心療内科、精神科",,,,"香川県","372013","http://www.yui-mental-cl.com/index.html"
"jp.takamatsu.smartcity.medical.Hospital.371","34.349573","134.088105","香川県高松市屋島西町2487-21","無床診療所","高松市","湯川クリニック",,"湯川　貴男","2017/5/10","087-813-8270",,"ユカワクリニック",,,,"放射線科",,,,"香川県","372013","http://yukawa.clinic.jp/"
"jp.takamatsu.smartcity.medical.Hospital.372","34.304087","133.944704","香川県高松市国分寺町国分2090-1","無床診療所","高松市","ゆりのき診療室",,"花岡　正憲","2003/5/16","087-874-2217","087-874-2217","ユリノキシンリョウシツ",,,,"精神科",,,,"香川県","372013",
"jp.takamatsu.smartcity.medical.Hospital.373","34.345549","134.050241","香川県高松市丸亀町1-1　丸亀町壱番街西館４Ｆ","無床診療所","高松市","陽子レディースクリニック",,"安藤　陽子","2014/5/15","087-811-6607",,"ヨウコレディースクリニック",,"丸亀町壱番街西館2階",,"女性内科、産婦人科、婦人科",,,,"香川県","372013","http://www.yokoladies.com/"
"jp.takamatsu.smartcity.medical.Hospital.374","34.34816","134.052185","香川県高松市丸の内4-9 丸の内ビル2F","無床診療所","高松市","横井クリニック",,"横井　一郎","1994/6/1","087-821-2212","087-821-2352","ヨコイクリニック",,"丸の内ビル2F",,"内科、胃腸科",,,,"香川県","372013",
"jp.takamatsu.smartcity.medical.Hospital.375","34.323622","134.073243","香川県高松市木太町1663-2","無床診療所","高松市","横井内科医院",,"横井　徹","2009/2/1","087-862-2222","087-833-6846","ヨコイナイカイイン",,,,"内科",,,,"香川県","372013","http://wwwb.pikara.ne.jp/yokoimasa/"
"jp.takamatsu.smartcity.medical.Hospital.376","34.297794","134.055315","香川県高松市多肥下町359-1","無床診療所","高松市","医療法人社団よこい内科クリニック","理事長　横井　健治","医療法人社団よこい内科クリニック","2013/9/1","087-869-4511","087-869-4566","ヨコイナイカクリニック",,,,"内科、消化器内科、循環器内科、糖尿病・代謝内科、内分泌内科",,,,"香川県","372013","http://yokoiclinic.main.jp/"
"jp.takamatsu.smartcity.medical.Hospital.377","34.361609","133.960075","香川県高松市生島町460-1","無床診療所","高松市","医療法人社団横田外科医院","理事長　横田　博","医療法人社団横田外科医院","1999/4/1","087-882-7165","087-870-5098","ヨコタゲカイイン",,,,"外科、麻酔科",,,,"香川県","372013",
"jp.takamatsu.smartcity.medical.Hospital.378","34.298029","133.96249","香川県高松市国分寺町新居1356-1","無床診療所","高松市","医療法人社団優生会吉田眼科","理事長　吉田　慎一","医療法人社団優生会","2013/10/1","087-875-1010",,"ヨシダガンカ",,,,"眼科",,,,"香川県","372013","https://itp.ne.jp/info/372832933123050790/"
"jp.takamatsu.smartcity.medical.Hospital.379","34.305941","134.070802","香川県高松市林町1971-10","無床診療所","高松市","吉田内科医院",,"吉田　恭典","1989/2/3","087-867-0777","087-869-9058","ヨシダナイカイイン",,,,"内科、胃腸科、循環器科",,,,"香川県","372013",
"jp.takamatsu.smartcity.medical.Hospital.380","34.350382","134.047985","香川県高松市西の丸町2-17","無床診療所","高松市","よしまつクリニック",,"吉松　誠","2002/2/5","087-811-7333","087-811-7337","ヨシマツクリニック",,,,"心療内科、精神科、神経内科",,,,"香川県","372013","https://www.yoshimatsu-clinic.jp/"
"jp.takamatsu.smartcity.medical.Hospital.381","34.315576","134.068447","香川県高松市木太町5055-4","無床診療所","高松市","医療法人社団吉村整形外科醫院","理事長　吉村　裕","医療法人社団吉村整形外科醫院","2010/9/1","087-866-6666","087-866-6665","ヨシムラセイケイゲカイイン",,,,"リウマチ科、整形外科、リハビリ科",,,,"香川県","372013","https://www.yoshimura-seikei.com/"
"jp.takamatsu.smartcity.medical.Hospital.382","34.292832","134.000091","香川県高松市円座町375-1","有床診療所","高松市","医療法人よつばウイメンズクリニック","理事長　片山　富博","医療法人よつばウイメンズクリニック","2013/9/1","087-885-4103",,"ヨツバウィメンズクリニック",,,,"産婦人科",,"17",,"香川県","372013","http://yotsuba-w.jp/"
"jp.takamatsu.smartcity.medical.Hospital.383","34.309295","134.055633","香川県高松市伏石町2129-2","無床診療所","高松市","公益財団法人香川県予防医学協会予防協会健康管理センター","理事長　河合　公三","公益財団法人香川県予防医学協会","1995/11/1","087-868-5555","087-868-6650","ヨボウキョウカイケンコウカンリセンター",,,,"内科、婦人科",,,,"香川県","372013","http://www.kagawa-yobouigaku.or.jp/"
"jp.takamatsu.smartcity.medical.Hospital.384","34.336729","134.039705","香川県高松市亀岡町11-10","無床診療所","高松市","医療法人社団宅光会リウマチ・腎臓内科はちまんクリニック","理事長　光中　弘毅","医療法人社団宅光会","1998/2/1","087-862-7878","087-862-7600","リウマチ・ジンゾウナイカハチマンクリニック",,,,"内科、人工透析内科、腎臓内科、リウマチ科",,,,"香川県","372013","http://8man-clinic.com/"
"jp.takamatsu.smartcity.medical.Hospital.385","34.329596","134.056597","香川県高松市楠上町二丁目3-15","無床診療所","高松市","りつりん皮フ科クリニック","理事長　森田　和政","医療法人社団健悠会","2016/5/1","087-813-4112",,"リツリンヒフカクリニック",,"アルファメディカルモール2F",,"皮膚科、美容皮膚科",,,,"香川県","372013","https://ritsurin-d.com/"
"jp.takamatsu.smartcity.medical.Hospital.386","34.339511","134.052208","香川県高松市瓦町二丁目6-14","無床診療所","高松市","リッツ美容外科",,"古屋　富治雄","2001/4/8","087-831-6022","087-831-6224","リッツビヨウゲカ",,"瓦町スクエアビルド6F",,"美容外科",,,,"香川県","372013","http://www.ritz-takamatsu.com/"
"jp.takamatsu.smartcity.medical.Hospital.387","34.298041","134.058367","香川県高松市多肥下町466","無床診療所","高松市","竜雲メンタルクリニック",,"伊庭　永二","1997/5/1","087-840-0735","087-840-0737","リュウウンメンタルクリニック",,,,"心療内科、精神科",,,,"香川県","372013","https://itp.ne.jp/info/378148115400000899/"
"jp.takamatsu.smartcity.medical.Hospital.388","34.293392","134.087622","香川県高松市六条町17-1","無床診療所","高松市","六条眼科",,"田中　剛","2015/12/4","087-873-2735",,"ロクジョウガンカ",,"ハローズ六条店モール内",,"眼科",,,,"香川県","372013","https://www.rokujyo-eye-clinic.jp/"
"jp.takamatsu.smartcity.medical.Hospital.389","34.291787","134.090412","香川県高松市下田井町372-1","無床診療所","高松市","六条ひふ科クリニック",,"印藤　昌彦","2019/2/9","087-802-3906",,"ロクジョウヒフカクリニック",,,,"皮膚科",,,,"香川県","372013","http://rokujo-hifuka.com/"
"jp.takamatsu.smartcity.medical.Hospital.390","34.320711","134.028861","　ｍンｍンんｇｃｆｃｃｙｔｙ６ｔ(*´ε`*)チュッチュＶＹｃ　","無床診療所","高松市","わかばクリニック",,"藤田　博茂","2018/2/15","087-813-7560","087-813-7561","ワカバクリニック",,,,"外科",,,,"香川県","372013","http://wakaba-hado-clinic.com/"
"jp.takamatsu.smartcity.medical.Hospital.391","34.28196","134.0475","香川県高松市仏生山町甲460-8","有床診療所","高松市","医療法人社団わき外科・内科クリニック","理事長　脇　正志","医療法人社団わき外科クリニック","1992/1/1","087-888-5123","087-888-5122","ワキゲカ・ナイカクリニック",,,,"内科、呼吸器内科、胃腸内科、外科、皮膚科、泌尿器科、肛門外科",,"15",,"香川県","372013","http://wakigeka.com/"
"jp.takamatsu.smartcity.medical.Hospital.392","34.31924","134.080367","香川県高松市木太町4020-1","無床診療所","高松市","和田産婦人科医院",,"出口　理恵","2005/1/1","087-867-2340","087-867-2341","ワダサンフジンカイイン",,,,"産科、婦人科",,,,"香川県","372013","https://itp.ne.jp/info/374740915400000899/"
"jp.takamatsu.smartcity.medical.Hospital.393","34.337678","134.010555","香川県高松市鶴市町2039-2","無床診療所","高松市","和田内科循環器科医院",,"和田　茂","1992/11/20","087-881-7575","087-881-7571","ワダナイカジュンカンキカイイン",,,,"内科、循環器科",,,,"香川県","372013",
"jp.takamatsu.smartcity.medical.Hospital.394","34.342765","134.047435","香川県高松市番町一丁目7番22号","無床診療所","高松市","渡邉医院","理事長　渡邉　晴二","医療法人清進会","2020/9/1","087-851-2067",,"ワタナベイイン",,,,"感染症内科、皮膚科、泌尿器科",,,,"香川県","372013","http://www.watanabehifuka.net/"
"jp.takamatsu.smartcity.medical.Hospital.395","34.286105","134.050620","香川県高松市出作町字東原281番地1","無床診療所","高松市","わたなべ耳鼻咽喉科","理事長　渡辺　正博","医療法人社団龍里会","2018/10/11","087-889-8733",,"ワタナベジビインコウカ",,,,"アレルギー科、耳鼻咽喉科",,,,"香川県","372013","https://nabejibi.jp/"
"jp.takamatsu.smartcity.medical.Hospital.396","34.325044","134.057096","香川県高松市今里町一丁目30-21","無床診療所","高松市","わたなべ内科消化器科医院","理事長　渡辺　正博","医療法人社団龍里会","1998/9/1","087-833-6660","087-833-6630","ワタナベナイカショウカキカイイン",,,,"内科、消化器科",,,,"香川県","372013","https://itp.ne.jp/info/378271015400000899/"
"jp.takamatsu.smartcity.medical.Hospital.397","34.312655","134.065933","香川県高松市木太町5095-1","歯科","高松市","あおぞら歯科クリニック",,"三好　智","2005/11/15","087-866-6480","087-866-3353","アオゾラシカクリニック",,,,"歯科、小児歯科、歯科口腔外科",,,,"香川県","372013","http://aozoradentalclinic.fc2web.com/"
"jp.takamatsu.smartcity.medical.Hospital.398","34.345293","134.042822","香川県高松市錦町二丁目17-8","歯科","高松市","赤松歯科医院",,"赤松　秀規","1999/4/1","087-826-6030","087-826-6036","アカマツシカイイン",,,,"歯科、矯正歯科",,,,"香川県","372013","http://www.akamatsushika.com/"
"jp.takamatsu.smartcity.medical.Hospital.399","34.321541","134.062843","香川県高松市松縄町44-7","歯科","高松市","アキ歯科医院",,"安藝　豊司","1982/9/7","087-866-5522","087-866-5538","アキシカイイン",,,,"歯科",,,,"香川県","372013",
"jp.takamatsu.smartcity.medical.Hospital.400","34.287115","134.036366","香川県高松市三名町58-4","歯科","高松市","あさはら歯科",,"朝原　秀樹","2005/9/2","087-889-8211","087-889-8220","アサハラシカ",,,,"歯科、小児歯科",,,,"香川県","372013","https://localplace.jp/t100336737/"
"jp.takamatsu.smartcity.medical.Hospital.401","34.338732","134.044408","香川県高松市天神前6-6","歯科","高松市","医療法人社団ア歯会ア歯科診療所","理事長　松岡　省三","医療法人社団ア歯会","1980/10/1","087-835-5000","087-835-5755","アシカシンダンショ",,,,"歯科、矯正歯科、小児歯科、歯科口腔外科",,,,"香川県","372013","http://www.ashika.or.jp/"
"jp.takamatsu.smartcity.medical.Hospital.402","34.307105","134.043079","香川県高松市太田下町2220-6","歯科","高松市","穴吹歯科医院",,"穴吹　昇三","1987/5/28","087-865-8200","087-865-8200","アナブキシカイイン",,,,"歯科、小児歯科",,,,"香川県","372013","http://www.anabukidental.com/"
"jp.takamatsu.smartcity.medical.Hospital.403","34.333461","134.082714","香川県高松市木太町2836-1","歯科","高松市","阿部歯科医院",,"阿部　康一","1980/3/1","087-834-5314","087-834-5314","アベシカイイン",,,,"歯科",,,,"香川県","372013",
"jp.takamatsu.smartcity.medical.Hospital.404","34.33727","133.996474","香川県高松市鬼無町是竹93-5","歯科","高松市","アヤ歯科医院",,"綾　英紀","1995/5/1","087-881-1211","087-881-1911","アヤシカイイン",,,,"歯科",,,,"香川県","372013","http://www.418takamatu.com/hospital/aya/"
"jp.takamatsu.smartcity.medical.Hospital.405","34.303919","134.090463","香川県高松市東山崎町89-6","歯科","高松市","医療法人社団彩正会あんどう歯科","理事長　安藤　正彦","医療法人社団彩正会あんどう歯科","2016/5/1","087-840-7899","087-840-7898","アンドウシカ",,,,"歯科、矯正歯科、小児歯科、歯科口腔外科",,,,"香川県","372013","http://www2.netwave.or.jp/~m-ando-d/framepage1.htm"
"jp.takamatsu.smartcity.medical.Hospital.406","34.249289","134.026624","香川県高松市香川町川東下1301-4","歯科","高松市","飯田歯科クリニック",,"飯田　大介","2014/11/11","087-814-3300",,"イイダシカクリニック",,,,"歯科",,,,"香川県","372013","https://www.iida-dental.cc/"
"jp.takamatsu.smartcity.medical.Hospital.407","34.283861","134.002358","香川県高松市西山崎町182-7","歯科","高松市","池上歯科医院",,"医療法人社団池上歯科医院","2022/10/1","087-886-6600",,"イケガミシカイイン",,,,"歯科",,,,"香川県","372013",
"jp.takamatsu.smartcity.medical.Hospital.408","34.310795","134.004933","香川県高松市檀紙町2288-3","歯科","高松市","池尻歯科医院",,"池尻　国夫","1999/4/21","087-885-0085","087-886-7590","イケジリシカイイン",,,,"歯科",,,,"香川県","372013",
"jp.takamatsu.smartcity.medical.Hospital.410","34.339084","134.037718","香川県高松市宮脇町一丁目3-17","歯科","高松市","いしい歯科クリニック",,"石井　浩之","1995/9/10","087-863-0088","087-863-0088","イシイシカクリニック",,,,"歯科、小児歯科、歯科口腔外科",,,,"香川県","372013","http://www.ishiishika-clinic.com/"
"jp.takamatsu.smartcity.medical.Hospital.411","34.319429","134.05551","香川県高松市伏石町2018-12","歯科","高松市","石丸歯科医院",,"石丸　毅","2001/7/23","087-815-2747","087-815-2858","イシマルシカイイン",,,,"歯科、小児歯科、歯科口腔外科",,,,"香川県","372013","https://itp.ne.jp/info/374604421153721990/"
"jp.takamatsu.smartcity.medical.Hospital.412","34.327488","134.05146","香川県高松市桜町二丁目4-11","歯科","高松市","医療法人社団愛歯会いそざき歯科","理事長　磯崎　裕騎","医療法人社団愛歯会","2013/4/1","087-832-0777","087-832-0778","イソザキシカ",,,,"歯科、矯正歯科、小児歯科、歯科口腔外科",,,,"香川県","372013","http://www.i-shika.com/"
"jp.takamatsu.smartcity.medical.Hospital.413","34.337788","134.066873","香川県高松市松島町二丁目9-103","歯科","高松市","磯島歯科医院",,"磯島　弘一","2002/5/27","087-834-8686","087-834-8686","イソジマシカイイン",,,,"歯科、小児歯科",,,,"香川県","372013",
"jp.takamatsu.smartcity.medical.Hospital.415","34.329596","134.056597","香川県高松市楠上町二丁目3番15号","歯科","高松市","いちはら歯科クリニック","理事長　市原　雅也","医療法人社団雅月会","2018/10/1","087-813-0118",,"イチハラシカクリニック",,"アルファメディカルモール2F",,"歯科、矯正歯科、小児歯科、歯科口腔外科",,,,"香川県","372013","http://いちはら歯科クリニック.jp/"
"jp.takamatsu.smartcity.medical.Hospital.416","34.287222","134.00607","香川県高松市円座町1124-56","歯科","高松市","医療法人社団イチハラデンタルクリニック","理事長　市原　敏行","医療法人社団イチハラデンタルクリニック","2014/4/1","087-885-1840","087-887-4618","イチハラデンタルクリニック",,,,"歯科、矯正歯科、小児歯科、歯科口腔外科",,,,"香川県","372013","http://www.ichihara-dc.com/index2.html"
"jp.takamatsu.smartcity.medical.Hospital.417","34.334657","134.046258","香川県高松市中野町1-32","歯科","高松市","井手口歯科医院",,"井手口　英章","1991/3/18","087-835-6688","087-835-6742","イデグチシカイイン",,,,"歯科、小児歯科、歯科口腔外科",,,,"香川県","372013","http://www.418takamatu.com/hospital/ideguchi/"
"jp.takamatsu.smartcity.medical.Hospital.418","34.349082","134.038874","香川県高松市浜ノ町9-9","歯科","高松市","伊東歯科矯正歯科医院","理事長　伊東　正志","医療法人社団伊東歯科矯正歯科医院","2023/10/1","087-826-2118",,"イトウシカキョウセイシカイイン",,,,"歯科、矯正歯科、小児歯科",,,,"香川県","372013","http://www.ito-dc.org/"
"jp.takamatsu.smartcity.medical.Hospital.419","34.321655","134.082716","香川県高松市元山町577-1","歯科","高松市","いのうえファミリー歯科","理事長　井上　正朗","医療法人社団いのうえファミリー歯科","2017/8/1","087-867-2554",,"イノウエファミリーシカ",,,,"歯科、矯正歯科、小児歯科、歯科口腔外科",,,,"香川県","372013","http://inouefamilydc.com/"
"jp.takamatsu.smartcity.medical.Hospital.421","34.240002","134.032804","香川県高松市香川町川東上1781-5","歯科","高松市","いのした歯科医院",,"井下　万三","2022/3/1","087-879-4712",,"イノシタシカイイン",,,,"歯科、矯正歯科、小児歯科、歯科口腔外科",,,,"香川県","372013","http://www.inoshita-dc.com/"
"jp.takamatsu.smartcity.medical.Hospital.422","34.316824","134.060144","香川県高松市松縄町1117-5","歯科","高松市","いまじょう矯正歯科クリニック",,"今城　広治","2001/7/3","087-815-2848","087-815-2847","イマジョウキョウセイシカクリニック",,"シブヤビル松縄1F",,"矯正歯科",,,,"香川県","372013","http://imajo-ortho.com/"
"jp.takamatsu.smartcity.medical.Hospital.423","34.299597","134.047507","香川県高松市太田上町783-2","歯科","高松市","今滝歯科医院",,"今瀧　勝己","1996/11/18","087-866-9081","087-865-2268","イマタキシカイイン",,,,"歯科、矯正歯科、小児歯科",,,,"香川県","372013","http://www.imatakishika.com/"
"jp.takamatsu.smartcity.medical.Hospital.424","34.345679","134.054144","香川県高松市片原町4-3","歯科","高松市","今瀧歯科クリニック",,"今瀧　昇","1994/3/28","087-821-5154","087-821-5154","イマタキシカクリニック",,,,"歯科、小児歯科、歯科口腔外科",,,,"香川県","372013",
"jp.takamatsu.smartcity.medical.Hospital.425","34.350528","134.038211","香川県高松市浜ノ町56-8","歯科","高松市","岩田歯科医院",,"岩田　哲郎","2009/2/1","087-897-5646","087-897-5646","イワタシカイイン",,,,"歯科、小児歯科、歯科口腔外科",,,,"香川県","372013","https://iwata-dc2009.com/"
"jp.takamatsu.smartcity.medical.Hospital.426","34.311371","134.058468","香川県高松市伏石町2096-4","歯科","高松市","上里歯科医院",,"山岸　奈名","2009/2/28","087-867-6480","087-867-6485","ウエサトシカイイン",,,,"歯科、小児歯科、歯科口腔外科",,,,"香川県","372013",
"jp.takamatsu.smartcity.medical.Hospital.427","34.334353","134.065626","香川県高松市上福岡町704-2","歯科","高松市","医療法人社団植田歯科医院","理事長　植田　佳邦","医療法人社団植田歯科医院","1990/2/1","087-834-3718","087-834-3718","ウエダシカイイン",,"池添ビル2Ｆ",,"歯科、矯正歯科、小児歯科、歯科口腔外科",,,,"香川県","372013","http://www.ueta-dc.com/"
"jp.takamatsu.smartcity.medical.Hospital.428","34.321259","134.046694","香川県高松市上之町二丁目1-37","歯科","高松市","植松歯科クリニック",,"植松　勇介","2017/7/15","087-802-8241",,"ウエマツシカクリニック",,,,"歯科、小児歯科、歯科口腔外科",,,,"香川県","372013","https://uematsu-d.jp/"
"jp.takamatsu.smartcity.medical.Hospital.429","34.304024","133.972683","香川県高松市国分寺町新居283-1","歯科","高松市","ウガワ歯科クリニック",,"鵜川　祐樹","2018/9/13","087-802-8684",,"ウガワシカクリニック",,,,"歯科、矯正歯科、小児歯科、歯科口腔外科",,,,"香川県","372013","https://www.e8148.net/dental/a000000017"
"jp.takamatsu.smartcity.medical.Hospital.430","34.345971","134.001093","香川県高松市香西本町150-10","歯科","高松市","浮田歯科医院",,"中山　真弓","1999/7/8","087-832-8801","087-832-8821","ウキダシカイイン",,,,"歯科、矯正歯科、小児歯科、歯科口腔外科",,,,"香川県","372013","http://www.ukita-dental.jp/"
"jp.takamatsu.smartcity.medical.Hospital.431","34.273044","134.086751","香川県高松市川島東町958-3","歯科","高松市","梅村歯科医院",,"梅村　謙二","1982/11/1","087-848-1136","087-848-1136","ウメムラシカイイン",,,,"歯科、矯正歯科",,,,"香川県","372013","http://www.418takamatu.com/hospital/umemura/"
"jp.takamatsu.smartcity.medical.Hospital.432","34.302015","134.070643","香川県高松市林町2572-12","歯科","高松市","えがお歯科","理事長　木村　栄作","医療法人社団えがお歯科","2002/11/1","087-840-0777","087-840-0707","エガオシカ",,,,"歯科、矯正歯科、小児歯科、歯科口腔外科",,,,"香川県","372013","https://egao-shika.com/"
"jp.takamatsu.smartcity.medical.Hospital.433","34.278671","134.025097","香川県高松市寺井町1248-6","歯科","高松市","エビヌマ歯科医院",,"海老沼　孝至","2021/4/1","087-886-3465","087-886-3465","エビヌマシカイイン",,,,"歯科",,,,"香川県","372013",
"jp.takamatsu.smartcity.medical.Hospital.434","34.33566","134.057298","香川県高松市観光通二丁目9-12","歯科","高松市","大石歯科クリニック",,"大石　慶二","2016/4/21","087-813-3956",,"オオイシシカクリニック",,,,"歯科、歯科口腔外科",,,,"香川県","372013",
"jp.takamatsu.smartcity.medical.Hospital.435","34.332456","134.054974","香川県高松市花園町三丁目2-12","歯科","高松市","おおくま歯科医院","理事長　大熊　秀和","医療法人社団おおくま歯科医院","2023/6/1","087-837-9000",,"オオクマシカイイン",,,,"歯科、小児歯科",,,,"香川県","372013","http://ookumashika.com/"
"jp.takamatsu.smartcity.medical.Hospital.436","34.341219","134.11302","香川県高松市高松町2412-15","歯科","高松市","大黒歯科医院",,"大黒　義明","1985/7/29","087-841-3500","087-841-3500","オオグロシカイイン",,,,"歯科",,,,"香川県","372013",
"jp.takamatsu.smartcity.medical.Hospital.437","34.30533","134.069034","香川県高松市林町2538-10","歯科","高松市","医療法人優心会高松大塚歯科医院","理事長　大塚　秀人","医療法人優心会","2013/6/1","087-815-2424",,"オオツカシカイイン",,,,"歯科",,,,"香川県","372013","http://www.yusinkai.or.jp/clinic_03.html"
"jp.takamatsu.smartcity.medical.Hospital.438","34.269038","133.984798","香川県高松市国分寺町福家乙214-10","歯科","高松市","大西歯科医院","理事長　大西　吉之","医療法人社団ひまわり会","1993/2/1","087-874-1194","087-874-5432","オオニシシカイイン",,,,"歯科、小児歯科、歯科口腔外科",,,,"香川県","372013","https://www.ohnishi-dental-777.jp/"
"jp.takamatsu.smartcity.medical.Hospital.439","34.304151","134.015525","香川県高松市成合町725-1","歯科","高松市","岡田歯科醫院","理事長　岡田　寿朗","医療法人社団岡田歯科醫院","1998/10/1","087-885-9700","087-885-9300","オカダシカイイン",,,,"歯科、矯正歯科、小児歯科、歯科口腔外科",,,,"香川県","372013","https://itp.ne.jp/info/374941525400000899/"
"jp.takamatsu.smartcity.medical.Hospital.440","34.337684","134.109061","香川県高松市高松町91","歯科","高松市","小河歯科医院",,"小河　隆太","1997/8/15","087-841-7170","087-841-7170","オゴシカカイイン",,,,"歯科、小児歯科",,,,"香川県","372013","http://wwwb.pikara.ne.jp/ogoshikaiin/https://itp.ne.jp/info/379254215400000899/"
"jp.takamatsu.smartcity.medical.Hospital.441","34.291618","134.039743","香川県高松市太田上町212-5","歯科","高松市","おぐら歯科医院",,"小倉　寛治","1979/3/1","087-888-0222","087-888-0222","オグラシカイイン",,,,"歯科、小児歯科",,,,"香川県","372013",
"jp.takamatsu.smartcity.medical.Hospital.442","34.33823","134.04781","香川県高松市中新町2-1","歯科","高松市","小倉歯科医院",,"小倉　喜博","1979/4/1","087-831-5059","087-831-5059","オグラシカイイン",,,,"歯科",,,,"香川県","372013",
"jp.takamatsu.smartcity.medical.Hospital.443","34.284034","134.027925","香川県高松市一宮町328-1","歯科","高松市","医療法人社団小野歯科医院","理事長　小野　耕資","医療法人社団小野歯科医院","2020/4/1","087-886-8100",,"オノシカイイン",,,,"歯科、小児歯科",,,,"香川県","372013",
"jp.takamatsu.smartcity.medical.Hospital.444","34.338179","134.049349","香川県高松市田町13-13","歯科","高松市","オリーブ歯科医院",,"天野　伊知郎","2003/3/1","087-832-0808","087-832-0888","オリーブシカイイン",,,,"歯科、小児歯科",,,,"香川県","372013","https://itp.ne.jp/info/374642053126331040/"
"jp.takamatsu.smartcity.medical.Hospital.445","34.342254","134.038539","香川県高松市番町三丁目20-15","歯科","高松市","香川大学前はこざき歯科医院","理事長　箱崎　達司","医療法人社団F＆C","1990/6/1","087-813-0418","087-813-0830","カガワダイガクマエハコザキシカイイン",,,,"歯科、矯正歯科、小児歯科、歯科口腔外科",,,,"香川県","372013","http://takamatsu418.com/"
"jp.takamatsu.smartcity.medical.Hospital.446","34.263447","134.030569","香川県高松市香川町大野149-1","歯科","高松市","かさいデンタルクリニック",,"笠井　真一","2010/5/6","087-813-8217",,"カサイデンタルクリニック",,,,"歯科、矯正歯科、小児歯科、歯科口腔外科",,,,"香川県","372013","http://kdc2010.jp/"
"jp.takamatsu.smartcity.medical.Hospital.447","34.319838","134.071983","香川県高松市木太町1245-1","歯科","高松市","樫デンタルクリニック",,"樫　圭一","2010/6/2","087-813-8461","087-866-0418","カシデンタルクリニック",,,,"歯科、小児歯科",,,,"香川県","372013","http://www.kashi-dc.com/"
"jp.takamatsu.smartcity.medical.Hospital.448","34.338465","134.089901","香川県高松市春日町1643-9","歯科","高松市","春日歯科クリニック",,"豊島　泰介","1990/5/14","087-843-4181","087-843-4181","カスガシカクリニック",,,,"歯科、矯正歯科、小児歯科",,,,"香川県","372013","http://www.418takamatu.com/hospital/kasuga/"
"jp.takamatsu.smartcity.medical.Hospital.449","34.345033","134.0497","香川県高松市磨屋町1-1","歯科","高松市","金倉歯科医院",,"金倉　圭一","1993/1/4","087-826-2223","087-823-0115","カネクラシカイイン",,,,"歯科、小児歯科",,,,"香川県","372013",
"jp.takamatsu.smartcity.medical.Hospital.450","34.337635","134.036571","香川県高松市宮脇町一丁目32-25","歯科","高松市","神原歯科医院",,"神原　圭","2021/6/1","087-834-4102","087-834-4102","カンバラシカイイン",,,,"歯科、小児歯科、歯科口腔外科",,,,"香川県","372013",
"jp.takamatsu.smartcity.medical.Hospital.451","34.3223","134.068352","香川県高松市木太町1145-1","歯科","高松市","かみやま歯科医院",,"神山　拓也","2010/6/15","087-835-6480","087-835-6483","カミヤマシカイイン",,"新和開発ビル１F",,"歯科、小児歯科、歯科口腔外科",,,,"香川県","372013","http://www.kamiyama-dent.com/"
"jp.takamatsu.smartcity.medical.Hospital.452","34.340212","134.045634","香川県高松市天神前4-33","歯科","高松市","亀井歯科医院",,"亀井　稔之","2013/4/8","087-831-6891","087-831-6878","カメイシカイイン",,,,"歯科、小児歯科",,,,"香川県","372013","http://kamei-dent.jp/"
"jp.takamatsu.smartcity.medical.Hospital.453","34.346886","134.041927","香川県高松市錦町二丁目7-8","歯科","高松市","亀田歯科医院",,"亀田　好司","2003/9/1","087-821-7619","087-821-7621","カメダシカイイン",,,,"歯科、矯正歯科、小児歯科、歯科口腔外科",,,,"香川県","372013","https://www.kamedashika.com/"
"jp.takamatsu.smartcity.medical.Hospital.455","34.344654","134.046366","香川県高松市番町一丁目3-30","歯科","高松市","川上矯正歯科医院","理事長　中村　恵実","医療法人昭和会","2012/10/1","087-822-4888","087-826-0529","カワカミキョウセイシカイイン",,,,"歯科、矯正歯科",,,,"香川県","372013","https://www.e-kawakami.jp/"
"jp.takamatsu.smartcity.medical.Hospital.456","34.290825","134.008479","香川県高松市円座町522","歯科","高松市","河北歯科医院",,"池内　孝芳","1988/4/1","087-885-2436","087-885-2436","カワキタシカイイン",,,,"歯科",,,,"香川県","372013",
"jp.takamatsu.smartcity.medical.Hospital.457","34.303159","133.95577","香川県高松市国分寺町国分294-7","歯科","高松市","川﨑歯科医院",,"川﨑　恵美子","1977/3/1","087-874-2363","087-874-2363","カワサキシカイイン",,,,"歯科",,,,"香川県","372013",
"jp.takamatsu.smartcity.medical.Hospital.458","34.346472","134.037067","香川県高松市扇町一丁目22-12","歯科","高松市","川西歯科医院",,"川西　英三","1991/4/1","087-821-1080","087-821-1080","カワニシシカイイン",,,,"歯科、矯正歯科、小児歯科",,,,"香川県","372013","http://www.kawanishi-dental.com/"
"jp.takamatsu.smartcity.medical.Hospital.459","34.335818","134.097384","香川県高松市新田町甲3-8","歯科","高松市","医療法人社団かわにし歯科クリニック","理事長　川西　毅","医療法人社団かわにし歯科クリニック","2017/9/1","087-870-0444","087-870-0445","カワニシシカクリニック",,,,"歯科、小児歯科",,,,"香川県","372013","http://www.418takamatu.com/hospital/kawanishi/"
"jp.takamatsu.smartcity.medical.Hospital.460","34.33983","134.052159","香川県高松市瓦町二丁目6-21","歯科","高松市","瓦町矯正歯科",,"高橋　巧","2009/7/5","087-834-4187","087-834-4187","カワラマチキョウセイシカ",,"ラ・ブームビル2F",,"矯正歯科",,,,"香川県","372013","https://www.kawaramachi-ortho.com/"
"jp.takamatsu.smartcity.medical.Hospital.461","34.284922","134.048232","香川県高松市出作町383-1","歯科","高松市","きくしま歯科医院",,"菊島　将臣","2006/7/1","087-889-1182","087-889-1182","キクシマシカイイン",,,,"歯科、小児歯科",,,,"香川県","372013","http://kikushimadental.net/"
"jp.takamatsu.smartcity.medical.Hospital.462","34.336247","134.040099","香川県高松市亀岡町14-18","歯科","高松市","北岡歯科診療所",,"亀井　智子","2009/1/1","087-862-5549","087-862-5549","キタオカシカシンリョウジョ",,,,"歯科",,,,"香川県","372013",
"jp.takamatsu.smartcity.medical.Hospital.463","34.270383","134.009785","香川県高松市川部町460-6","歯科","高松市","木田歯科医院",,"木田　一秀","1987/1/5","087-885-1500","087-885-6635","キダシカイイン",,,,"歯科、小児歯科",,,,"香川県","372013",
"jp.takamatsu.smartcity.medical.Hospital.464","34.325427","134.071484","香川県高松市木太町1837-5","歯科","高松市","木太デンタルクリニック",,"山下　智弘","2019/4/11","087-862-1461",,"キタデンタルクリニック",,,,"歯科、小児歯科",,,,"香川県","372013",
"jp.takamatsu.smartcity.medical.Hospital.465","34.321753","134.079059","香川県高松市木太町3868","歯科","高松市","木太東歯科",,"梶本　淳也","2012/4/20","070-5514-3869",,"キタヒガシシカ",,,,"歯科",,,,"香川県","372013","http://khmed.grupo.jp/"
"jp.takamatsu.smartcity.medical.Hospital.466","34.311422","134.072107","香川県高松市木太町9区466-6","歯科","高松市","木村歯科医院",,"木村　元厚","1990/6/11","087-865-7788","087-866-8811","キムラシカイイン",,,,"歯科、矯正歯科、小児歯科",,,,"香川県","372013",
"jp.takamatsu.smartcity.medical.Hospital.467","34.286233","134.000754","香川県高松市中間町川向22-1","歯科","高松市","くにしげ歯科医院",,"国重　俊郎","2002/10/1","087-885-8801","087-885-8850","クニシゲシカイイン",,,,"歯科、小児歯科、歯科口腔外科",,,,"香川県","372013","http://www.418takamatu.com/hospital/kunishige/"
"jp.takamatsu.smartcity.medical.Hospital.468","34.341545","134.095505","香川県高松市屋島西町1454-1","歯科","高松市","医療法人社団久保歯科医院","理事長　久保　謙二","医療法人社団久保歯科医院","2004/9/1","087-843-3001","087-843-3096","クボシカイイン",,,,"歯科、矯正歯科、小児歯科",,,,"香川県","372013","https://itp.ne.jp/info/376722040154921380/"
"jp.takamatsu.smartcity.medical.Hospital.469","34.312452","134.083039","香川県高松市元山町1163-12","歯科","高松市","久保歯科クリニック","理事長　久保　和子","医療法人社団里春会","1994/6/15","087-865-6600","087-865-6600","クボシカクリニック",,,,"歯科、矯正歯科、小児歯科",,,,"香川県","372013",
"jp.takamatsu.smartcity.medical.Hospital.470","34.326976","134.057552","香川県高松市今里町一丁目8-19","歯科","高松市","医療法人社団こう歯科医院","理事長　髙　孝輝","医療法人社団こう歯科医院","2002/11/1","087-832-2525","087-832-2525","コウシカイイン",,,,"歯科、小児歯科、歯科口腔外科",,,,"香川県","372013",
"jp.takamatsu.smartcity.medical.Hospital.471","34.286552","134.112636","香川県高松市亀田町438-12","歯科","高松市","こうじ歯科クリニック",,"木村　幸司","2000/8/1","087-847-4874","087-847-4874","コウジシカクリニック",,,,"歯科、小児歯科",,,,"香川県","372013","http://www.kojidental.com/"
"jp.takamatsu.smartcity.medical.Hospital.472","34.342919","134.055731","香川県高松市築地町5-1","歯科","高松市","医療法人社団湖﨑歯科クリニック","理事長　湖﨑　武秀","医療法人社団湖﨑歯科クリニック","1990/1/1","087-821-6949","087-823-2817","コサキシカクリニック",,,,"歯科、矯正歯科、歯科口腔外科",,,,"香川県","372013","https://itp.ne.jp/info/371063705400000899/"
"jp.takamatsu.smartcity.medical.Hospital.473","34.339629","134.051472","香川県高松市瓦町二丁目7-14","歯科","高松市","小谷歯科医院",,"種田　博道","2022/9/5","087-834-2393",,"コタニシカイイン",,,,"歯科、小児歯科",,,,"香川県","372013",
"jp.takamatsu.smartcity.medical.Hospital.474","34.337387","134.140568","香川県高松市牟礼町牟礼3-1","歯科","高松市","小西歯科医院","理事長　小西　賢二","医療法人社団小西歯科医院","2019/4/1","087-845-3535","087-845-5250","コニシシカイイン",,,,"歯科、矯正歯科、小児歯科、歯科口腔外科",,,,"香川県","372013","http://www.konishishika.net/"
"jp.takamatsu.smartcity.medical.Hospital.475","34.302917","134.052734","香川県高松市太田下町3035-7","歯科","高松市","こばやし歯科・小児歯科クリニック","理事長　小林　弘茂","医療法人スマイルデザイン","2009/12/1","087-867-8228","087-867-8228","コバヤシシカ・ショウニシカクリニック",,,,"歯科、矯正歯科、小児歯科、歯科口腔外科",,,,"香川県","372013","http://www.pikapika-teeth.com/"
"jp.takamatsu.smartcity.medical.Hospital.476","34.28963","133.961453","香川県高松市国分寺町新名字南川向694-1","歯科","高松市","医療法人社団桜樹会こまつ歯科クリニック","理事長　小松　弘明","医療法人社団桜樹会こまつ歯科クリニック","2022/10/1","087-899-6722",,"コマツシカクリニック",,,,"歯科、矯正歯科、小児歯科、歯科口腔外科",,,,"香川県","372013","https://dental-clinic.dr-navip.jp/kagawa/facility/1586/"
"jp.takamatsu.smartcity.medical.Hospital.477","34.327","133.9951","香川県高松市鬼無町藤井59-5","歯科","高松市","小山歯科医院",,"小山　力","2019/11/1","087-882-1711",,"コヤマシカイイン",,,,"歯科",,,,"香川県","372013","http://koyamadc.com/"
"jp.takamatsu.smartcity.medical.Hospital.478","34.340327","134.045005","香川県高松市天神前5-6","歯科","高松市","さいとう歯科クリニック",,"齋藤　隆司","2004/10/4","087-835-1117","087-835-1117","サイトウシカクリニック",,"高松メディカルモール5Ｆ",,"歯科、矯正歯科、小児歯科、歯科口腔外科",,,,"香川県","372013","http://www.saito-d.com/"
"jp.takamatsu.smartcity.medical.Hospital.479","34.340296","134.048166","香川県高松市亀井町8-4","歯科","高松市","医療法人社団聖ステラマリス会三枝デンタルオフィス","理事長　三枝　尚登","医療法人社団聖ステラマリス会三枝デンタルオフィス","2024/2/20","087-833-5008","087-833-5068","サエグサデンタルオフィス",,"高松インプラントセンタービル2F",,"歯科",,,,"香川県","372013","http://www.saegusa-dent.com/"
"jp.takamatsu.smartcity.medical.Hospital.480","34.264082","134.026326","香川県高松市香川町大野860-3","歯科","高松市","さくら歯科医院","理事長　中根　高信","医療法人社団健進会","2014/10/1","087-885-4618",,"サクラシカイイン",,,,"歯科、矯正歯科、小児歯科、歯科口腔外科",,,,"香川県","372013",
"jp.takamatsu.smartcity.medical.Hospital.481","34.276505","134.084779","香川県高松市川島本町189-1","歯科","高松市","佐々木歯科医院",,"佐々木　正美","1976/1/1","087-848-0142","087-848-0142","ササキシカイイン",,,,"歯科",,,,"香川県","372013",
"jp.takamatsu.smartcity.medical.Hospital.482","34.308615","134.018931","香川県高松市勅使町536-2","歯科","高松市","サナダ歯科",,"真田　晋作","1996/6/5","087-840-0648","087-840-0645","サナダシカイイン",,,,"歯科、小児歯科",,,,"香川県","372013",
"jp.takamatsu.smartcity.medical.Hospital.483","34.352625","134.004934","香川県高松市香西本町1-1","歯科","高松市","医療法人社団弘誠会サンクリーン歯科","理事長　松原　弘樹","医療法人社団弘誠会","2007/4/2","087-882-8241","087-882-8241","サンクリーンシカ",,"イオン高松SC3F",,"歯科、矯正歯科、小児歯科、歯科口腔外科",,,,"香川県","372013","http://www.sunclean-shika.com/"
"jp.takamatsu.smartcity.medical.Hospital.484","34.300498","134.051824","香川県高松市多肥下町1562-15","歯科","高松市","医療法人社団弘誠会サンシャイン歯科","理事長　松原　弘樹","医療法人社団弘誠会","2005/11/4","087-815-0118","087-815-0117","サンシャインシカ",,,,"歯科、矯正歯科、小児歯科、歯科口腔外科",,,,"香川県","372013","http://sunshine-shika.com/"
"jp.takamatsu.smartcity.medical.Hospital.485","34.350131","134.041415","香川県高松市浜ノ町63-2","歯科","高松市","サンポート歯科","理事長　吉田　淳一","医療法人社団ジュンアートアンドサイエンス","2005/10/1","087-851-5545","087-851-5545","サンポートシカ",,,,"歯科、矯正歯科、小児歯科、歯科口腔外科",,,,"香川県","372013","http://www.jun-dc.com/"
"jp.takamatsu.smartcity.medical.Hospital.486","34.341319","134.000112","香川県高松市香西南町472","歯科","高松市","塩井歯科医院",,"塩井　正志","1993/4/20","087-881-6626","087-881-6626","シオイシカイイン",,"2F",,"歯科、小児歯科",,,,"香川県","372013",
"jp.takamatsu.smartcity.medical.Hospital.487","34.343808","134.131726","香川県高松市牟礼町牟礼1033-1","歯科","高松市","渋谷歯科医院",,"渋谷　敦人","2016/4/1","087-845-9506","087-845-9509","シブヤシカイイン",,,,"歯科、矯正歯科、小児歯科、歯科口腔外科",,,,"香川県","372013","https://itp.ne.jp/info/371471206189331290/"
"jp.takamatsu.smartcity.medical.Hospital.488","34.322162","134.059454","香川県高松市松縄町51-18","歯科","高松市","シミズ歯科医院",,"清水　延哲","1993/4/1","087-867-0046","087-867-0811","シミズシカイイン",,,,"歯科、矯正歯科、小児歯科",,,,"香川県","372013","http://www.418takamatu.com/hospital/shimizu/"
"jp.takamatsu.smartcity.medical.Hospital.489","34.313356","134.083145","香川県高松市元山町1192-1","歯科","高松市","しもむら歯科医院","理事長　下村　隼人","医療法人社団駿陽花","2021/4/1","087-805-7308",,"シモムラシカイイン",,,,"歯科",,,,"香川県","372013",
"jp.takamatsu.smartcity.medical.Hospital.490","34.282051","133.963562","香川県高松市国分寺町福家甲2919-5","歯科","高松市","しもよこ歯科",,"下横　輝雄","1998/10/2","087-874-5677",,"シモヨコシカ",,,,"歯科、矯正歯科",,,,"香川県","372013","https://itp.ne.jp/info/378711125400000899/"
"jp.takamatsu.smartcity.medical.Hospital.491","34.33404","134.058403","香川県高松市花園町一丁目10-45","歯科","高松市","医療法人社団宿南歯科医院","理事長　竹山　俊介","医療法人社団宿南歯科医院","2001/9/1","087-834-5580","087-834-5580","シュクナミシマイイン",,,,"歯科",,,,"香川県","372013","http://takamatsu-sika.com/"
"jp.takamatsu.smartcity.medical.Hospital.492","34.33732","134.051315","香川県高松市常磐町二丁目8-10","歯科","高松市","ＪＵＮ歯科クリニック","理事長　吉田　淳一","医療法人社団ジュンアートアンドサイエンス","2010/5/27","087-813-2123","087-823-1320","ジュンシカクリニック",,,,"歯科、小児歯科、歯科口腔外科",,,,"香川県","372013","http://www.jun-dc.com/"
"jp.takamatsu.smartcity.medical.Hospital.493","34.330856","134.158","香川県高松市牟礼町原594-1","歯科","高松市","医療法人社団しん治歯科医院","理事長　髙橋　伸治","医療法人社団しん治歯科医院","2016/3/1","087-845-6644","087-845-3223","シンジシカイイン",,,,"歯科、矯正歯科、小児歯科",,,,"香川県","372013","http://shinji-shika.jp/"
"jp.takamatsu.smartcity.medical.Hospital.495","34.338458","134.04889","香川県高松市田町1-2","歯科","高松市","医療法人社団スガタ歯科医院","理事長　菅田　貴志","医療法人社団スガタ歯科医院","2003/9/1","087-835-1001","087-835-1002","スガタシカイイン",,,,"歯科、矯正歯科、小児歯科、歯科口腔外科",,,,"香川県","372013","https://www.sugata-shika.com/"
"jp.takamatsu.smartcity.medical.Hospital.496","34.272663","133.988817","香川県高松市岡本町1674-3","歯科","高松市","すまいる歯科・矯正歯科","理事長　金岡　和博","医療法人青空会","2021/10/1","087-814-4111",,"スマイルシカイイン・キョウセイシカイイン",,,,"歯科、矯正歯科、小児歯科、歯科口腔外科",,,,"香川県","372013","https://haisha-yoyaku.jp/bun2sdental/detail/index/id/3730135633/"
"jp.takamatsu.smartcity.medical.Hospital.497","34.342196","134.03168","香川県高松市昭和町二丁目15-1","歯科","高松市","すみたに歯科・矯正歯科医院",,"住谷　光治","2004/3/11","087-831-7080","087-831-7080","スミタニシカ・キョウセイシカイイン",,,,"歯科、矯正歯科、小児歯科",,,,"香川県","372013","https://www.sumitani.net/"
"jp.takamatsu.smartcity.medical.Hospital.498","34.244612","134.031221","香川県高松市香川町川東下644-1","歯科","高松市","諏訪歯科医院",,"諏訪　一昭","2006/4/24","087-879-7746","087-879-7746","スワシカイイン",,,,"歯科、小児歯科",,,,"香川県","372013",
"jp.takamatsu.smartcity.medical.Hospital.499","34.331746","134.046753","香川県高松市栗林町一丁目3-24","歯科","高松市","生協へいわ歯科診療所","理事長　北原　孝夫","香川医療生活協同組合","1994/4/11","087-837-6480",,"セイキョウヘイワシカシンリョウジョ",,,,"歯科、小児歯科",,,,"香川県","372013","https://kagawa.coop/sika/4580"
"jp.takamatsu.smartcity.medical.Hospital.500","34.320403","134.049922","香川県高松市上之町三丁目9-28","歯科","高松市","関元歯科医院",,"関元　直登","1987/3/11","087-867-7431","087-867-7431","セキモトシカイイン",,,,"歯科、小児歯科、歯科口腔外科",,,,"香川県","372013","http://www.swjo.jp/dental-sekimoto/"
"jp.takamatsu.smartcity.medical.Hospital.501","34.274522","134.109204","香川県高松市十川西町180-3","歯科","高松市","そごう歯科医院",,"十河　陽治","1991/3/19","087-848-3200","087-848-5777","ソゴウシカイイン",,,,"歯科、小児歯科",,,,"香川県","372013","http://www.418takamatu.com/hospital/sogou/"
"jp.takamatsu.smartcity.medical.Hospital.502","34.30651","133.990193","香川県高松市御厩町476","歯科","高松市","高田歯科口腔外科医院",,"髙田　匡基","2017/10/10","087-886-4600",,"タカダシカコウクウゲカイイン",,,,"歯科、矯正歯科、歯科口腔外科",,,,"香川県","372013","https://dental-clinic.dr-navip.jp/kagawa/facility/4001/https://localplace.jp/t100343595/"
"jp.takamatsu.smartcity.medical.Hospital.503","34.342203","134.040627","香川県高松市番町三丁目15-21","歯科","高松市","高橋歯科医院",,"高橋　博之","1983/8/1","087-833-3328","087-833-3375","タカハシシカイイン",,,,"歯科、小児歯科、歯科口腔外科",,,,"香川県","372013",
"jp.takamatsu.smartcity.medical.Hospital.504","34.33771","134.05404","香川県高松市塩上町一丁目5-3","歯科","高松市","高橋歯科医院",,"髙橋　利之","2001/6/27","087-833-5564","087-833-5764","タカハシシカイイン",,,,"歯科、小児歯科",,,,"香川県","372013",
"jp.takamatsu.smartcity.medical.Hospital.505","34.348073","134.047595","香川県高松市西内町1-6","歯科","高松市","高松駅前アルファ歯科クリニック","理事長　池田　耕士","医療法人アルファ","2016/4/1","087-821-2418",,"タカマツエキマエアルファシカクリニック",,"アルファリビング高松駅前1階",,"歯科、小児歯科、歯科口腔外科",,,,"香川県","372013","https://www.a-dental.info/"
"jp.takamatsu.smartcity.medical.Hospital.506","34.341028","134.054997","香川県高松市塩屋町11-16","歯科","高松市","高松歯科口腔外科クリニック",,"細江　美知","2009/8/21","087-813-1666","087-813-1667","タカマツシカコウクウゲカクリニック",,,,"歯科、口腔外科",,,,"香川県","372013","http://www.oms-center.com/"
"jp.takamatsu.smartcity.medical.Hospital.507","34.344825","134.074508","香川県高松市福岡町三丁目36-23","歯科","高松市","高松歯科診療所","会長　今城　広治","公益社団法人高松市歯科医師会","1980/5/1","087-851-1167",,"タカマツシカシンリョウジョ",,,,"歯科",,,,"香川県","372013","http://www.418takamatu.com/"
"jp.takamatsu.smartcity.medical.Hospital.508","34.327023","134.093562","香川県高松市春日町812-1","歯科","高松市","たかまつファミリー歯科医院","理事長　髙松　昇一郎","医療法人高志会","2022/4/1","087-813-8788","087-813-8876","タカマツファミリーシカイイン",,,,"歯科、矯正歯科、小児歯科、歯科口腔外科",,,,"香川県","372013","https://www.takamatsu-fdc.com/"
"jp.takamatsu.smartcity.medical.Hospital.509","34.335771","134.044502","香川県高松市中央町16-17","歯科","高松市","たけい歯科クリニック",,"武井　延哲","2000/1/4","087-862-5482","087-862-5482","タケイシカクリニック",,"西村会計事務所ビル2F",,"歯科、小児歯科、歯科口腔外科",,,,"香川県","372013","http://www.takei-shika.com/"
"jp.takamatsu.smartcity.medical.Hospital.510","34.352408","134.046631","香川県高松市サンポート2-1","歯科","高松市","武田歯科医院",,"武田　聡史","2015/8/18","087-822-0972","087-822-8022","タケダシカイイン",,"シンボルタワービジネススクウェア9F",,"歯科",,,,"香川県","372013","http://www.sunport-takeda.com/"
"jp.takamatsu.smartcity.medical.Hospital.511","34.335662","134.139889","香川県高松市牟礼町大町1550-10","歯科","高松市","たけま歯科医院",,"竹間　和重","1999/10/1","087-870-1360","087-870-1360","タケマシカイイン",,,,"歯科、小児歯科",,,,"香川県","372013",
"jp.takamatsu.smartcity.medical.Hospital.512","34.316661","134.073372","香川県高松市木太町792-6","歯科","高松市","多田歯科医院",,"多田　彰仁","2001/8/3","087-815-2010","087-815-2008","タダシカイイン",,,,"歯科、矯正歯科、小児歯科",,,,"香川県","372013","http://tadashika.jp/"
"jp.takamatsu.smartcity.medical.Hospital.513","34.351146","134.026904","香川県高松市新北町1-11","歯科","高松市","立本歯科診療所",,"立本　悟","1995/11/1","087-862-2001","087-862-2003","タテモトシカシンリョウジョ",,,,"歯科",,,,"香川県","372013",
"jp.takamatsu.smartcity.medical.Hospital.514","34.338251","134.051074","香川県高松市常磐町一丁目9-14","歯科","高松市","谷口歯科医院",,"谷口　潔","2020/6/8","087-831-8020",,"タニグチシカイイン",,,,"歯科",,,,"香川県","372013","http://www.tani8020.jp/info.php"
"jp.takamatsu.smartcity.medical.Hospital.515","34.321862","134.045796","香川県高松市上之町一丁目4-5","歯科","高松市","たにぐち歯科医院",,"谷口　徳広","2008/1/10","087-816-7551","087-816-7455","タニグチシカイイン",,,,"歯科、矯正歯科、小児歯科",,,,"香川県","372013","https://itp.ne.jp/info/379992734154050090/"
"jp.takamatsu.smartcity.medical.Hospital.516","34.279945","134.048087","香川県高松市仏生山町乙54-7","歯科","高松市","谷本歯科医院",,"徳丸　和代","1998/9/13","087-889-0644","087-889-0644","タニモトシカイイン",,,,"歯科、小児歯科",,,,"香川県","372013",
"jp.takamatsu.smartcity.medical.Hospital.517","34.336559","134.050079","香川県高松市東田町1-1","歯科","高松市","田町たかはし歯科医院",,"髙橋　利友","2003/8/1","087-837-7205","087-837-7205","タマチタカハシシカイイン",,"ビーイング今竹2F",,"歯科、小児歯科、歯科口腔外科",,,,"香川県","372013","http://www.taka84.jp/"
"jp.takamatsu.smartcity.medical.Hospital.518","34.354422","134.090337","香川県高松市屋島西町2479-27","歯科","高松市","つかだ歯科医院",,"塚田　英治","1998/7/1","087-844-9082","087-844-9068","ツカダシカイイン",,,,"歯科、矯正歯科、小児歯科",,,,"香川県","372013","http://www.tukada-dc.com/"
"jp.takamatsu.smartcity.medical.Hospital.519","34.239669","134.00637","香川県高松市香南町横井989-1","歯科","高松市","月見ケ丘歯科クリニック",,"尾崎　正幸","2007/5/18","087-879-0220","087-879-0221","ツキミガオカシカクリニック",,,,"歯科、小児歯科",,,,"香川県","372013",
"jp.takamatsu.smartcity.medical.Hospital.520","34.329099","134.047029","香川県高松市栗林町一丁目9-16","歯科","高松市","佃歯科医院","理事長　佃　肇","医療法人つくだ歯科医院","2018/3/16","087-831-8244",,"ツクダシカイイン",,,,"歯科、矯正歯科、小児歯科、歯科口腔外科",,,,"香川県","372013","http://www.tsukuda-dc.com/https://itp.ne.jp/info/375604905400000899/"
"jp.takamatsu.smartcity.medical.Hospital.521","34.294229","133.963925","香川県高松市国分寺町福家甲3853-6","歯科","高松市","つつみ歯科医院",,"堤　久雄","2009/3/23","087-874-7373","087-874-7329","ツツミシカイイン",,,,"歯科、小児歯科、歯科口腔外科",,,,"香川県","372013","http://tsutsumi-dentalclinic.jp/"
"jp.takamatsu.smartcity.medical.Hospital.522","34.341293","134.030637","香川県高松市西宝町一丁目4-21","歯科","高松市","つばさ歯科医院",,"奥谷　諭","2019/7/1","087-802-0418","087-802-0419","ツバサシカイイン",,,,"歯科、矯正歯科、小児歯科、歯科口腔外科",,,,"香川県","372013","http://www.tsubasa-shika.jp/"
"jp.takamatsu.smartcity.medical.Hospital.523","34.323337","134.092861","香川県高松市春日町485-15","歯科","高松市","医療法人社団てらい歯科矯正歯科","理事長　寺井　邦博","医療法人社団てらい歯科矯正歯科","2009/11/1","087-844-4187","087-844-4178","テライシカキョウセイシカ",,,,"歯科、矯正歯科、小児歯科、歯科口腔外科",,,,"香川県","372013","http://teraidc.info/"
"jp.takamatsu.smartcity.medical.Hospital.524","34.297649","134.040133","香川県高松市太田上町420-1","歯科","高松市","アップル矯正歯科・小児歯科",,"谷本　幸多朗","2023/9/1","087-868-7777",,"アップルキョウセイシカ・ショウニシカ",,"すこやかタウン内",,"歯科、矯正歯科、小児歯科、歯科口腔外科",,,,"香川県","372013","http://global-kai.com/facility/otakami/"
"jp.takamatsu.smartcity.medical.Hospital.525","34.344687","134.016858","香川県高松市郷東町134-1","歯科","高松市","医療法人社団グローバル会デンタルステーションスマイル歯科医院","理事長　谷本　佳彦","医療法人社団グローバル会","2007/2/14","087-832-8844","087-832-8889",,,"西高松メディカルビルイーア4階",,"歯科、矯正歯科、小児歯科、歯科口腔外科",,,,"香川県","372013","http://global-kai.com/facility/goto/"
"jp.takamatsu.smartcity.medical.Hospital.526","34.345317","134.001202","香川県高松市香西本町311","歯科","高松市","医療法人社団グローバル会デンタルステーション谷本歯科医院","理事長　谷本　佳彦","医療法人社団グローバル会","2002/8/1","087-882-1181","087-882-1181","デンタルステーションタニモトシカイイン",,,,"歯科、矯正歯科、小児歯科",,,,"香川県","372013","http://global-kai.com/facility/kozaihon/"
"jp.takamatsu.smartcity.medical.Hospital.527","34.307921","134.091619","香川県高松市東山崎町668-1","歯科","高松市","医療法人社団グローバル会デンタルステーションピース歯科医院","理事長　谷本　佳彦","医療法人社団グローバル会","2009/9/1","087-847-2525","087-847-0321","デンタルステーションピースシカイイン",,,,"歯科、矯正歯科、小児歯科、歯科口腔外科",,,,"香川県","372013","http://global-kai.com/facility/higashiyamasaki/"
"jp.takamatsu.smartcity.medical.Hospital.532","34.319765","134.053289","香川県高松市伏石町1428-16","歯科","高松市","としま歯科医院",,"豊島　雄一","1985/7/1","087-865-7878","087-865-6597","トシマシカイイン",,,,"歯科、矯正歯科、小児歯科、歯科口腔外科",,,,"香川県","372013","http://takamatsu-toshimadc.com/"
"jp.takamatsu.smartcity.medical.Hospital.533","34.346158","134.046779","香川県高松市古新町5-1","歯科","高松市","医療法人社団新樹会豊嶋歯科医院","理事長　豊嶋　健治","医療法人社団新樹会","2003/1/1","087-822-6575","087-822-6335","トヨシマシカイイン",,,,"歯科、矯正歯科、小児歯科、歯科口腔外科",,,,"香川県","372013","http://www.toyoshima-dc.or.jp/"
"jp.takamatsu.smartcity.medical.Hospital.534","34.3062","133.997616","香川県高松市檀紙町1514-1","歯科","高松市","医療法人社団鳥かい歯科医院","理事長　鳥養　弘一","医療法人社団鳥かい歯科医院","2003/4/1","087-885-2525","087-885-4111","トリカイシカイイン",,,,"歯科、小児歯科、歯科口腔外科",,,,"香川県","372013","https://www.torikaidental.com/"
"jp.takamatsu.smartcity.medical.Hospital.536","34.338973","134.110724","香川県高松市高松町2488-12","歯科","高松市","医療法人社団長束歯科医院","理事長　門間　悠介","医療法人社団長束歯科医院","2022/7/1","087-843-1818",,"ナガタバシカイイン",,,,"歯科、小児歯科、歯科口腔外科",,,,"香川県","372013","http://www.418takamatu.com/hospital/natsuka/"
"jp.takamatsu.smartcity.medical.Hospital.537","34.331135","134.050815","香川県高松市栗林町二丁目10-13","歯科","高松市","なかつか歯科医院",,"中塚　智雄","2007/7/18","087-862-3150","087-862-3150","ナカツカシカイイン",,,,"歯科、小児歯科、歯科口腔外科",,,,"香川県","372013","http://www.nakatsukashika.jp/"
"jp.takamatsu.smartcity.medical.Hospital.538","34.309724","134.054193","香川県高松市伏石町2126-7","歯科","高松市","永原歯科医院",,"永原　滋万","1986/1/3","087-866-1115","087-865-9511","ナガハラシカイイン",,,,"歯科、小児歯科、歯科口腔外科",,,,"香川県","372013",
"jp.takamatsu.smartcity.medical.Hospital.539","34.259998","134.034437","香川県高松市香川町浅野624-7","歯科","高松市","ながまち歯科医院",,"長町　直樹","1994/7/14","087-888-6001","087-888-6047","ナガマチシカイイン",,,,"歯科、小児歯科",,,,"香川県","372013",
"jp.takamatsu.smartcity.medical.Hospital.540","34.333694","134.080126","香川県高松市木太町2565-4","歯科","高松市","長町歯科クリニック",,"長町　健史","2011/11/4","087-813-4618",,"ナガマチシカクリニック",,,,"歯科、小児歯科、歯科口腔外科",,,,"香川県","372013","http://nagamachi-dc.com/"
"jp.takamatsu.smartcity.medical.Hospital.541","34.288465","134.051118","香川県高松市多肥上町509-1","歯科","高松市","中村歯科医院",,"中村　公士","1980/4/1","087-888-1211","087-888-1616","ナカムラシカイイン",,,,"歯科、小児歯科",,,,"香川県","372013","http://nakamurashika.net/"
"jp.takamatsu.smartcity.medical.Hospital.542","34.290086","134.020909","香川県高松市一宮町1591-6","歯科","高松市","なかむら歯科医院",,"中村　久美","1992/6/15","087-885-5655","087-885-5650","ナカムラシカイイン",,,,"歯科、小児歯科",,,,"香川県","372013",
"jp.takamatsu.smartcity.medical.Hospital.543","34.337651","134.044286","香川県高松市中央町5-29","歯科","高松市","中山歯科医院",,"中山　盛幹","2005/2/1","087-833-6233","087-833-6233","ナカヤマシカイイン",,,,"歯科",,,,"香川県","372013","https://itp.ne.jp/info/375541015400000899/"
"jp.takamatsu.smartcity.medical.Hospital.544","34.326783","134.047525","香川県高松市花ノ宮町一丁目1-27","歯科","高松市","中山歯科クリニック",,"中山　康弘","2004/8/1","087-863-7730","087-837-8311","ナカヤマシカクリニック",,,,"歯科、歯科口腔外科",,,,"香川県","372013","http://nakayamadental.com/https://localplace.jp/t100339310/"
"jp.takamatsu.smartcity.medical.Hospital.545","34.311107","134.091367","香川県高松市東山崎町704-1","歯科","高松市","新枝歯科医院","理事長　新枝　誉志也","医療法人社団Brilliant　Smile","2019/4/1","087-847-2118",,"ニイエダシカイイン",,,,"歯科、矯正歯科、歯科口腔外科",,,,"香川県","372013","http://niieda-dental-office.com/"
"jp.takamatsu.smartcity.medical.Hospital.546","34.307605","133.973793","香川県高松市国分寺町新居3385-1","歯科","高松市","新居歯科医院",,"新居　賢","1999/5/1","087-874-0116","087-874-0893","ニイシカイイン",,,,"歯科",,,,"香川県","372013",
"jp.takamatsu.smartcity.medical.Hospital.547","34.338261","134.058145","香川県高松市塩上町三丁目14-17","歯科","高松市","西岡歯科医院",,"西岡　士郎","2007/9/1","087-831-1987","087-833-4667","ニシオカシカイイン",,,,"歯科",,,,"香川県","372013","http://nishiokadent.com/"
"jp.takamatsu.smartcity.medical.Hospital.548","34.343982","134.038701","香川県高松市扇町二丁目7-1","歯科","高松市","にしくぼ歯科医院",,"西窪　政人","2010/11/9","087-813-2088","087-813-2077","ニシクボシカイイン",,"岡ビル1F",,"歯科、矯正歯科、小児歯科、歯科口腔外科",,,,"香川県","372013","http://www.n-dental.dr-clinic.jp/"
"jp.takamatsu.smartcity.medical.Hospital.549","34.289414","134.028092","香川県高松市一宮町783-7","歯科","高松市","西クリニック歯科",,"西　稚子","2014/7/14","087-899-6712",,"ニシクリニックシカ",,"1Ｆ",,"歯科、小児歯科",,,,"香川県","372013",
"jp.takamatsu.smartcity.medical.Hospital.550","34.34467","134.015894","香川県高松市郷東町136-6","歯科","高松市","西谷歯科医院",,"西谷　義則","1985/10/1","087-882-8800","087-882-8850","ニシタニシカイイン",,,,"歯科",,,,"香川県","372013",
"jp.takamatsu.smartcity.medical.Hospital.551","34.314448","134.053968","香川県高松市伏石町2056-3","歯科","高松市","医療法人社団西原歯科医院","理事長　西原　実男","医療法人社団西原歯科医院","2006/1/1","087-868-3535","087-868-3535","ニシハラシカイイン",,,,"歯科、小児歯科、歯科口腔外科",,,,"香川県","372013","https://itp.ne.jp/info/376996915400000899/"
"jp.takamatsu.smartcity.medical.Hospital.552","34.272084","134.035696","香川県高松市仏生山町甲1416-1","歯科","高松市","医療法人社団皓歯会西村歯科医院","理事長　西村　健司","医療法人社団皓歯会","2005/8/1","087-889-1811","087-888-2135","ニシムラシカイイン",,,,"歯科、矯正歯科、小児歯科",,,,"香川県","372013",
"jp.takamatsu.smartcity.medical.Hospital.553","34.282633","134.046467","香川県高松市仏生山町甲370-3","歯科","高松市","新田歯科医院",,"新田　浩樹","2016/3/1","087-888-4618","087-888-2590","ニッタシカイイン",,,,"歯科、小児歯科",,,,"香川県","372013",
"jp.takamatsu.smartcity.medical.Hospital.554","34.255487","134.035912","香川県高松市香川町浅野1053-7","歯科","高松市","ぬまた歯科医院",,"沼田　浩","2000/12/5","087-879-0661","087-879-0664","ヌマタシカイイン",,,,"歯科、小児歯科",,,,"香川県","372013","https://dental-clinic.dr-navip.jp/kagawa/facility/1453/"
"jp.takamatsu.smartcity.medical.Hospital.555","34.298923","133.996526","香川県高松市檀紙町757-6","歯科","高松市","ハッピーデンタルクリニック",,"香西　勝之","2007/4/3","087-816-4046","087-816-4046","ハッピーデンタルクリニック",,,,"歯科、矯正歯科、小児歯科",,,,"香川県","372013",
"jp.takamatsu.smartcity.medical.Hospital.556","34.33573","134.05969","香川県高松市多賀町二丁目15-17","歯科","高松市","馬場歯科医院",,"馬場　勝也","1993/5/1","087-835-2884","087-835-2884","ババシカイイン",,,,"歯科",,,,"香川県","372013","http://www.418takamatu.com/hospital/baba/"
"jp.takamatsu.smartcity.medical.Hospital.557","34.344477","134.050408","香川県高松市丸亀町13-3","歯科","高松市","医療法人社団丸亀町ハビット歯科クリニック","理事長　三木　健史","医療法人社団丸亀町ハビット歯科クリニック","2017/9/1","087-851-2266",,"ハビットシカクリニック",,"高松丸亀町商店街参番街東館3F",,"歯科、小児歯科",,,,"香川県","372013","http://habitdc.com/"
"jp.takamatsu.smartcity.medical.Hospital.558","34.32573","134.101864","香川県高松市新田町甲653-10","歯科","高松市","はまおか歯科医院",,"濱岡　宏典","2005/11/21","087-844-3755","087-844-3755","ハマオカシカイイン",,,,"歯科、小児歯科、歯科口腔外科",,,,"香川県","372013","https://www.hamaokashika.net/"
"jp.takamatsu.smartcity.medical.Hospital.559","34.345186","134.051223","香川県高松市百間町9-2","歯科","高松市","林歯科医院",,"林　秀樹","1991/7/1","087-821-3684","087-821-3696","ハヤシシカイイン",,,,"歯科",,,,"香川県","372013",
"jp.takamatsu.smartcity.medical.Hospital.560","34.33674","134.10721","香川県高松市高松町5-8","歯科","高松市","林歯科医院","理事長　林　秀樹","医療法人社団林歯科医院","2018/3/1","087-841-9026","087-841-9026","ハヤシシカイイン",,,,"歯科、矯正歯科、小児歯科",,,,"香川県","372013","http://www.hayashishika.info/"
"jp.takamatsu.smartcity.medical.Hospital.562","34.347573","134.02609","香川県高松市西町13-31","歯科","高松市","はる歯科診療室",,"野口　卓司","2009/6/24","087-833-6480","087-833-6482","ハルシカシンリョウシツ",,,,"歯科、矯正歯科、小児歯科、歯科口腔外科",,,,"香川県","372013","https://www.haru-do.com/"
"jp.takamatsu.smartcity.medical.Hospital.563","34.340813","134.039256","香川県高松市番町四丁目11-3","歯科","高松市","番町歯科クリニック",,"多田　爲則","1992/10/1","087-861-0008","087-861-0085","バンチョウシカクリニック",,,,"歯科、小児歯科",,,,"香川県","372013","http://www.bancho-dc.com/"
"jp.takamatsu.smartcity.medical.Hospital.564","34.344453","134.025053","香川県高松市西宝町一丁目10-12","歯科","高松市","坂東歯科クリニック",,"坂東　達矢","1990/10/4","087-837-6487","087-837-6487","バンドウシカクリニック",,"ツリーハイム2F201",,"歯科、小児歯科、歯科口腔外科",,,,"香川県","372013","https://www.facebook.com/bandosika/"
"jp.takamatsu.smartcity.medical.Hospital.565","34.310537","134.061543","香川県高松市松縄町1143-3","歯科","高松市","ひまわり歯科医院",,"永原　義章","1997/5/20","087-868-5151","087-868-5151","ヒマワリシカイイン",,,,"歯科、小児歯科、歯科口腔外科",,,,"香川県","372013",
"jp.takamatsu.smartcity.medical.Hospital.566","34.34642","134.049116","香川県高松市兵庫町2-2","歯科","高松市","医療法人HTS兵庫町歯科","理事長　宿南　仁志","医療法人HTS","2022/6/1","087-851-8211","087-851-4182","ヒョウゴマチシカ",,"兵庫町商店街アーケード内",,"歯科、小児歯科、歯科口腔外科",,,,"香川県","372013","http://hyogomachi-dc.com/"
"jp.takamatsu.smartcity.medical.Hospital.567","34.338607","134.046479","香川県高松市天神前9-25","歯科","高松市","平池歯科医院",,"平池　洋一郎","1981/1/6","087-835-0295",,"ヒライケシカイイン",,,,"歯科",,,,"香川県","372013",
"jp.takamatsu.smartcity.medical.Hospital.568","34.295336","134.054207","香川県高松市多肥上町1223-19","歯科","高松市","平尾歯科クリニック",,"平尾　史恵","2012/12/1","087-814-4015",,"ヒラオシカクリニック",,,,"歯科、小児歯科、歯科口腔外科",,,,"香川県","372013","http://user.j-connect.net/hirao-dental-clinic/"
"jp.takamatsu.smartcity.medical.Hospital.569","34.344783","134.047129","香川県高松市紺屋町4-7","歯科","高松市","平田歯科医院",,"平田　成志","2003/4/1","087-821-7459","087-821-7559","ヒラタシカイイン",,,,"歯科",,,,"香川県","372013","http://hirata.main.jp/"
"jp.takamatsu.smartcity.medical.Hospital.570","34.329673","134.069174","香川県高松市木太町2063-6","歯科","高松市","ひらの歯科",,"比良野　哲彦","2015/12/7","087-812-6480",,"ヒラノシカ",,,,"歯科、小児歯科、歯科口腔外科",,,,"香川県","372013","https://www.hirano-shika.dental/"
"jp.takamatsu.smartcity.medical.Hospital.571","34.291509","134.074777","香川県高松市上林町字竹部65-1","歯科","高松市","医療法人社団裕歯科クリニック","理事長　西原　裕","医療法人社団裕歯科クリニック","2015/9/1","087-816-4618","087-816-1846","ヒロシシカクリニック",,,,"歯科、小児歯科",,,,"香川県","372013","http://www.hiroshi-dc.com/"
"jp.takamatsu.smartcity.medical.Hospital.572","34.34327","134.053109","香川県高松市御坊町4-19","歯科","高松市","広瀬歯科医院",,"広瀬　佳史","1972/7/1","087-851-3383","087-823-4351","ヒロセシカイイン",,"藤井ビル2F",,"歯科",,,,"香川県","372013",
"jp.takamatsu.smartcity.medical.Hospital.574","34.303096","134.052232","香川県高松市太田下町3038-12","歯科","高松市","ふくもと歯科クリニック","理事長　福本　善和","医療法人ふくもと歯科クリニック","2014/9/1","087-897-3388","087-897-3389","フクモトシカクリニック",,,,"歯科、矯正歯科、小児歯科、歯科口腔外科",,,,"香川県","372013","http://www.fukumoto-dental.com/"
"jp.takamatsu.smartcity.medical.Hospital.575","34.239316","134.013737","香川県高松市香南町由佐1152","歯科","高松市","藤木歯科医院",,"藤木　秀保","1990/5/24","087-879-1188","087-879-1170","フジキシカイイン",,,,"歯科、矯正歯科、小児歯科、歯科口腔外科",,,,"香川県","372013",
"jp.takamatsu.smartcity.medical.Hospital.576","34.33419","134.048519","香川県高松市藤塚町一丁目7-25","歯科","高松市","藤塚歯科クリニック",,"小山　貴生","2009/9/1","087-813-1103","087-813-1103","フジツカシカクリニック",,,,"歯科、小児歯科、歯科口腔外科",,,,"香川県","372013","http://fujituka-dc.com/"
"jp.takamatsu.smartcity.medical.Hospital.577","34.335564","134.053259","香川県高松市藤塚町三丁目1-10","歯科","高松市","フジツカ三好歯科医院",,"三好　貴美子","1981/4/1","087-831-3025","087-834-8308","フジツカミヨシシカイイン",,,,"歯科",,,,"香川県","372013",
"jp.takamatsu.smartcity.medical.Hospital.578","34.34705","134.028585","香川県高松市瀬戸内町16-13","歯科","高松市","藤本歯科医院",,"藤本　幸重","1986/6/7","087-837-1182","087-837-1189","フジモトシカイイン",,,,"歯科",,,,"香川県","372013",
"jp.takamatsu.smartcity.medical.Hospital.579","34.315474","134.061973","香川県高松市松縄町1104-2","歯科","高松市","ふじわら歯科医院",,"藤原　和彦","1996/5/14","087-865-5884","087-865-5884","フジワラシカイイン",,,,"歯科、小児歯科",,,,"香川県","372013","https://www.fujiwara-sika.jp/"
"jp.takamatsu.smartcity.medical.Hospital.580","34.267506","134.025122","香川県高松市香川町大野1320-1","歯科","高松市","フチダ歯科医院",,"渕田　眞利子","2020/1/29","087-886-5117",,"フチダシカイイン",,,,"歯科、小児歯科",,,,"香川県","372013","http://www7b.biglobe.ne.jp/~fuchida/"
"jp.takamatsu.smartcity.medical.Hospital.581","34.316816","134.041731","香川県高松市三条町608-1","歯科","高松市","医療法人白樹会フラワー歯科","理事長　白井　広樹","医療法人白樹会","2004/3/15","087-815-1211","087-867-6760","フラワーシカ",,"ゆめタウン高松2F",,"歯科、矯正歯科、小児歯科、歯科口腔外科",,,,"香川県","372013","http://www.flower-sika.com/"
"jp.takamatsu.smartcity.medical.Hospital.582","34.337109","134.061099","香川県高松市多賀町二丁目5-6","歯科","高松市","医療法人社団明恵会古市歯科医院","理事長　古市　貴暢","医療法人社団明恵会","2014/3/3","087-831-2810","087-880-7150","フルイチシカイイン",,,,"歯科、小児歯科",,,,"香川県","372013","http://furuichi-dent.com/"
"jp.takamatsu.smartcity.medical.Hospital.583","34.29945","134.07257","香川県高松市林町1183","歯科","高松市","医療法人フレッシュ歯科","理事長　田中　愼亮","医療法人フレッシュ歯科","2021/4/1","087-814-4181",,"フレッシュシカ",,,,"歯科、矯正歯科、小児歯科、歯科口腔外科",,,,"香川県","372013","https://www.fresh-shika.com/"
"jp.takamatsu.smartcity.medical.Hospital.584","34.316414","134.066256","香川県高松市木太町5023-25","歯科","高松市","医療法人友慈会フレンズ歯科クリニック","理事長　昌山　浩三","医療法人友慈会","2016/11/1","087-815-1181","087-815-1190","フレンズシカクリニック",,,,"歯科、矯正歯科、小児歯科、歯科口腔外科",,,,"香川県","372013","http://www.friends-dental.com/"
"jp.takamatsu.smartcity.medical.Hospital.585","34.338955","134.047687","香川県高松市亀井町12-4","歯科","高松市","細川歯科クリニック",,"細川　雅敬","1979/3/1","087-835-2056","087-835-2056","ホソカワシカクリニック",,"日の出ビル2F",,"歯科",,,,"香川県","372013",
"jp.takamatsu.smartcity.medical.Hospital.586","34.311531","134.10463","香川県高松市新田町乙25-34","歯科","高松市","ほりうち歯科",,"堀内　正純","2002/10/1","087-841-0648","087-841-2655","ホリウチシカ",,,,"歯科、小児歯科",,,,"香川県","372013",
"jp.takamatsu.smartcity.medical.Hospital.587","34.340833","134.053231","香川県高松市福田町14-18","歯科","高松市","堀歯科診療所",,"堀　祥二","1991/3/1","087-821-5773","087-821-5752","ホリシカシンリョウジョ",,,,"歯科、矯正歯科、小児歯科",,,,"香川県","372013",
"jp.takamatsu.smartcity.medical.Hospital.588","34.278282","134.07249","香川県高松市三谷町384-1","歯科","高松市","マシマ歯科クリニック",,"間島　徹","2011/12/1","087-814-6600",,"マシマシカクリニック",,,,"歯科、小児歯科、歯科口腔外科",,,,"香川県","372013","http://www.mashima-dc.com/"
"jp.takamatsu.smartcity.medical.Hospital.590","34.298707","134.053339","香川県高松市多肥下町1587-11","歯科","高松市","町田歯科クリニック",,"町田　誠一","2010/4/28","087-813-8241","087-813-8241","マチダシカクリニック",,,,"歯科、矯正歯科、小児歯科、歯科口腔外科",,,,"香川県","372013","http://www.machida-dc.com/main.html"
"jp.takamatsu.smartcity.medical.Hospital.591","34.333926","134.074295","香川県高松市木太町2351-3","歯科","高松市","松井歯科医院",,"松井　康男","1994/6/1","087-802-4618","087-861-6548","マツイシカイイン",,,,"歯科、小児歯科、歯科口腔外科",,,,"香川県","372013","http://www.418takamatu.com/hospital/matsui/"
"jp.takamatsu.smartcity.medical.Hospital.592","34.34383","134.049447","香川県高松市紺屋町10-6","歯科","高松市","まつおか歯科医院",,"松岡　利安","1979/8/5","087-821-6537","087-821-6686","マツオカシカイイン",,,,"歯科、小児歯科",,,,"香川県","372013",
"jp.takamatsu.smartcity.medical.Hospital.593","34.34286","134.128293","香川県高松市牟礼町牟礼2112-1","歯科","高松市","松木歯科医院",,"松木　倫和","2003/2/1","087-845-8577","087-845-8577","マツキシカイイン",,,,"歯科、小児歯科、歯科口腔外科",,,,"香川県","372013",
"jp.takamatsu.smartcity.medical.Hospital.594","34.336853","134.04672","香川県高松市中央町1-5","歯科","高松市","医療法人社団セラ松崎ファミリー歯科矯正歯科","理事長　松﨑　晃","医療法人社団セラ松崎ファミリー歯科矯正歯科","2001/2/1","087-862-6222","087-862-8050","マツザキファミリーシカキョウセイシカ",,"MBSビル6F",,"歯科、矯正歯科、小児歯科",,,,"香川県","372013","http://www.matsuzaki-dental.com/"
"jp.takamatsu.smartcity.medical.Hospital.595","34.32757","134.066349","香川県高松市上福岡町916-4","歯科","高松市","まつした歯科医院",,"松下　直弘","2003/2/1","087-863-6755","087-863-6756","マツシタシカイイン",,,,"歯科、小児歯科、歯科口腔外科",,,,"香川県","372013","http://matsushitashika.dentalmall.jp/"
"jp.takamatsu.smartcity.medical.Hospital.597","34.344142","133.997347","香川県高松市香西西町7","歯科","高松市","松見歯科診療所",,"松見　哲雄","1996/12/1","087-881-2323","087-881-8499","マツミシカシンリョウジョ",,,,"歯科",,,,"香川県","372013","http://www.matsumishika.jp/"
"jp.takamatsu.smartcity.medical.Hospital.598","34.276832","134.093583","香川県高松市川島東町275-1","歯科","高松市","医療法人社団松本歯科","理事長　松本　嗣央","医療法人社団松本歯科","2000/11/1","087-848-4182","087-848-1192","マツモトシカ",,,,"歯科、矯正歯科、小児歯科、歯科口腔外科",,,,"香川県","372013","https://www.matsumoto-dc.com/"
"jp.takamatsu.smartcity.medical.Hospital.599","34.299079","133.96362","香川県高松市国分寺町新居1091-1","歯科","高松市","松本歯科診療所",,"松本　幹夫","2005/10/1","087-875-1101","087-875-1101","マツモトシカシンリョウショ",,,,"歯科、矯正歯科、小児歯科、歯科口腔外科",,,,"香川県","372013",
"jp.takamatsu.smartcity.medical.Hospital.600","34.34694","134.05285","香川県高松市丸の内11-15","歯科","高松市","丸の内歯科",,"岡　左永子","1998/4/1","087-821-1331","087-821-1332","マルノウチシカ",,"松浦ビル5F",,"歯科、小児歯科、歯科口腔外科",,,,"香川県","372013",
"jp.takamatsu.smartcity.medical.Hospital.601","34.340327","134.009525","香川県高松市鶴市町2022-19","歯科","高松市","みき歯科医院",,"三木　武","2009/7/11","087-813-0727","087-813-0727","ミキシカイイン",,,,"歯科、矯正歯科、小児歯科、歯科口腔外科",,,,"香川県","372013","https://itp.ne.jp/info/371800805125650850/"
"jp.takamatsu.smartcity.medical.Hospital.602","34.347076","134.052383","香川県高松市丸の内10-16","歯科","高松市","みき歯科三越通りクリニック",,"三木　武寛","2017/4/1","087-802-3810",,"ミキシカミツコシドオリクリニック",,,,"歯科、矯正歯科、小児歯科、歯科口腔外科",,,,"香川県","372013","https://www.miki-dmc.com/"
"jp.takamatsu.smartcity.medical.Hospital.603","34.383683","134.127948","香川県高松市庵治町6385-18","歯科","高松市","溝渕歯科医院",,"溝渕　勝彦","1991/3/1","087-871-4808","087-871-4808","ミゾブチシカイイン",,,,"歯科、小児歯科",,,,"香川県","372013",
"jp.takamatsu.smartcity.medical.Hospital.604","34.357452","133.970404","香川県高松市中山町811-6","歯科","高松市","医療法人社団溝渕歯科診療所","理事長　溝渕　壽一","医療法人社団溝渕歯科診療所","2007/3/1","087-881-1800","087-881-1800","ミゾブチシカシンリョウショ",,,,"歯科",,,,"香川県","372013",
"jp.takamatsu.smartcity.medical.Hospital.605","34.34839","134.123253","香川県高松市牟礼町牟礼2533-2","歯科","高松市","三谷歯科医院",,"三谷　裕子","1993/1/4","087-845-5780","087-845-4168","ミタニシカイイン",,,,"歯科、矯正歯科、小児歯科",,,,"香川県","372013","http://mitani-dc.com/"
"jp.takamatsu.smartcity.medical.Hospital.606","34.299291","134.079645","香川県高松市林町1308-15","歯科","高松市","みたに歯科クリニック",,"三谷　明将","2008/6/1","087-815-3373","087-815-3372","ミタニシカクリニック",,,,"歯科、小児歯科",,,,"香川県","372013","http://www.mitani-dental.com/"
"jp.takamatsu.smartcity.medical.Hospital.607","34.346952","134.049819","香川県高松市内町1-5","歯科","高松市","三谷歯科診療所",,"三谷　明弘","1993/1/4","087-821-5474","087-821-5474","ミタニシカシンリョウジョ",,,,"歯科",,,,"香川県","372013","http://www2.odn.ne.jp/mitani_sika/"
"jp.takamatsu.smartcity.medical.Hospital.608","34.27708","133.994439","香川県高松市西山崎町886-1","歯科","高松市","医療法人社団みつもり歯科医院","理事長　三森　康智","医療法人社団みつもり歯科医院","2006/4/1","087-886-8900","087-886-8309","ミツモリシカイイン",,,,"歯科、矯正歯科、小児歯科、歯科口腔外科",,,,"香川県","372013","http://www.mitsumori-dental.com/"
"jp.takamatsu.smartcity.medical.Hospital.610","34.301494","134.059566","香川県高松市多肥下町1548-14","歯科","高松市","医療法人社団佑逵会美美歯科","理事長　田中　美美","医療法人社団佑逵会美美歯科","2006/8/1","087-867-3933","087-867-3934","ミミシカ",,,,"歯科、矯正歯科、小児歯科、歯科口腔外科",,,,"香川県","372013","http://www.mimi-dc.com/"
"jp.takamatsu.smartcity.medical.Hospital.611","34.270692","133.999399","香川県高松市岡本町1247-1","歯科","高松市","みやび歯科",,"竹内　雅哉","2019/2/7","087-886-8811",,"ミヤビシカ",,,,"歯科、小児歯科、歯科口腔外科",,,,"香川県","372013","https://miyabi-shika.com/"
"jp.takamatsu.smartcity.medical.Hospital.612","34.291478","134.089243","香川県高松市下田井町633-1","歯科","高松市","宮脇歯科医院",,"宮脇　守男","1990/6/5","087-847-7757","087-847-7757","ミヤワキシカイイン",,,,"歯科、矯正歯科、小児歯科、歯科口腔外科",,,,"香川県","372013","https://localplace.jp/t100121223/"
"jp.takamatsu.smartcity.medical.Hospital.613","34.280294","133.967045","香川県高松市国分寺町福家甲2637-1","歯科","高松市","みやわき歯科医院",,"宮脇　聡","1999/2/12","087-875-2442","087-875-2442","ミヤワキシカイイン",,,,"歯科、小児歯科",,,,"香川県","372013","https://haisha-yoyaku.jp/bun2sdental/detail/index/id/3730134974/"
"jp.takamatsu.smartcity.medical.Hospital.614","34.343901","134.064925","香川県高松市福岡町二丁目29-30","歯科","高松市","三好歯科医院",,"三好　正弘","1984/7/1","087-822-2587","087-822-2567","ミヨシシカイイン",,,,"歯科",,,,"香川県","372013",
"jp.takamatsu.smartcity.medical.Hospital.615","34.32956","134.04888","香川県高松市栗林町二丁目16-14","歯科","高松市","三好歯科医院",,"三好　篤信","1996/3/29","087-831-4403","087-831-1818","ミヨシシカイイン",,"2F",,"歯科、小児歯科",,,,"香川県","372013",
"jp.takamatsu.smartcity.medical.Hospital.616","34.325721","134.056422","香川県高松市今里町一丁目31-3","歯科","高松市","むね歯科クリニック",,"髙木　宗弘","2016/8/2","087-880-4829",,"ムネシカクリニック",,,,"歯科、小児歯科",,,,"香川県","372013","http://www.munedc.jp/"
"jp.takamatsu.smartcity.medical.Hospital.618","34.294408","134.112747","香川県高松市前田東町731-1","歯科","高松市","ムラトミ歯科医院",,"村冨　正芳","1987/5/1","087-847-4018","087-847-4663","ムラトミシカイイン",,,,"歯科",,,,"香川県","372013",
"jp.takamatsu.smartcity.medical.Hospital.619","34.345558","134.051879","香川県高松市片原町10-20","歯科","高松市","もりい矯正歯科クリニック",,"森井　大介","2009/9/7","087-811-7725","087-811-7726","モリキョウセイシカクリニック",,,,"矯正歯科",,,,"香川県","372013","http://www.moriikyousei.jp/"
"jp.takamatsu.smartcity.medical.Hospital.620","34.335523","134.072649","香川県高松市木太町2341-2","歯科","高松市","医療法人社団もりぐち歯科クリニック","理事長　森口　善夫","医療法人社団もりぐち歯科クリニック","2016/11/1","087-813-0333","087-813-0326","モリグチシカクリニック",,,,"歯科、矯正歯科、小児歯科、歯科口腔外科",,,,"香川県","372013","http://moriguchi-dental.com/"
"jp.takamatsu.smartcity.medical.Hospital.621","34.300178","134.044254","香川県高松市太田上町874-3","歯科","高松市","守田歯科医院",,"守田　浩一","2004/5/1","087-865-4410","087-865-4410","モリタシカイイン",,,,"歯科、歯科口腔外科",,,,"香川県","372013","http://wwwd.pikara.ne.jp/morita-dc/"
"jp.takamatsu.smartcity.medical.Hospital.622","34.344995","134.123111","香川県高松市牟礼町牟礼2431−1","歯科","高松市","医療法人社団弘誠会やくり歯科","理事長　松原　弘樹","医療法人社団弘誠会","2001/10/3","087-870-1555","087-870-1556","ヤクリシカ",,,,"歯科、矯正歯科、小児歯科、歯科口腔外科",,,,"香川県","372013","http://www.yakuri-shika.com/"
"jp.takamatsu.smartcity.medical.Hospital.623","34.296118","134.043453","香川県高松市太田上町392-1","歯科","高松市","やすとみ歯科医院",,"安冨　哲士","1994/5/24","087-868-5188","087-868-5155","ヤストミシカイイン",,,,"歯科",,,,"香川県","372013","https://www.dentaldesign.jp/yasutomi/"
"jp.takamatsu.smartcity.medical.Hospital.624","34.338608","134.013226","香川県高松市鶴市町2033-3","歯科","高松市","やの歯科医院",,"矢野　宏明","2005/12/20","087-897-2070","087-897-2070","ヤノシカイイン",,,,"歯科、小児歯科、歯科口腔外科",,,,"香川県","372013","http://www.yano-dentalclinic.com/"
"jp.takamatsu.smartcity.medical.Hospital.625","34.346982","133.998337","香川県高松市香西本町486-6","歯科","高松市","山内歯科医院",,"山内　宏茂","2002/8/24","087-881-2642","087-881-2642","ヤマウチシカイイン",,,,"歯科、小児歯科",,,,"香川県","372013",
"jp.takamatsu.smartcity.medical.Hospital.626","34.342766","134.043206","香川県高松市番町三丁目2-1","歯科","高松市","山口歯科診療所",,"山口　裕","1982/2/1","087-831-5034","087-834-6898","ヤマグチシカシンリョウジョ",,"池田番丁ビル3F",,"歯科",,,,"香川県","372013",
"jp.takamatsu.smartcity.medical.Hospital.628","34.301124","134.039964","香川県高松市太田上町1004-1","歯科","高松市","医療法人社団山下歯科医院","理事長　山下　穣","医療法人社団山下歯科医院","2016/12/24","087-865-1323",,"ヤマシタシカイイン",,,,"歯科、矯正歯科、小児歯科",,,,"香川県","372013",
"jp.takamatsu.smartcity.medical.Hospital.629","34.28247","134.053943","香川県高松市多肥上町1842-5","歯科","高松市","吉田歯科医院",,"吉田　光典","1982/6/1","087-888-2088","087-888-2131","ヨシダシカイイン",,,,"歯科",,,,"香川県","372013","http://yoshida-shika-tmj.jp/"
"jp.takamatsu.smartcity.medical.Hospital.630","34.336888","134.100266","香川県高松市屋島西町1968-9","歯科","高松市","医療法人社団吉翔会吉本歯科医院","理事長　吉本　彰夫","医療法人社団吉翔会","2004/2/1","087-818-1118","087-818-1181","ヨシモトシカイイン",,,,"歯科、矯正歯科、歯科口腔外科",,,,"香川県","372013","https://www.8181118.com/https://www.shiroiha.info/?kid%253D37&cid%253D1345&mode%253D3"
"jp.takamatsu.smartcity.medical.Hospital.631","34.303968","133.961663","香川県高松市国分寺町新居字橋岡1796-1","歯科","高松市","よしもと歯科クリニック","理事長　吉本　学","医療法人よしもと歯科クリニック","2014/4/1","087-813-6804","087-813-6804","ヨシモトシカクリニック",,,,"歯科、小児歯科、歯科口腔外科",,,,"香川県","372013","http://www7b.biglobe.ne.jp/~yoshimoto-shika/index.html"
"jp.takamatsu.smartcity.medical.Hospital.633","34.313456","134.045552","香川県高松市三条町239-7","歯科","高松市","医療法人社団邦照会米田歯科医院","理事長　米田　照男","医療法人社団邦照会米田歯科医院","1995/12/1","087-866-5195","087-866-5169","ヨネダシカイイン",,,,"歯科、矯正歯科、小児歯科、歯科口腔外科",,,,"香川県","372013",
"jp.takamatsu.smartcity.medical.Hospital.634","34.343825","134.054384","香川県高松市今新町4-7","歯科","高松市","ヨネダ歯科医院",,"米田　敬","2014/5/19","087-851-9259",,"ヨネダシカイイン",,"2F",,"歯科、小児歯科、歯科口腔外科",,,,"香川県","372013",
"jp.takamatsu.smartcity.medical.Hospital.635","34.343442","134.065844","香川県高松市松福町二丁目4-4","歯科","高松市","らく楽歯科クリニック","理事長　太田　憲吾","医療法人社団らく楽会","2014/12/11","087-851-3500",,"ラクラクシカクリニック",,,,"歯科、小児歯科",,,,"香川県","372013","http://www.rakuraku-group.jp/raku-dental/index.html"
"jp.takamatsu.smartcity.medical.Hospital.636","34.29605","134.03778","香川県高松市三名町字大下723-1","歯科","高松市","かたぎり歯科クリニック",,"片桐　幸大","2019/4/18","087-867-8046",,"カタギリシカクリニック",,,,"歯科、小児歯科",,,,"香川県","372013","https://www.katagiri.dental/"
"jp.takamatsu.smartcity.medical.Hospital.637","34.344687","134.016858","香川県高松市郷東町字東新開148-3","無床診療所","高松市","西高松キッズクリニック","理事長　杉峯　貴文","医療法人社団西高松社中","2023/11/1","087-881-8899",,"ニシタカマツキッズクリニック",,,,"小児科",,,,"香川県","372013","https://brain.nishitakamatsu.jp/"
"jp.takamatsu.smartcity.medical.Hospital.638","34.352408","134.046631","香川県高松市サンポート2-1","無床診療所","高松市","サンポート高松クリニック",,"井垣　俊郎","2019/6/1","087-802-3100",,"サンポートタカマツクリニック",,"マリンタイムプラザ2階",,"内科、糖尿病内科",,,,"香川県","372013","https://www.sunport-takamatsu.clinic/"
"jp.takamatsu.smartcity.medical.Hospital.639","34.3127","134.06365","香川県高松市木太町5077-2","無床診療所","高松市","やまもと中央クリニック",,"山本　議仁","2019/5/1","087-802-7500",,"ヤマモトチュウオウクリニック",,,,"泌尿器科、内科",,,,"香川県","372013","https://ychuoclinic.xsrv.jp/"
"jp.takamatsu.smartcity.medical.Hospital.640","34.34387","134.12246","香川県高松市牟礼町牟礼字川原2217-3","歯科","高松市","晴里歯科医院",,"山本　議仁","2019/5/1","087-802-1182",,"ハルリシカイイン",,,,"歯科、小児歯科、歯科口腔外科",,,,"香川県","372013","https://haruri-dc.jp/"
"jp.takamatsu.smartcity.medical.Hospital.641","34.29899","134.05895","香川県高松市多肥下町482","無床診療所","高松市","ふじもり内科・消化器内科クリニック",,"藤森　崇行","2019/10/19","087-813-6114",,"フジモリナイカ・ショウカキナイカ",,,,"内科・消化器内科",,,,"香川県","372013","https://fuji-medi.com/"
"jp.takamatsu.smartcity.medical.Hospital.642","34.28417","133.96305","香川県高松市国分寺町福家甲3091-4","無床診療所","高松市","安田内科",,"安田　貢","2019/11/14","087-875-2525",,"ヤスダナイカ",,,,"内科・消化器内科",,,,"香川県","372013","http://www.yasudanaika.jp/"
"jp.takamatsu.smartcity.medical.Hospital.643","34.2865","134.03531","香川県高松市三名町65","無床診療所","高松市","高松南整形外科スポーツクリニック",,"中溝　寛之","2019/11/1","087-889-4970",,"タカマツミナミセイケイゲカスポーツクリニック",,,,"整形外科、リハビリ科",,,,"香川県","372013","https://tkm-osc.com/"
"jp.takamatsu.smartcity.medical.Hospital.644","34.30144","134.07367","香川県高松市林町1487-2","歯科","高松市","はやし歯科医院","理事長　林　直樹","医療法人社団緑林会","2019/11/1","087-802-8217",,"ハヤシシカイイン",,,,"歯科・小児歯科",,,,"香川県","372013","https://www.hayashishikain.com/"
"jp.takamatsu.smartcity.medical.Hospital.645","34.310612","134.065068","香川県高松市木太町5080-12","無床診療所","高松市","しみずこどもクリニック","理事長　清水　真樹","医療法人しみずこどもクリニック","2022/11/1","087-802-3607",,"シミズコドモクリニック",,,,"小児科",,,,"香川県","372013","https://www.shimizu-children.clinic/"
"jp.takamatsu.smartcity.medical.Hospital.646","34.29079","134.01913","香川県高松市一宮町1530-1","無床診療所","高松市","いなもと耳鼻咽喉科",,"稲本　隆平","2020/9/1","087-880-3341",,"イナモトジビインコウカ",,,,"耳鼻咽喉科、小児耳鼻咽喉科",,,,"香川県","372013","http://www.ent-inamoto.jp/original4.html"
"jp.takamatsu.smartcity.medical.Hospital.647","34.33833","134.10943","香川県高松市高松町2500-5","無床診療所","高松市","屋島おおはら内科・消化器内科クリニック","理事長　大原　芳章","医療法人社団葵桜会","2022/4/1","087-844-8705","087-844-8706","ヤシマオオハラナイカ・ショウカキナイカクリニック",,,,"内科、消化器内科",,,,"香川県","372013","https://www.kita-iin.com/"
"jp.takamatsu.smartcity.medical.Hospital.648","34.34235","134.04941","香川県高松市丸亀町7-16丸亀町グリーン２階","無床診療所","高松市","エミナルクリニック高松院","理事長　小池　仁","医療法人エミフル","2022/2/1","087-899-2541",,"エミナルクリニックタカマツイン",,"丸亀町グリーン2階",,"美容皮膚科",,,,"香川県","372013","https://eminal-clinic.jp/clinic/c_takamatsu/"
"jp.takamatsu.smartcity.medical.Hospital.650","34.33935","134.05102","香川県高松市瓦町二丁目12-8　LEEZENビル5F","無床診療所","高松市","医療法人社団京仁会高松メンズクリニック","理事長　小原　祟","医療法人社団京仁会","2023/10/1","087-873-2132",,"タカマツメンズクリニック",,,,"美容外科、泌尿器科",,,,"香川県","372013",
"jp.takamatsu.smartcity.medical.Hospital.651","34.305498","134.058768","香川県高松市多肥下町1506-20","無床診療所","高松市","レインボー通り内科クリニック",,"松原　修司","2021/4/1","087-868-2416",,"レインボートオリナイカクリニック",,,,"内科、糖尿病内科、内分泌内科",,,,"香川県","372013",
"jp.takamatsu.smartcity.medical.Hospital.652","34.32566","134.04887","香川県高松市花ノ宮町一丁目９−２２","無床診療所","高松市","医療法人医仁会高松ひざ関節症専門クリニック","理事長　三上　浩","医療法人医仁会","2021/3/1","087-802-3367",,"タカマツヒザカンセツショウセンモンクリニック",,,,"整形外科",,,,"香川県","372013",
"jp.takamatsu.smartcity.medical.Hospital.653","34.34168","134.03179","香川県高松市昭和町二丁目16-7","無床診療所","高松市","心のケアクリニック",,"榎本　百合子","2021/5/10","087-861-7100",,"ココロノケアクリニック",,,,"心療内科、精神科",,,,"香川県","372013",
"jp.takamatsu.smartcity.medical.Hospital.654","34.327275","134.105155","香川県高松市新田町甲537-3","歯科","高松市","いろのみ歯科",,"前田　直人","2021/5/1","087-880-6374",,"イロノミシカ",,,,"歯科、歯科口腔外科、小児歯科、矯正歯科",,,,"香川県","372013",
"jp.takamatsu.smartcity.medical.Hospital.655","34.32119","134.04111","香川県高松市東ハゼ町12-7","無床診療所","高松市","真弓愛メディカルクリニック","理事長　真弓　哲二","医療法人社団哲樹会","2021/6/1","087-802-3575",,"マユミアイメディカルクリニック",,,,"美容皮膚科、女性内科、皮膚科、形成外科、内科、歯科、小児歯科、矯正歯科",,,,"香川県","372013",
"jp.takamatsu.smartcity.medical.Hospital.656","34.33761","134.03657","香川県高松市宮脇町一丁目32番25号","歯科","高松市","神原歯科医院",,"神原　圭","2021/6/1","087-834-4102",,"カンバラシカイイン",,,,"歯科、小児歯科、歯科口腔外科",,,,"香川県","372013",
"jp.takamatsu.smartcity.medical.Hospital.657","34.29279","134.09037","香川県高松市下田井町372-1","無床診療所","高松市","あらい乳腺クリニック",,"新井　貴士","2022/9/1","087-802-2234",,"アライニュウセンクリニック",,,,"乳腺内科、甲状腺内科",,,,"香川県","372013",
"jp.takamatsu.smartcity.medical.Hospital.658","34.348627","134.088751","香川県高松市屋島西町2490-1","無床診療所","高松市","医療法人社団観照会かがみハーモニークリニック","理事長　鏡原　康介","医療法人社団観照会","2003/5/1","087-802-4711","087-802-4712","カガミハーモニークリニック",,,,"内科、循環器内科、リハビリテーション科",,,,"香川県","372013",
"jp.takamatsu.smartcity.medical.Hospital.659","34.298773","134.058505","香川県高松市多肥下町468番地3","無床診療所","高松市","医療法人社団恵生会生成脳神経クリニック","理事長　入江　恵子","医療法人社団恵生会","2022/5/2","087-813-5511",,"イキナリノウシンケイゲカクリニック",,,,"内科、消化器内科、脳神経外科、リハビリテーション科",,,,"香川県","372013",
"jp.takamatsu.smartcity.medical.Hospital.660","34.340432","134.110896","香川県高松市高松町3006-7","無床診療所","高松市","印藤内科クリニック",,"神原　圭","2022/5/1","087-816-1800",,"インドウナイカクリニック",,,,"内科、消化器内科、内視鏡内科",,,,"香川県","372013",
"jp.takamatsu.smartcity.medical.Hospital.661","34.32924","134.149796","香川県高松市牟礼町原1192番地2","無床診療所","高松市","きむら内科呼吸器内科クリニック","理事長　木村　公一","医療法人社団きむら内科呼吸器内科クリニック","2023/10/1","087-802-1580",,"キムラナイカコキュウキナイカクリニック",,,,"内科、呼吸器内科",,,,"香川県","372013",
"jp.takamatsu.smartcity.medical.Hospital.662","34.297886","133.955672","香川県高松市国分寺町国分字野間137-1","無床診療所","高松市","医療法人社団くろだ耳鼻咽喉科医院","理事長　黒田　若奈","医療法人社団くろだ耳鼻咽喉科医院","2022/4/1","087-874-4133",,"クロダジビインコウカイイン",,,,"アレルギー科、耳鼻咽喉科",,,,"香川県","372013",
"jp.takamatsu.smartcity.medical.Hospital.663","34.284385","134.050839","香川県高松市出作町205番地1","無床診療所","高松市","こうの呼吸器クリニック",,"河野　洋二","2022/10/26","087-889-0111",,"コウノコキュウキクリニック",,,,"内科、呼吸器内科、アレルギー科",,,,"香川県","372013",
"jp.takamatsu.smartcity.medical.Hospital.664","34.302771"," 134.096669","香川県高松市東山崎町543-5","無床診療所","高松市","河野内科医院",,"河野　裕子","2023/10/1","087-847-8150",,"コウノナイカイイン",,,,"内科",,,,"香川県","372013",
"jp.takamatsu.smartcity.medical.Hospital.665","34.323935","134.046537","香川県高松市花ノ宮町3丁目4-13","無床診療所","高松市","さくら在宅クリニック",,"中野　淳","2022/2/7","087-814-5008",,"サクラザイタククリニック",,,,"内科、緩和ケア内科、外科",,,,"香川県","372013",
"jp.takamatsu.smartcity.medical.Hospital.666","34.340616","134.045012","香川県高松市天神前5-6　高松メディカルモール2階","無床診療所","高松市","さんぜんクリニック",,"小林　三善","2023/5/16","087-812-3006",,"サンゼンクリニック",,,,"内科、消化器内科、内視鏡内科",,,,"香川県","372013",
"jp.takamatsu.smartcity.medical.Hospital.667","34.298609","133.962914","香川県高松市国分寺町新居1362","無床診療所","高松市","誠心メンタルクリニック",,"髙松　和夫","2023/7/20","087-813-7020",,"セイシンメンタルクリニック",,,,"心療内科、精神科",,,,"香川県","372013",
"jp.takamatsu.smartcity.medical.Hospital.668","34.303303","134.081731","香川県高松市六条町1221-1","無床診療所","高松市","たけうち日帰り外科",,"竹内　聖","2023/1/11","087-813-7781",,"タケウチヒガエリゲカ",,,,"内科、外科、消化器外科、肛門外科、麻酔科",,,,"香川県","372013",
"jp.takamatsu.smartcity.medical.Hospital.669","34.338755","134.052556","香川県高松市常磐町一丁目3番地1 瓦町ＦＬＡＧ5階","無床診療所","高松市","医療法人社団イースト会高松イースト駅前クリニック","理事長　薄井　庸孝","医療法人社団イースト会","2023/4/12","087-863-1811",,"タカマツイーストエキマエクリニック",,,,"皮膚科、泌尿器科",,,,"香川県","372013",
"jp.takamatsu.smartcity.medical.Hospital.670","34.346184","134.049592","香川県高松市兵庫町11-6　カーニープレイス高松兵庫町ビル3Ｆ","無床診療所","高松市","ＴＣＢ東京中央美容外科高松院","理事長　青木　剛志","医療法人社団創彩会","2022/12/19","087-802-5791",,"ティシービー　トウキョウチュウオウビヨウゲカ　タカマツイン",,,,"形成外科、美容外科、皮膚科、美容皮膚科",,,,"香川県","372013",
"jp.takamatsu.smartcity.medical.Hospital.671","34.320741","134.046591","香川県高松市上之町二丁目8-35","無床診療所","高松市","長尾医院",,"吉田　聖子","2023/1/1","087-813-7412",,"ナガオイイン",,,,"形成外科、美容外科、皮膚科、美容皮膚科",,,,"香川県","372013",
"jp.takamatsu.smartcity.medical.Hospital.672","34.295254","134.052535","香川県高松市多肥上町1111-1","無床診療所","高松市","医療法人社団ふるきた皮フ科","理事長　古北　一泰","医療法人社団ふるきた皮フ科","2021/12/1","087-889-1112",,"フルキタヒフカ",,,,"皮膚科",,,,"香川県","372013",
"jp.takamatsu.smartcity.medical.Hospital.673","34.283796","134.041417","香川県高松市仏生山町甲271-10","無床診療所","高松市","仏生山駅前診療所",,"竹本　貴昭","2022/4/1","087-802-2086",,"ブッショウザンエキマエシンリョウショ",,,,"心療内科、精神科",,,,"香川県","372013",
"jp.takamatsu.smartcity.medical.Hospital.674","34.345345","134.050126","香川県高松市丸亀町2-13丸亀町弐番街３号館３Ｆ","無床診療所","高松市","ブランクリニック　高松院","理事長　加藤　茂俊","医療法人社団白凛会","2023/5/1","087-899-2802",,"ブランクリニックタカマツイン",,,,"美容皮膚科",,,,"香川県","372013",
"jp.takamatsu.smartcity.medical.Hospital.675","34.317331","134.053172","香川県高松市伏石町1316-6","歯科","高松市","あらき歯科医院",,"蓮井　咲弥加","2021/11/1","087-802-9011",,"アラキシカイイン",,,,"歯科",,,,"香川県","372013",
"jp.takamatsu.smartcity.medical.Hospital.676","34.328717","134.060418","香川県高松市上福岡町2032-2","歯科","高松市","すみれデンタルクリニック",,"新川　修司","2023/4/18","087-880-8246",,"スミレデンタルクリニック",,,,"歯科、小児歯科",,,,"香川県","372013",
"jp.takamatsu.smartcity.medical.Hospital.677","34.3288491","134.064336","香川県高松市上福岡町985-1","歯科","高松市","高松プレモ歯科クリニック","理事長　加藤　茂俊","医療法人社団愛生会","2023/5/1","087-814-4618",,"タカマツプレモシカクリニック",,,,"歯科、矯正歯科、小児歯科、歯科口腔外科",,,,"香川県","372013",
"jp.takamatsu.smartcity.medical.Hospital.678","34.295293","134.057525","香川県高松市多肥上町1292-1","歯科","高松市","プライム総合歯科クリニック","理事長　石井　弘之","医療法人社団白凛会","2023/9/1","087-813-8955",,"プライムソウゴウシカクリニック",,,,"歯科、矯正歯科、小児歯科、歯科口腔外科",,,,"香川県","372013",
"jp.takamatsu.smartcity.medical.Hospital.679","34.346580","134.047628","香川県高松市兵庫町8-1","無床診療所","高松市","ＡＮＤ美容外科高松院","代表理事　安原　美千子","一般社団法人九州厚生会","2023/12/3","087-802-5540",,"アンドビヨウゲカタカマツイン",,,,"美容外科",,,,"香川県","372013",
"jp.takamatsu.smartcity.medical.Hospital.680","34.347041","134.050850","香川県高松市内町2-1","無床診療所","高松市","医療法人社団恵生会いきなりキッズクリニック","理事長　入江　恵子","医療法人社団恵生会","2024/2/13","087-813-6220",,"イキナリキッズクリニック",,,,"内科、小児科、小児外科",,,,"香川県","372013",
"jp.takamatsu.smartcity.medical.Hospital.681","34.316101","134.029726","香川県高松市田村町332番地4","無床診療所","高松市","田井メディカルクリニック","理事長　脇　正志","医療法人社団わき外科クリニック","2024/4/11","087-866-7311",,"タイメディカルクリニック",,,,"呼吸器内科、胃腸内科、外科、皮膚科",,,,"香川県","372013",
"jp.takamatsu.smartcity.medical.Hospital.682","34.308037","134.065053","香川県高松市林町2528番地1","無床診療所","高松市","医療法人社団東高松クリニック　ブレイン脳外科・内科クリニック","理事長　木村　正司","医療法人社団東高松クリニック","2024/4/1","087-866-2233",,"ブレインノウゲカナイカクリニック",,,,"内科、脳神経外科、リハビリテーション科",,,,"香川県","372013",
"jp.takamatsu.smartcity.medical.Hospital.683","34.308037","134.065053","香川県高松市林町2528番地1","無床診療所","高松市","医療法人社団立心会中央高松ハートクリニック","理事長　雪入　一志","医療法人社団立心会","2024/4/1","087-802-5595",,"チュウオウタカマツハートクリニック",,,,"内科、循環器科",,,,"香川県","372013",
"jp.takamatsu.smartcity.medical.Hospital.684","34.345123","134.049438","香川県高松市林磨屋町10番地7","無床診療所","高松市","とぎやまち内科・消化器内科",,"田中　育太","2024/5/27","087-802-2871",,"トギヤマチナイカ・ショウカキナイカ",,,,"内科、消化器内科、内視鏡内科",,,,"香川県","372013",
"jp.takamatsu.smartcity.medical.Hospital.685","34.317308","134.041556","香川県高松市三条町608番地１　ゆめタウン高松１階","無床診療所","高松市","高松つつじ眼科","理事長　髙橋　敦","医療法人社団瞳友会","2024/4/1","087-802-3527",,"タカマツツツジガンカ",,,,"眼科",,,,"香川県","372013",
"jp.takamatsu.smartcity.medical.Hospital.686","34.346259","134.090036","香川県高松市春日町1650-1","無床診療所","高松市","スカイメディカルクリニック",,"關　杏奈","2024/4/1","087-813-7577",,"スカイメディカルクリニック",,,,"内科、消化器内科、内視鏡内科",,,,"香川県","372013",
"jp.takamatsu.smartcity.medical.Hospital.687","34.315438","134.030143","香川県高松市田村町321-1","歯科","高松市","医療法人社団グローバル会デンタルステーションりつりん歯科医院","理事長　谷本　佳彦","医療法人社団グローバル会","2024/4/4","087-867-1181",,"デンタルステーションリツリンシカイイン",,,,"歯科、小児歯科、歯科口腔外科",,,,"香川県","372013",
"jp.takamatsu.smartcity.medical.Hospital.688","34.316021","134.068903","香川県高松市木太町5034-10","無床診療所","高松市","いない皮ふ科形成外科クリニック",,"稲井　雅光","2024/6/3","087-865-0079",,"イナイヒフカケイセイゲカクリニック",,,,"形成外科、皮膚科、美容皮膚科",,,,"香川県","372013",
