"#property","latitude","longitude","name","address","telephoneNumber","referenceObject","note","availableDate","startTime","endTime","availableDateNote"
"1","34.31382333","134.03022889","鶴尾出張所","高松市田村町303-1","087-866-1793","http://www.city.takamatsu.kagawa.jp/kurashi/kurashi/shisetsu/shisho/sougou_center.html",,"月火水木金","09:00","17:00","国民の祝日に関する法律に規定する休日及び年末年始（１２月２９日から翌年の１月３日まで）は利用不可。"
"2","34.31875","134.05385","太田出張所","高松市伏石町2016-37","087-866-1796","http://www.city.takamatsu.kagawa.jp/kurashi/kurashi/shisetsu/shisho/sougou_center.html",,"月火水木金","09:00","17:00","国民の祝日に関する法律に規定する休日及び年末年始（１２月２９日から翌年の１月３日まで）は利用不可。"
"3","34.32624528","134.07670778","木太出張所","高松市木太町3480-2","087-834-5485","http://www.city.takamatsu.kagawa.jp/kurashi/kurashi/shisetsu/shisho/sougou_center.html",,"月火水木金","09:00","17:00","国民の祝日に関する法律に規定する休日及び年末年始（１２月２９日から翌年の１月３日まで）は利用不可。"
"4","34.33566417","134.10751306","古高松出張所","高松市高松町10-20","087-841-6261","http://www.city.takamatsu.kagawa.jp/kurashi/kurashi/shisetsu/shisho/sougou_center.html",,"月火水木金","09:00","17:00","国民の祝日に関する法律に規定する休日及び年末年始（１２月２９日から翌年の１月３日まで）は利用不可。"
"5","34.34371056","134.10129944","屋島出張所","高松市屋島中町449-1","087-841-6258","http://www.city.takamatsu.kagawa.jp/kurashi/kurashi/shisetsu/shisho/sougou_center.html",,"月火水木金","09:00","17:00","国民の祝日に関する法律に規定する休日及び年末年始（１２月２９日から翌年の１月３日まで）は利用不可。"
"6","34.29657167","134.11258333","前田出張所","高松市前田東町838","087-847-5897","http://www.city.takamatsu.kagawa.jp/kurashi/kurashi/shisetsu/shisho/sougou_center.html",,"月火水木金","09:00","17:00","国民の祝日に関する法律に規定する休日及び年末年始（１２月２９日から翌年の１月３日まで）は利用不可。"
"7","34.30697278","134.08946833","川添出張所","高松市元山町136-4","087-847-5893","http://www.city.takamatsu.kagawa.jp/kurashi/kurashi/shisetsu/shisho/sougou_center.html",,"月火水木金","09:00","17:00","国民の祝日に関する法律に規定する休日及び年末年始（１２月２９日から翌年の１月３日まで）は利用不可。"
"8","34.29778","134.07625","林出張所","高松市林町329-1","087-866-2095","http://www.city.takamatsu.kagawa.jp/kurashi/kurashi/shisetsu/shisho/sougou_center.html",,"月火水木金","09:00","17:00","国民の祝日に関する法律に規定する休日及び年末年始（１２月２９日から翌年の１月３日まで）は利用不可。"
"9","34.27771639","134.06947833","三谷出張所","高松市三谷町1201-1","087-889-4914","http://www.city.takamatsu.kagawa.jp/kurashi/kurashi/shisetsu/shisho/sougou_center.html",,"月火水木金","09:00","17:00","国民の祝日に関する法律に規定する休日及び年末年始（１２月２９日から翌年の１月３日まで）は利用不可。"
"10","34.29067333","134.02893556","一宮出張所","高松市一宮町838-1","087-886-0811","http://www.city.takamatsu.kagawa.jp/kurashi/kurashi/shisetsu/shisho/sougou_center.html",,"月火水木金","09:00","17:00","国民の祝日に関する法律に規定する休日及び年末年始（１２月２９日から翌年の１月３日まで）は利用不可。"
"11","34.29044611","134.05146667","多肥出張所","高松市多肥上町433-5","087-889-4913","http://www.city.takamatsu.kagawa.jp/kurashi/kurashi/shisetsu/shisho/sougou_center.html",,"月火水木金","09:00","17:00","国民の祝日に関する法律に規定する休日及び年末年始（１２月２９日から翌年の１月３日まで）は利用不可。"
"12","34.26941694","134.00998778","川岡出張所","高松市川部町486-3","087-886-0814","http://www.city.takamatsu.kagawa.jp/kurashi/kurashi/shisetsu/shisho/sougou_center.html",,"月火水木金","09:00","17:00","国民の祝日に関する法律に規定する休日及び年末年始（１２月２９日から翌年の１月３日まで）は利用不可。"
"13","34.28543722","134.00547111","円座出張所","高松市円座町1622-1","087-885-2411","http://www.city.takamatsu.kagawa.jp/kurashi/kurashi/shisetsu/shisho/sougou_center.html",,"月火水木金","09:00","17:00","国民の祝日に関する法律に規定する休日及び年末年始（１２月２９日から翌年の１月３日まで）は利用不可。"
"14","34.30092139","133.99466861","檀紙出張所","高松市御厩町775-1","087-886-0815","http://www.city.takamatsu.kagawa.jp/kurashi/kurashi/shisetsu/shisho/sougou_center.html",,"月火水木金","09:00","17:00","国民の祝日に関する法律に規定する休日及び年末年始（１２月２９日から翌年の１月３日まで）は利用不可。"
"15","34.329246","134.005738","弦打出張所","高松市鶴市町356-3","087-882-0891","http://www.city.takamatsu.kagawa.jp/kurashi/kurashi/shisetsu/shisho/sougou_center.html",,"月火水木金","09:00","17:00","国民の祝日に関する法律に規定する休日及び年末年始（１２月２９日から翌年の１月３日まで）は利用不可。"
"16","34.327365","133.993302","鬼無出張所","高松市鬼無町佐藤31-3","087-882-0809","http://www.city.takamatsu.kagawa.jp/kurashi/kurashi/shisetsu/shisho/sougou_center.html",,"月火水木金","09:00","17:00","国民の祝日に関する法律に規定する休日及び年末年始（１２月２９日から翌年の１月３日まで）は利用不可。"
"17","34.359028","133.968806","下笠居出張所","高松市生島町353-1","087-882-0868","http://www.city.takamatsu.kagawa.jp/kurashi/kurashi/shisetsu/shisho/sougou_center.html",,"月火水木金","09:00","17:00","国民の祝日に関する法律に規定する休日及び年末年始（１２月２９日から翌年の１月３日まで）は利用不可。"
"18","34.42212","134.05479","男木出張所","高松市男木町134","087-873-0001","http://www.city.takamatsu.kagawa.jp/kurashi/kurashi/shisetsu/shisho/sougou_center.html",,"月火水木金","09:00","17:00","国民の祝日に関する法律に規定する休日及び年末年始（１２月２９日から翌年の１月３日まで）は利用不可。"
"19","34.39210389","134.0517525","女木出張所","高松市女木町203-1","087-873-0101","http://www.city.takamatsu.kagawa.jp/kurashi/kurashi/shisetsu/shisho/sougou_center.html",,"月火水木金","09:00","17:00","国民の祝日に関する法律に規定する休日及び年末年始（１２月２９日から翌年の１月３日まで）は利用不可。"
