"#property","latitude","longitude","votingDistrict","name","fullNameInKana","address","smallConstituencies","referenceObject"
"1","34.34733036","134.0326535","第1投票区","瀬戸内保育所","セトウチホイクショ","香川県高松市瀬戸内町23-7","香川県第１区","https://takamatsu.geocloud.jp/webgis/?z%3D17&ll%3D34.347226%252C134.032642&t%3Droadmap&mp%3D30&op%3D70&vlf%3D-1"
"2","34.3461369","134.041007","第2投票区","新番丁小学校体育館","シンバンチョウショウガッコウタイイクカン","香川県高松市錦町2-14-1","香川県第１区","https://takamatsu.geocloud.jp/webgis/?z%3D17&ll%3D34.345756%252C134.040999&t%3Droadmap&mp%3D30&op%3D70&vlf%3D-1"
"3","34.34331729","134.0470147","第3投票区","旧四番丁小学校体育館","キュウヨバンチョウショウガッコウタイイクカン","香川県高松市番町1-5-1","香川県第１区","https://takamatsu.geocloud.jp/webgis/?z%3D17&ll%3D34.343304%252C134.047063&t%3Droadmap&mp%3D10&op%3D70&vlf%3D10-2-000000"
"4","34.34063937","134.0341636","第4投票区","紫雲中学校体育館","シウンチュウガッコウタイイクカン","香川県高松市紫雲町8-25","香川県第１区","https://takamatsu.geocloud.jp/webgis/?z%3D17&ll%3D34.340976%252C134.033882&t%3Droadmap&mp%3D30&op%3D70&vlf%3D-1"
"5","34.33784316","134.0397626","第5投票区","亀阜小学校体育館","カメオカショウガッコウタイイクカン","香川県高松市亀岡町10-1","香川県第１区","https://takamatsu.geocloud.jp/webgis/?z%3D17&ll%3D34.338419%252C134.039996&t%3Droadmap&mp%3D30&op%3D70&vlf%3D-1"
"6","34.33041339","134.0518875","第6投票区","高松市保健センター","タカマツシホケンセンター","香川県高松市桜町1-9-12","香川県第１区","https://takamatsu.geocloud.jp/webgis/?z%3D17&ll%3D34.330375%252C134.051907&t%3Droadmap&mp%3D40&op%3D77&vlf%3D-1"
"7","34.32675159","134.0523256","第7投票区","桜町中学校体育館","サクラマチチュウガッコウタイイクカン","香川県高松市桜町2-12-4","香川県第１区","https://takamatsu.geocloud.jp/webgis/?z%3D17&ll%3D34.326694%252C134.051883&t%3Droadmap&mp%3D30&op%3D70&vlf%3D-1"
"8","34.33386772","134.0577149","第8投票区","花園小学校体育館","ハナゾノショウガッコウタイイクカン","香川県高松市花園町2-7-7","香川県第１区","https://takamatsu.geocloud.jp/webgis/?z%3D17&ll%3D34.33385%252C134.057267&t%3Droadmap&mp%3D30&op%3D70&vlf%3D30-2-000f3f"
"9","34.33370174","134.0673308","第9投票区","玉藻中学校旧体育館","タマモチュウガッコウキュウタイイクカン","香川県高松市上福岡町714-1","香川県第１区","https://takamatsu.geocloud.jp/webgis/?z%3D17&ll%3D34.334158%252C134.066266&t%3Droadmap&mp%3D30&op%3D70&vlf%3D30-2-000f3f"
"10","34.33929617","134.0627506","第10投票区","高松第一小学校体育館","タカマツダイイチショウガッコウタイイクカン","香川県高松市松島町2-14-5","香川県第１区","https://takamatsu.geocloud.jp/webgis/?z%3D17&ll%3D34.33915%252C134.061954&t%3Droadmap&mp%3D30&op%3D70&vlf%3D30-2-000f3b"
"11","34.34088747","134.056873","第11投票区","旧築地小学校体育館","キュウツキジショウガッコウタイイクカン","香川県高松市築地町14-1","香川県第１区","https://takamatsu.geocloud.jp/webgis/?z%3D17&ll%3D34.341481%252C134.05716&t%3Droadmap&mp%3D30&op%3D70&vlf%3D30-2-000f3b"
"12","34.34378062","134.0558113","第12投票区","旧新塩屋町小学校体育館","キュウシンシオヤマチショウガッコウタイイクカン","香川県高松市末広町5","香川県第１区","https://takamatsu.geocloud.jp/webgis/?z%3D17&ll%3D34.344841%252C134.056011&t%3Droadmap&mp%3D30&op%3D70&vlf%3D30-2-000f1b"
"13","34.31565134","134.0260385","第13投票区","旧鶴尾中学校体育館","キュウツルオチュウガッコウタイイクカン","香川県高松市松並町639-1","香川県第１区","https://takamatsu.geocloud.jp/webgis/?z%3D17&ll%3D34.315545%252C134.027039&t%3Droadmap&mp%3D30&op%3D70&vlf%3D30-2-000f1a"
"14","34.31545085","134.0281273","第14投票区","鶴尾小学校体育館","ツルオショウガッコウタイイクカン","香川県高松市松並町636-1","香川県第１区","https://takamatsu.geocloud.jp/webgis/?z%3D17&ll%3D34.315761%252C134.028366&t%3Droadmap&mp%3D30&op%3D70&vlf%3D30-2-000f19"
"15","34.30583235","134.0435207","第15投票区","太田南小学校体育館","オオタミナミショウガッコウタイイクカン","香川県高松市太田下町1823-1","香川県第１区","https://takamatsu.geocloud.jp/webgis/?z%3D17&ll%3D34.305726%252C134.04443&t%3Droadmap&mp%3D30&op%3D70&vlf%3D30-2-000f19"
"16","34.31220008","134.0523587","第16投票区","太田小学校体育館","オオタショウガッコウタイイクカン","香川県高松市伏石町845-1","香川県第１区","https://takamatsu.geocloud.jp/webgis/?z%3D17&ll%3D34.312045%252C134.052128&t%3Droadmap&mp%3D30&op%3D70&vlf%3D30-2-000f19"
"17","34.31149008","134.0627723","第17投票区","中央小学校体育館","チュウオウショウガッコウタイイクカン","香川県高松市松縄町1138","香川県第１区","https://takamatsu.geocloud.jp/webgis/?z%3D17&ll%3D34.31188%252C134.062834&t%3Droadmap&mp%3D30&op%3D70&vlf%3D30-2-000f19"
"18","34.3206815","134.0740125","第18投票区","木太南小学校体育館","キタミナミショウガッコウタイイクカン","香川県高松市木太町1530-1","香川県第１区","https://takamatsu.geocloud.jp/webgis/?z%3D17&ll%3D34.320841%252C134.075544&t%3Droadmap&mp%3D30&op%3D70&vlf%3D30-2-000f19"
"19","34.32566307","134.076874","第19投票区","木太小学校体育館","キタショウガッコウタイイクカン","香川県高松市木太町3480-1","香川県第１区","https://takamatsu.geocloud.jp/webgis/?z%3D17&ll%3D34.325096%252C134.076823&t%3Droadmap&mp%3D30&op%3D70&vlf%3D30-2-000f19"
"20","34.33578156","134.0807033","第20投票区","木太北部小学校体育館","キタホクブショウガッコウタイイクカン","香川県高松市木太町2613","香川県第１区","https://takamatsu.geocloud.jp/webgis/?z%3D17&ll%3D34.335848%252C134.079912&t%3Droadmap&mp%3D30&op%3D70&vlf%3D30-2-000f19"
"21","34.32577618","134.0913691","第21投票区","春日幼稚園","カスガヨウチエン","香川県高松市春日町744","香川県第１区","https://takamatsu.geocloud.jp/webgis/?z%3D17&ll%3D34.325661%252C134.091286&t%3Droadmap&mp%3D30&op%3D70&vlf%3D30-2-000fd9"
"22","34.33161206","134.1072964","第22投票区","古高松小学校体育館","フルタカマツショウガッコウタイイクカン","香川県高松市高松町398","香川県第１区","https://takamatsu.geocloud.jp/webgis/?z%3D17&ll%3D34.332405%252C134.106591&t%3Droadmap&mp%3D30&op%3D70&vlf%3D30-2-000f19"
"23","34.34773676","134.0993093","第23投票区","屋島小学校体育館","ヤシマショウガッコウタイイクカン","香川県高松市屋島西町1205-1","香川県第１区","https://takamatsu.geocloud.jp/webgis/?z%3D17&ll%3D34.347316%252C134.100637&t%3Droadmap&mp%3D30&op%3D70&vlf%3D30-2-000f19"
"24","34.35436743","134.116442","第24投票区","屋島東小学校体育館","ヤシマヒガシショウガッコウタイイクカン","香川県高松市屋島東町942-1","香川県第１区","https://takamatsu.geocloud.jp/webgis/?z%3D17&ll%3D34.354208%252C134.116611&t%3Droadmap&mp%3D30&op%3D70&vlf%3D30-2-000f19"
"25","34.29621803","134.1125145","第25投票区","前田小学校体育館","マエダショウガッコウタイイクカン","香川県高松市前田東町819-3","香川県第１区","https://takamatsu.geocloud.jp/webgis/?z%3D17&ll%3D34.296382%252C134.113177&t%3Droadmap&mp%3D30&op%3D70&vlf%3D30-2-000f19"
"26","34.30691685","134.0929974","第26投票区","川添小学校体育館","カワゾエショウガッコウタイイクカン","香川県高松市東山崎町207-1","香川県第１区","https://takamatsu.geocloud.jp/webgis/?z%3D17&ll%3D34.306199%252C134.093043&t%3Droadmap&mp%3D30&op%3D70&vlf%3D30-2-000f19"
"27","34.30170506","134.0700955","第27投票区","林小学校体育館","ハヤシショウガッコウタイイクカン","香川県高松市林町1108-1","香川県第１区","https://takamatsu.geocloud.jp/webgis/?z%3D17&ll%3D34.301612%252C134.069787&t%3Droadmap&mp%3D30&op%3D70&vlf%3D30-2-000f19"
"28","34.27391485","134.069088","第28投票区","三渓小学校体育館","サンケイショウガッコウタイイクカン","香川県高松市三谷町2173-1","香川県第１区","https://takamatsu.geocloud.jp/webgis/?z%3D17&ll%3D34.27407%252C134.068506&t%3Droadmap&mp%3D30&op%3D70&vlf%3D30-2-000f19"
"29","34.29254234","134.0525622","第29投票区","多肥小学校体育館","タヒショウガッコウタイイクカン","香川県高松市多肥上町902-2","香川県第１区","https://takamatsu.geocloud.jp/webgis/?z%3D18&ll%3D34.291913%252C134.052581&t%3Droadmap&mp%3D30&op%3D70&vlf%3D30-2-000001"
"30","34.27426655","134.0471239","第30投票区","仏生山小学校体育館","ブッショウザンショウガッコウタイイクカン","香川県高松市仏生山町甲2461","香川県第１区","https://takamatsu.geocloud.jp/webgis/?z%3D17&ll%3D34.274732%252C134.047781&t%3Droadmap&mp%3D30&op%3D70&vlf%3D30-2-000f19"
"31","34.29084694","134.0238944","第31投票区","一宮小学校体育館","イチノミヤショウガッコウタイイクカン","香川県高松市一宮町672-1","香川県第１区","https://takamatsu.geocloud.jp/webgis/?z%3D17&ll%3D34.291104%252C134.024168&t%3Droadmap&mp%3D30&op%3D70&vlf%3D30-2-000f19"
"32","34.27984622","134.022426","第32投票区","らく楽寺井幼稚園","ラクラクテライヨウチエン","香川県高松市寺井町1369-4","香川県第１区","https://takamatsu.geocloud.jp/webgis/?z%3D17&ll%3D34.279858%252C134.022473&t%3Droadmap&mp%3D30&op%3D70&vlf%3D30-2-000fd9"
"33","34.26746144","134.0064324","第33投票区","川岡小学校体育館","カワオカショウガッコウタイイクカン","香川県高松市川部町1552","香川県第１区","https://takamatsu.geocloud.jp/webgis/?z%3D17&ll%3D34.26759%252C134.006993&t%3Droadmap&mp%3D30&op%3D70&vlf%3D30-2-000f19"
"34","34.28470171","134.005036","第34投票区","円座小学校体育館","エンザショウガッコウタイイクカン","香川県高松市円座町1630-2","香川県第１区","https://takamatsu.geocloud.jp/webgis/?z%3D17&ll%3D34.285043%252C134.00388&t%3Droadmap&mp%3D30&op%3D70&vlf%3D30-2-000f19"
"35","34.3004296","133.9938507","第35投票区","檀紙小学校体育館","ダンシショウガッコウタイイクカン","香川県高松市御廐町816","香川県第１区","https://takamatsu.geocloud.jp/webgis/?z%3D17&ll%3D34.300177%252C133.994422&t%3Droadmap&mp%3D30&op%3D70&vlf%3D30-2-000f19"
"36","34.32899076","134.0054569","第36投票区","弦打小学校体育館","ツルウチショウガッコウタイイクカン","香川県高松市鶴市町374-1","香川県第１区","https://takamatsu.geocloud.jp/webgis/?z%3D17&ll%3D34.328406%252C134.004553&t%3Droadmap&mp%3D30&op%3D70&vlf%3D30-2-000f19"
"37","34.32667095","133.9885807","第37投票区","鬼無小学校体育館","キナシショウガッコウタイイクカン","香川県高松市鬼無町佐藤607-1","香川県第１区","https://takamatsu.geocloud.jp/webgis/?z%3D17&ll%3D34.326826%252C133.990697&t%3Droadmap&mp%3D30&op%3D70&vlf%3D30-2-000f19"
"38","34.34521791","133.9985514","第38投票区","香西小学校体育館","コウザイショウガッコウタイイクカン","香川県高松市香西南町703-1","香川県第１区","https://takamatsu.geocloud.jp/webgis/?z%3D17&ll%3D34.344806%252C133.998259&t%3Droadmap&mp%3D30&op%3D70&vlf%3D30-2-000f19"
"39","34.35806715","133.9686994","第39投票区","下笠居小学校体育館","シモカサイショウガッコウタイイクカン","香川県高松市生島町345","香川県第１区","https://takamatsu.geocloud.jp/webgis/?z%3D17&ll%3D34.358386%252C133.967994&t%3Droadmap&mp%3D30&op%3D70&vlf%3D30-2-000f19"
"40","34.39209711","134.0517056","第40投票区","女木コミュニティセンター","メギコミュニティセンター","香川県高松市女木町203-1","香川県第１区","https://takamatsu.geocloud.jp/webgis/?z%3D17&ll%3D34.391681%252C134.052529&t%3Droadmap&mp%3D60&op%3D70&vlf%3D-1"
"41","34.42245501","134.0541423","第41投票区","男木コミュニティセンター","オギコミュニティセンター","香川県高松市男木町1988","香川県第１区","https://takamatsu.geocloud.jp/webgis/?z%3D17&ll%3D34.421031%252C134.0555&t%3Droadmap&mp%3D60&op%3D70&vlf%3D-1"
"42","34.27577882","134.0893463","第42投票区","川島小学校体育館","カワシマショウガッコウタイイクカン","香川県高松市川島東町864-1","香川県第１区","https://takamatsu.geocloud.jp/webgis/?z%3D17&ll%3D34.275668%252C134.08907&t%3Droadmap&mp%3D30&op%3D70&vlf%3D30-2-000f3f"
"43","34.27456128","134.1028663","第43投票区","十河小学校体育館","ソゴウショウガッコウタイイクカン","香川県高松市十川西町366-5","香川県第１区","https://takamatsu.geocloud.jp/webgis/?z%3D17&ll%3D34.274712%252C134.102236&t%3Droadmap&mp%3D30&op%3D70&vlf%3D30-2-000f3f"
"44","34.23911322","134.0975745","第44投票区","東植田小学校体育館","ヒガシウエタショウガッコウタイイクカン","香川県高松市東植田町2008","香川県第１区","https://takamatsu.geocloud.jp/webgis/?z%3D17&ll%3D34.238958%252C134.097899&t%3Droadmap&mp%3D30&op%3D70&vlf%3D30-2-000f3f"
"45","34.19370212","134.0980816","第45投票区","東植田小学校菅沢分校体育館","ヒガシウエタショウガッコウスゲザワブンコウタイイクカン","香川県高松市菅沢町339","香川県第１区","https://takamatsu.geocloud.jp/webgis/?z%3D17&ll%3D34.193567%252C134.098236&t%3Droadmap&mp%3D30&op%3D70&vlf%3D30-2-000f3f"
"46","34.23940326","134.0789695","第46投票区","植田小学校体育館","ウエタショウガッコウタイイクカン","香川県高松市西植田町2337","香川県第１区","https://takamatsu.geocloud.jp/webgis/?z%3D17&ll%3D34.239421%252C134.077851&t%3Droadmap&mp%3D30&op%3D70&vlf%3D30-2-000f3f"
"47","34.32756977","134.0990025","第47投票区","古高松南小学校体育館","フルタカマツミナミショウガッコウタイイクカン","香川県高松市新田町甲2605","香川県第１区","https://takamatsu.geocloud.jp/webgis/?z%3D17&ll%3D34.326985%252C134.098855&t%3Droadmap&mp%3D30&op%3D70&vlf%3D30-2-000f3f"
"48","34.3509721","134.0899852","第48投票区","屋島西小学校体育館","ヤシマニシショウガッコウタイイクカン","香川県高松市屋島西町2469","香川県第１区","https://takamatsu.geocloud.jp/webgis/?z%3D17&ll%3D34.351725%252C134.090476&t%3Droadmap&mp%3D30&op%3D70&vlf%3D30-2-00003f"
"49","34.19621134","134.0415181","第49投票区","塩江コミュニティセンター","シオノエコミュニティセンター","香川県高松市塩江町安原下第2号1645","香川県第２区","https://takamatsu.geocloud.jp/webgis/?z%3D17&ll%3D34.196482%252C134.042363&t%3Droadmap&mp%3D10&op%3D70&sa%3D1&vlf%3D-1"
"50","34.1561263","134.0245727","第50投票区","旧安原小学校戸石分校","キュウヤスハラショウガッコウトイシブンコウ","香川県高松市塩江町安原下第2号857","香川県第２区","https://takamatsu.geocloud.jp/webgis/?z%3D16&ll%3D34.154981%252C134.025195&t%3Droadmap&mp%3D30&op%3D70&vlf%3D30-2-00003f"
"51","34.17008316","134.0833202","第51投票区","旧塩江小学校ランチルーム","キュウシオノエショウガッコウランチルーム","香川県高松市塩江町安原上東365","香川県第２区","https://takamatsu.geocloud.jp/webgis/?z%3D16&ll%3D34.171672%252C134.082657&t%3Droadmap&mp%3D30&op%3D70&vlf%3D30-2-00003f"
"52","34.15250507","134.0765379","第52投票区","旧上西小学校職員室","キュウカミニシショウガッコウショクインシツ","香川県高松市塩江町上西乙461","香川県第２区","https://takamatsu.geocloud.jp/webgis/?z%3D17&ll%3D34.151888%252C134.076605&t%3Droadmap&mp%3D30&op%3D70&vlf%3D30-2-00003f"
"53","34.12613672","134.073821","第53投票区","西山ふれあいセンター","ニシヤマフレアイセンター","香川県高松市塩江町上西甲947-3","香川県第２区","https://takamatsu.geocloud.jp/webgis/?z%3D16&ll%3D34.124467%252C134.073137&t%3Droadmap&mp%3D60&op%3D70&vlf%3D-1"
"55","34.24030943","134.0189916","第55投票区","香南町由佐農村環境改善センター","コウナンチョウユサノウソンカンキョウカイゼンセンター","香川県高松市香南町由佐357-2","香川県第２区","https://takamatsu.geocloud.jp/webgis/?z%3D17&ll%3D34.240305%252C134.018946&t%3Droadmap&mp%3D60&op%3D70&vlf%3D-1"
"56","34.24521421","134.0003609","第56投票区","香南町池西農村環境改善センター","コウナンチョウイケニシノウソンカンキョウカイゼンセンター","香川県高松市香南町池内522-1","香川県第２区","https://takamatsu.geocloud.jp/webgis/?z%3D17&ll%3D34.245059%252C134.000428&t%3Droadmap&mp%3D60&op%3D70&vlf%3D-1"
"57","34.26693233","134.0269817","第57投票区","大野小学校南校舎（教育相談室）","オオノショウガッコウミナミコウシャ（キョウイクソウダンシツ）","香川県高松市香川町大野1045-1","香川県第２区","https://takamatsu.geocloud.jp/webgis/?z%3D17&ll%3D34.267021%252C134.026228&t%3Droadmap&mp%3D30&op%3D70&vlf%3D30-2-000f3f"
"58","34.259358","134.0408212","第58投票区","浅野小学校体育館","アサノショウガッコウタイイクカン","香川県高松市香川町浅野3088","香川県第２区","https://takamatsu.geocloud.jp/webgis/?z%3D17&ll%3D34.25899%252C134.041253&t%3Droadmap&mp%3D30&op%3D70&vlf%3D30-2-000f3f"
"59","34.24146399","134.0344268","第59投票区","川東コミュニティセンター","カワヒガシコミュニティセンター","香川県高松市香川町川東上1865-13","香川県第２区","https://takamatsu.geocloud.jp/webgis/?z%3D17&ll%3D34.241158%252C134.034113&t%3Droadmap&mp%3D60&op%3D70&vlf%3D-1"
"60","34.20446741","134.061694","第60投票区","東谷コミュニティセンター","ヒガシタニコミュニティセンター","香川県高松市香川町東谷873-3","香川県第２区","https://takamatsu.geocloud.jp/webgis/?z%3D17&ll%3D34.204636%252C134.061702&t%3Droadmap&mp%3D60&op%3D70&vlf%3D-1"
"61","34.21202672","134.0314009","第61投票区","香川町多目的研修集会施設","カガワチョウタモクテキケンシュウシュウカイシセツ","香川県高松市香川町安原下第3号194-1","香川県第２区","https://takamatsu.geocloud.jp/webgis/?z%3D17&ll%3D34.211938%252C134.031248&t%3Droadmap&mp%3D10&op%3D70&vlf%3D-1"
"62","34.30614945","133.9638445","第62投票区","国分寺北部小学校体育館","コクブンジホクブショウガッコウタイイクカン","香川県高松市国分寺町新居1880","香川県第２区","https://takamatsu.geocloud.jp/webgis/?z%3D17&ll%3D34.306114%252C133.962785&t%3Droadmap&mp%3D30&op%3D70&vlf%3D30-2-000f3f"
"63","34.29733908","133.9648992","第63投票区","国分寺中学校体育館","コクブンジチュウガッコウタイイクカン","香川県高松市国分寺町新居1131-1","香川県第２区","https://takamatsu.geocloud.jp/webgis/?z%3D17&ll%3D34.297636%252C133.963947&t%3Droadmap&mp%3D30&op%3D70&vlf%3D30-2-000f3f"
"64","34.28372508","133.9609987","第64投票区","国分寺南部小学校体育館","コクブンジナンブショウガッコウタイイクカン","香川県高松市国分寺町福家甲3005","香川県第２区","https://takamatsu.geocloud.jp/webgis/?z%3D17&ll%3D34.28396%252C133.961275&t%3Droadmap&mp%3D30&op%3D70&vlf%3D30-2-000f3f"
"65","34.38438031","134.1266054","第65投票区","庵治支所","アジシショ","香川県高松市庵治町6393-5","香川県第２区","https://takamatsu.geocloud.jp/webgis/?z%3D17&ll%3D34.384035%252C134.126592&t%3Droadmap&mp%3D10&op%3D70&vlf%3D10-2-00006c"
"66","34.39146757","134.1528432","第66投票区","鎌野自治会館","カマノジチカイカン","香川県高松市庵治町4510-12","香川県第２区","https://takamatsu.geocloud.jp/webgis/?z%3D17&ll%3D34.391472%252C134.152642&t%3Droadmap&mp%3D60&op%3D70&vlf%3D-1"
"67","34.36485892","134.156614","第67投票区","高尻地区自治連合会会館","コウジリチクジチレンゴウカイカイカン","香川県高松市庵治町3015-3","香川県第２区","https://takamatsu.geocloud.jp/webgis/?z%3D17&ll%3D34.365439%252C134.155871&t%3Droadmap&mp%3D60&op%3D70&vlf%3D-1"
"68","34.40961075","134.1067227","第68投票区","大島青松園大島会館","オオシマセイショウエンオオシマカイカン","香川県高松市庵治町6034-1","香川県第２区","https://takamatsu.geocloud.jp/webgis/?z%3D17&ll%3D34.408761%252C134.106256&t%3Droadmap&mp%3D60&op%3D70&vlf%3D-1"
"69","34.33392676","134.1520889","第69投票区","牟礼南小学校体育館","ムレミナミショウガッコウタイイクカン","香川県高松市牟礼町大町1115-1","香川県第２区","https://takamatsu.geocloud.jp/webgis/?z%3D17&ll%3D34.333754%252C134.152805&t%3Droadmap&mp%3D30&op%3D70&vlf%3D-1"
"70","34.33613857","134.1426854","第70投票区","大町コミュニティセンター","オオマチコミュニティセンター","香川県高松市牟礼町大町1463-2","香川県第２区","https://takamatsu.geocloud.jp/webgis/?z%3D17&ll%3D34.336143%252C134.141701&t%3Droadmap&mp%3D60&op%3D70&vlf%3D60-2-000001"
"71","34.35111416","134.1255468","第71投票区","牟礼北小学校体育館","ムレキタショウガッコウタイイクカン","香川県高松市牟礼町牟礼2900-1","香川県第２区","https://takamatsu.geocloud.jp/webgis/?z%3D17&ll%3D34.350782%252C134.125807&t%3Droadmap&mp%3D30&op%3D70&vlf%3D30-2-000f2f"
