"#property","latitude","longitude","name","address","telephoneNumber","referenceObject","note"
"1","34.296244","134.113886","高松市立前田幼稚園","高松市前田東町788-1","087-847-6582","http://www.city.takamatsu.kagawa.jp/kurashi/kosodate/youchien_hoiku/kodomoen/chiiki_suishin/gaiyou.html","市立幼稚園"
"2","34.306811","134.094141","高松市立川添幼稚園","高松市東山崎町601","087-847-6934","http://www.city.takamatsu.kagawa.jp/kurashi/kosodate/youchien_hoiku/kodomoen/chiiki_suishin/gaiyou.html","市立幼稚園"
"4","34.275992","134.070302","高松市立三渓幼稚園","高松市三谷町2316-2","087-889-2514","http://www.city.takamatsu.kagawa.jp/kurashi/kosodate/youchien_hoiku/kodomoen/chiiki_suishin/gaiyou.html","市立幼稚園"
"5","34.345893","133.996786","高松市立香西幼稚園","高松市香西西町59-1","087-882-0161","http://www.city.takamatsu.kagawa.jp/kurashi/kosodate/youchien_hoiku/kodomoen/chiiki_suishin/gaiyou.html","市立幼稚園"
"6","34.291795","134.024177","高松市立一宮幼稚園","高松市一宮町1233-2","087-886-3088","http://www.city.takamatsu.kagawa.jp/kurashi/kosodate/youchien_hoiku/kodomoen/chiiki_suishin/gaiyou.html","市立幼稚園"
"7","34.292403","134.051671","高松市立多肥幼稚園","高松市多肥上町990-2","087-889-2513","http://www.city.takamatsu.kagawa.jp/kurashi/kosodate/youchien_hoiku/kodomoen/chiiki_suishin/gaiyou.html","市立幼稚園"
"8","34.268131","134.008164","高松市立川岡幼稚園","高松市川部町524-3","087-885-0550","http://www.city.takamatsu.kagawa.jp/kurashi/kosodate/youchien_hoiku/kodomoen/chiiki_suishin/gaiyou.html","市立幼稚園"
"9","34.285767","134.003182","高松市立円座幼稚園","高松市円座町125-2","087-885-0846","http://www.city.takamatsu.kagawa.jp/kurashi/kosodate/youchien_hoiku/kodomoen/chiiki_suishin/gaiyou.html","市立幼稚園"
"10","34.300941","133.995119","高松市立檀紙幼稚園","高松市御厩町776-1","087-885-2595","http://www.city.takamatsu.kagawa.jp/kurashi/kosodate/youchien_hoiku/kodomoen/chiiki_suishin/gaiyou.html","市立幼稚園"
"11","34.32771","134.005074","高松市立弦打幼稚園","高松市鶴市町360","087-881-3563","http://www.city.takamatsu.kagawa.jp/kurashi/kosodate/youchien_hoiku/kodomoen/chiiki_suishin/gaiyou.html","市立幼稚園"
"12","34.328058","133.992816","高松市立鬼無幼稚園","高松市鬼無町佐藤128-1","087-881-4913","http://www.city.takamatsu.kagawa.jp/kurashi/kosodate/youchien_hoiku/kodomoen/chiiki_suishin/gaiyou.html","市立幼稚園"
"13","34.322396","134.076556","高松市立木太幼稚園","高松市木太町3901-1","087-833-8144","http://www.city.takamatsu.kagawa.jp/kurashi/kosodate/youchien_hoiku/kodomoen/chiiki_suishin/gaiyou.html","市立幼稚園"
"17","34.336237","134.07927","高松市立木太北部幼稚園","高松市木太町2604-5","087-862-1031","http://www.city.takamatsu.kagawa.jp/kurashi/kosodate/youchien_hoiku/kodomoen/chiiki_suishin/gaiyou.html","市立幼稚園"
"18","34.35044","134.126751","高松市立栗山幼稚園","高松市牟礼町牟礼3028","087-845-1646","http://www.city.takamatsu.kagawa.jp/kurashi/kosodate/youchien_hoiku/kodomoen/chiiki_suishin/gaiyou.html","市立幼稚園"
"19","34.344356","134.137129","高松市立田井幼稚園（令和2年4月1日から休園）","高松市牟礼町牟礼1243-2","087-845-3701","http://www.city.takamatsu.kagawa.jp/kurashi/kosodate/youchien_hoiku/kodomoen/chiiki_suishin/gaiyou.html","市立幼稚園"
"20","34.33989","134.148384","高松市立大町幼稚園","高松市牟礼町牟礼100-1","087-845-5718","http://www.city.takamatsu.kagawa.jp/kurashi/kosodate/youchien_hoiku/kodomoen/chiiki_suishin/gaiyou.html","市立幼稚園"
"21","34.267361","134.024324","高松市立大野幼稚園","高松市香川町大野1331-1","087-886-5010","http://www.city.takamatsu.kagawa.jp/kurashi/kosodate/youchien_hoiku/kodomoen/chiiki_suishin/gaiyou.html","市立幼稚園"
"23","34.306989","133.963516","高松市立国分寺北部幼稚園","高松市国分寺町新居1870-2","087-874-1155","http://www.city.takamatsu.kagawa.jp/kurashi/kosodate/youchien_hoiku/kodomoen/chiiki_suishin/gaiyou.html","市立幼稚園"
"24","34.285316","133.961113","高松市立国分寺南部幼稚園","高松市国分寺町福家甲3123-1","087-874-1159","http://www.city.takamatsu.kagawa.jp/kurashi/kosodate/youchien_hoiku/kodomoen/chiiki_suishin/gaiyou.html","市立幼稚園"
"25","34.358509","133.967533","高松市下笠居こども園","高松市生島町335","087-882-2531","https://kagawa-colorful.com/hoikusyo/h142","市立認定こども園"
"26","34.328643","134.156038","高松市はらこども園","高松市牟礼町原570-1","087-845-0234","https://kagawa-colorful.com/hoikusyo/h143","市立認定こども園"
"27","34.385761","134.131516","高松市庵治こども園","高松市庵治町853-1","087-871-2535","https://kagawa-colorful.com/hoikusyo/h144","市立認定こども園"
"28","34.242096","134.005834","高松市香南こども園","高松市香南町横井865-1","087-887-7876","https://kagawa-colorful.com/hoikusyo/h145","市立認定こども園"
"29","34.188524","134.061382","高松市塩江こども園","高松市塩江町安原下第1号887","087-890-2022","https://kagawa-colorful.com/hoikusyo/h146","市立認定こども園"
"30","34.237755","134.035134","高松市川東こども園","高松市香川町川東上1987-4","087-879-4602","https://kagawa-colorful.com/hoikusyo/h27","市立認定こども園"
"31","34.342609","134.099868","屋島こども園","高松市屋島西町1744-1","087-841-9711","https://kagawa-colorful.com/hoikusyo/h307/","市立認定こども園"
"32","34.2959789","134.0789659","林こども園","高松市林町1405-4","087-865-1676","https://kagawa-colorful.com/hoikusyo/h306/","市立認定こども園"
"33","34.339334","134.043665","香川大学教育学部附属幼稚園高松園舎","高松市番町五丁目1-55","087-861-2393",,"国立幼稚園"
"34","34.33993","134.060168","高松中央高校幼稚園","高松市松島町一丁目14-8","087-831-0338",,"私立幼稚園"
"35","34.299667","134.049999","マリア幼稚園","高松市多肥下町14-3","087-867-7303",,"私立幼稚園"
"36","34.341348","134.10799","のぞみ幼稚園","高松市屋島中町30","087-843-2107",,"私立幼稚園"
"37","34.330038","134.05066","栗林幼稚園","高松市栗林町二丁目19-4","087-834-0263",,"私立幼稚園"
"38","34.337611","134.042829","高松幼稚園","高松市亀岡町1-6","087-861-3666",,"私立幼稚園"
"40","34.330593","134.051379","桜町聖母幼稚園","高松市桜町一丁目8-13","087-831-0328",,"私立幼稚園"
"41","34.280112","134.047253","相愛幼稚園","高松市仏生山町甲546","087-888-2606",,"私立幼稚園"
"42","34.301496","134.044062","太田百華幼稚園","高松市太田上町932","087-867-7445",,"私立幼稚園"
"43","34.340658","134.052507","光華幼稚園","高松市瓦町一丁目13-8","087-831-5011",,"私立幼稚園"
"44","34.322588","134.052686","くにとう幼稚園","高松市伏石町1611","087-866-1666",,"私立幼稚園"
"46","34.344964","134.095292","屋島教会幼稚園","高松市屋島西町1392-7","087-841-1925",,"新制度に移行している私立幼稚園"
"47","34.318503","134.045934","青空幼稚園","高松市三条町498","087-867-7314",,"新制度に移行している私立幼稚園"
"48","34.319073","134.034293","愛育幼稚園","高松市西ハゼ町310","087-865-5845",,"新制度に移行している私立幼稚園"
"49","34.304447","134.000126","まゆみ幼稚園","高松市檀紙町1541-4","087-885-0756",,"新制度に移行している私立幼稚園"
"50","34.343464","134.031956","二番丁幼稚園","高松市昭和町二丁目7-1","087-861-3575",,"新制度に移行している私立幼稚園"
"51","34.314879","133.994961","ときわ幼稚園","高松市飯田町138","087-881-2796",,"新制度に移行している私立幼稚園"
"52","34.343412","134.044394","高松聖母幼稚園","高松市番町二丁目4-31","087-851-2372",,"新制度に移行している私立幼稚園"
"53","34.292144","134.066237","サンシャインこどもの森","高松市上林町502-2","087-889-8181","https://kagawa-colorful.com/hoikusyo/h147/","私立認定こども園"
"54","34.303319","133.949144","いずみこども園","高松市国分寺町国分2408","087-874-0882","https://kagawa-colorful.com/hoikusyo/h148","私立認定こども園"
"55","34.304328","133.97246","いずみこども園分園","国分寺町新居281-1","087-875-0882","https://kagawa-colorful.com/hoikusyo/h211","私立認定こども園"
"56","34.327571","134.087355","認定こども園高松東幼稚園","高松市春日町688","087-841-2306","https://kagawa-colorful.com/hoikusyo/h262","私立認定こども園"
"57","34.325356","134.099079","幼保連携型認定こども園新田幼稚園","高松市新田町甲2630-1","087-841-3686","https://kagawa-colorful.com/hoikusyo/h263","私立認定こども園"
"58","34.268464","134.006758","認定こども園和光こども園","高松市川部町1561-1","087-886-5879","https://kagawa-colorful.com/hoikusyo/h39/","私立認定こども園"
"59","34.331077","134.094275","認定こども園春日こども園","高松市春日町1287-1","087-843-3689","https://kagawa-colorful.com/hoikusyo/h163/","私立認定こども園"
"60","34.326539","134.047837","認定こども園花ノ宮こども園","高松市花ノ宮町一丁目10-22","087-831-6318","https://kagawa-colorful.com/hoikusyo/h175/","私立認定こども園"
"61","34.333461","134.04506","認定こども園中野保育所","高松市中野町27-5","087-831-8659","https://kagawa-colorful.com/hoikusyo/h174/","私立認定こども園"
"62","34.279891","134.042395","幼保連携型認定こども園カナン保育園","高松市仏生山町甲745-2","087-889-1059","https://kagawa-colorful.com/hoikusyo/h166/","私立認定こども園"
"63","34.292691","134.0352","幼保連携型認定こども園すまいる","高松市三名町591-1","087-802-3838","https://kagawa-colorful.com/hoikusyo/h275/","私立認定こども園"
"64","34.2936161","134.0789214","げんき・結愛・げんきこども園","高松市六条町604番地7","087-813-9818","https://kagawa-colorful.com/hoikusyo/h37/","私立認定こども園"
"65","34.2734776","134.1024882","幼保連携型カナン十河こども園","高松市十川西町546-1","087-848-0320","https://kagawa-colorful.com/hoikusyo/h48/","私立認定こども園"
"66","34.3064057","134.042294","幼保連携型認定こども園高松和貴こども園","高松市林町2197-1","087-814-4141","https://kagawa-colorful.com/hoikusyo/h313/","私立認定こども園"
"67","34.3264572","134.0769366","みらい学園","高松市木太町3429-3","087-899-2305",,"私立認定こども園"
"68","34.353781","134.091115","認定こども園やしま幼稚園","高松市屋島西町2477-4","087-843-2241","https://kagawa-colorful.com/hoikusyo/h149","私立認定こども園"
"69","34.338923","134.031483","高松聖ヤコブ幼稚園","高松市西宝町二丁目3-14","087-861-0425","https://kagawa-colorful.com/hoikusyo/h249","私立認定こども園"
"70","34.338702","134.038281","認定こども園亀阜幼稚園","宮脇町一丁目2-23","087-831-2557","https://kagawa-colorful.com/hoikusyo/h252","私立認定こども園"
"71","34.279836","134.022373","らく楽寺井幼稚園","高松市寺井町1369-4","087-885-2038","https://kagawa-colorful.com/hoikusyo/h264","私立認定こども園"
"72","34.334019","134.114815","幼稚園型認定こども園つくし幼稚園","高松市高松町1711-7","087-843-4484","https://kagawa-colorful.com/hoikusyo/h272/","私立認定こども園"
"73","34.304505","134.021922","認定こども園勅使百華幼稚園","高松市勅使町955","087-865-9419","https://kagawa-colorful.com/hoikusyo/h273/","私立認定こども園"
"74","34.30287","134.016075","メリーＧＯランド高松園","高松市成合町796-1","087-886-6669","https://kagawa-colorful.com/hoikusyo/h274/","私立認定こども園"
